{
"type": "FeatureCollection",
"name": "boundary",
"crs": { "type": "name", "properties": { "name": "urn:ogc:def:crs:OGC:1.3:CRS84" } },
"features": [
{ "type": "Feature", "properties": { "area_id": "SAGBAMA_LGA", "name": "Sagbama", "admin_level": "LGA", "state": "Bayelsa", "country": "Nigeria", "area_km2": 891.941, "source_class": "Authoritative project boundary" }, "geometry": { "type": "Polygon", "coordinates": [ [ [ 5.9555798, 5.0794155 ], [ 5.9524897, 5.0879948 ], [ 5.954911, 5.0950982 ], [ 5.9579253, 5.1102546 ], [ 5.9598739, 5.1166713 ], [ 5.961836, 5.1237836 ], [ 5.9596153, 5.1291211 ], [ 5.9620277, 5.1357607 ], [ 5.9625227, 5.1378253 ], [ 5.9621659, 5.144282 ], [ 5.9629507, 5.1500298 ], [ 5.9595663, 5.1546986 ], [ 5.9610511, 5.1608877 ], [ 5.9629285, 5.1602902 ], [ 5.9697464, 5.1537131 ], [ 5.9749591, 5.1476264 ], [ 5.9745087, 5.1483264 ], [ 5.9814337, 5.1482106 ], [ 5.9842742, 5.1380081 ], [ 5.9897365, 5.1333037 ], [ 5.9949939, 5.1299817 ], [ 5.9973973, 5.1214069 ], [ 6.0042509, 5.1171395 ], [ 6.0106988, 5.116105 ], [ 6.0199291, 5.1157171 ], [ 6.0279243, 5.1105044 ], [ 6.0385503, 5.1107853 ], [ 6.0559319, 5.1148743 ], [ 6.0638602, 5.1198105 ], [ 6.0652603, 5.1204793 ], [ 6.0668968, 5.121835 ], [ 6.0713515, 5.1261424 ], [ 6.0744818, 5.1341643 ], [ 6.0768451, 5.1375845 ], [ 6.0823699, 5.1508726 ], [ 6.0851702, 5.1526696 ], [ 6.1015976, 5.1549259 ], [ 6.1147341, 5.1533206 ], [ 6.1257391, 5.1485182 ], [ 6.1338235, 5.1488437 ], [ 6.1412657, 5.1521747 ], [ 6.1472944, 5.1536863 ], [ 6.1558826, 5.1565402 ], [ 6.1600564, 5.1578511 ], [ 6.1663526, 5.1616681 ], [ 6.1686848, 5.1630103 ], [ 6.1703212, 5.1643704 ], [ 6.1747848, 5.1691371 ], [ 6.1794401, 5.1713667 ], [ 6.1842871, 5.1715138 ], [ 6.190084, 5.1730298 ], [ 6.1945118, 5.1754913 ], [ 6.2057175, 5.1831431 ], [ 6.205557, 5.1875309 ], [ 6.2064355, 5.1990488 ], [ 6.2033364, 5.2074096 ], [ 6.2024267, 5.2081141 ], [ 6.2014725, 5.2205907 ], [ 6.2053653, 5.2329825 ], [ 6.2072604, 5.2359478 ], [ 6.2107385, 5.2368129 ], [ 6.2232061, 5.2368307 ], [ 6.2310185, 5.234619 ], [ 6.237346, 5.2262092 ], [ 6.2437939, 5.2249427 ], [ 6.250964, 5.2257454 ], [ 6.2639311, 5.2282916 ], [ 6.2701917, 5.2297987 ], [ 6.2778658, 5.2333616 ], [ 6.279752, 5.2358675 ], [ 6.2818834, 5.2390602 ], [ 6.2844385, 5.2399387 ], [ 6.2849157, 5.2408528 ], [ 6.2868642, 5.2472784 ], [ 6.2888352, 5.2550908 ], [ 6.2902577, 5.2573738 ], [ 6.2929064, 5.2640178 ], [ 6.2962596, 5.2715716 ], [ 6.2988548, 5.2749917 ], [ 6.303635, 5.2850604 ], [ 6.3046204, 5.288962 ], [ 6.3069927, 5.2928459 ], [ 6.3103325, 5.2997085 ], [ 6.3193533, 5.3007073 ], [ 6.331112, 5.2995881 ], [ 6.3383223, 5.3029235 ], [ 6.3462283, 5.3064818 ], [ 6.3545624, 5.3077215 ], [ 6.3589234, 5.3062633 ], [ 6.367195, 5.3038153 ], [ 6.3736339, 5.3020897 ], [ 6.3815043, 5.3033427 ], [ 6.3939719, 5.3033605 ], [ 6.4013116, 5.3004666 ], [ 6.4110101, 5.3005334 ], [ 6.4198569, 5.3052244 ], [ 6.4319189, 5.3087114 ], [ 6.4444356, 5.3117257 ], [ 6.4486227, 5.3137324 ], [ 6.4581562, 5.3177233 ], [ 6.4700174, 5.3230563 ], [ 6.4779412, 5.3277652 ], [ 6.4863199, 5.3320058 ], [ 6.4930798, 5.3360457 ], [ 6.4968211, 5.3387479 ], [ 6.5036078, 5.3446295 ], [ 6.5124636, 5.3497887 ], [ 6.5109787, 5.3578864 ], [ 6.5104124, 5.3657389 ], [ 6.5071082, 5.3754864 ], [ 6.5051061, 5.3801328 ], [ 6.5019758, 5.3866476 ], [ 6.4999737, 5.3898358 ], [ 6.5043034, 5.3877624 ], [ 6.5167309, 5.385243 ], [ 6.530679, 5.3912315 ], [ 6.5311071, 5.3912583 ], [ 6.5310625, 5.3885695 ], [ 6.5321238, 5.3827905 ], [ 6.5322976, 5.3793302 ], [ 6.5338093, 5.3728511 ], [ 6.5376753, 5.3693329 ], [ 6.5412649, 5.3632819 ], [ 6.5441722, 5.3574717 ], [ 6.5454431, 5.3505378 ], [ 6.5450997, 5.3436306 ], [ 6.542674, 5.3362954 ], [ 6.5375282, 5.3317739 ], [ 6.5321015, 5.3244921 ], [ 6.5294616, 5.3180889 ], [ 6.5220908, 5.3043861 ], [ 6.515964, 5.2964266 ], [ 6.5116475, 5.2863624 ], [ 6.5078663, 5.2806636 ], [ 6.5045487, 5.2751924 ], [ 6.5026669, 5.2731501 ], [ 6.5007763, 5.2701848 ], [ 6.4955948, 5.2635898 ], [ 6.4902261, 5.2597638 ], [ 6.4862396, 5.2559157 ], [ 6.4797159, 5.2518802 ], [ 6.4750205, 5.2466586 ], [ 6.4664278, 5.2433454 ], [ 6.4554362, 5.2340884 ], [ 6.4484131, 5.2275246 ], [ 6.4413632, 5.2195784 ], [ 6.4295466, 5.2163233 ], [ 6.4158304, 5.209871 ], [ 6.405133, 5.2047519 ], [ 6.3953899, 5.2012337 ], [ 6.3852097, 5.1993297 ], [ 6.3732772, 5.203218 ], [ 6.3626958, 5.2052425 ], [ 6.3528144, 5.2074853 ], [ 6.3376133, 5.2088944 ], [ 6.3203031, 5.2084931 ], [ 6.3050663, 5.2076013 ], [ 6.2960456, 5.2061432 ], [ 6.2814688, 5.2036238 ], [ 6.2747311, 5.2005114 ], [ 6.2654205, 5.19537 ], [ 6.2581789, 5.1897292 ], [ 6.2487746, 5.1788312 ], [ 6.2435486, 5.1694715 ], [ 6.2338991, 5.1576549 ], [ 6.2325301, 5.1445407 ], [ 6.2307554, 5.1346637 ], [ 6.2273665, 5.1245863 ], [ 6.2260778, 5.1163101 ], [ 6.2213645, 5.11017 ], [ 6.2129681, 5.1045515 ], [ 6.2073674, 5.1004982 ], [ 6.1998806, 5.0939432 ], [ 6.1936646, 5.0804545 ], [ 6.1896113, 5.0724594 ], [ 6.1860707, 5.0674473 ], [ 6.1738038, 5.0506052 ], [ 6.1667093, 5.0398945 ], [ 6.1598022, 5.0264191 ], [ 6.1541481, 5.0191418 ], [ 6.1432634, 5.002273 ], [ 6.1382825, 4.9940638 ], [ 6.1326285, 4.9865547 ], [ 6.1254136, 4.9827601 ], [ 6.1156794, 4.9799285 ], [ 6.1055305, 4.9798705 ], [ 6.0906951, 4.989801 ], [ 6.0894287, 4.9969668 ], [ 6.0874354, 5.0022998 ], [ 6.0758997, 5.0163192 ], [ 6.070531, 5.0267803 ], [ 6.0663082, 5.0365279 ], [ 6.050795, 5.0473903 ], [ 6.047143, 5.0497535 ], [ 6.0420328, 5.0475374 ], [ 6.0287581, 5.0399302 ], [ 6.0283434, 5.0284168 ], [ 6.0316521, 5.0191419 ], [ 6.0334402, 5.015423 ], [ 6.0365927, 5.0107632 ], [ 6.0460193, 5.008761 ], [ 6.0542463, 5.0040121 ], [ 6.0588348, 5.002554 ], [ 6.0638512, 4.9987816 ], [ 6.065617, 4.9939123 ], [ 6.0691844, 4.9862471 ], [ 6.0705132, 4.9827689 ], [ 6.0704329, 4.9779308 ], [ 6.0715789, 4.9631667 ], [ 6.0709413, 4.9523445 ], [ 6.0695946, 4.9403852 ], [ 6.0696035, 4.926562 ], [ 6.0673026, 4.9127745 ], [ 6.065452, 4.8982913 ], [ 6.062518, 4.8879729 ], [ 6.057448, 4.8740025 ], [ 6.0587322, 4.8677598 ], [ 6.0565473, 4.8611158 ], [ 6.0592138, 4.8548463 ], [ 6.0587144, 4.8382674 ], [ 6.0564893, 4.8290861 ], [ 6.0535908, 4.821073 ], [ 6.0493592, 4.8160744 ], [ 6.0432636, 4.8099565 ], [ 6.0328472, 4.8078295 ], [ 6.0224886, 4.8091538 ], [ 6.0151177, 4.8099699 ], [ 6.0034304, 4.8145494 ], [ 5.9845818, 4.8187855 ], [ 5.9821917, 4.8278108 ], [ 5.9829765, 4.8335585 ], [ 5.9858884, 4.8424945 ], [ 5.9878682, 4.8507573 ], [ 5.989148, 4.8588015 ], [ 5.9921132, 4.8707296 ], [ 5.9952748, 4.8808161 ], [ 5.9940708, 4.891897 ], [ 5.9955914, 4.900396 ], [ 5.9954932, 4.9086943 ], [ 5.9939637, 4.9140185 ], [ 5.9935758, 4.9184018 ], [ 5.9904411, 4.9244484 ], [ 5.9894066, 4.9261473 ], [ 5.9898124, 4.928145 ], [ 5.9915336, 4.934798 ], [ 5.990557, 4.9458744 ], [ 5.9914622, 4.958993 ], [ 5.9893085, 4.9682456 ], [ 5.9893754, 4.9723926 ], [ 5.9896206, 4.9733112 ], [ 5.9848315, 4.9768472 ], [ 5.9829186, 4.9870185 ], [ 5.9804572, 4.9916693 ], [ 5.9766001, 4.9956513 ], [ 5.9741297, 4.9998384 ], [ 5.9731576, 5.0109148 ], [ 5.9696126, 5.0199624 ], [ 5.9662683, 5.0271638 ], [ 5.964333, 5.0359527 ], [ 5.9636597, 5.037112 ], [ 5.9594815, 5.0496287 ], [ 5.9580189, 5.0590998 ], [ 5.9562665, 5.0648878 ], [ 5.9550403, 5.0745863 ], [ 5.9553479, 5.07942 ], [ 5.9555798, 5.0794155 ] ] ] } }
]
}
