{
"type": "FeatureCollection",
"name": "building_clusters",
"crs": { "type": "name", "properties": { "name": "urn:ogc:def:crs:OGC:1.3:CRS84" } },
"features": [
{ "type": "Feature", "properties": { "cluster_id": "BC_032", "cluster_rank": 1.0, "area_km2": 5.5, "building_count": 3342.0, "building_density_km2": 607.64, "population_2025": 34907.46, "population_density_km2": 6346.81, "population_share_pct": 19.94, "distance_major_road_m": 3972.28, "distance_any_road_m": 11.96, "distance_waterway_m": 403.06, "distance_water_transport_m": 5076.78, "source_class": "Derived building-concentration cluster", "interpretation_note": "Derived from Google Open Buildings concentration. Not an official administrative settlement boundary." }, "geometry": { "type": "Polygon", "coordinates": [ [ [ 6.199938560060051, 5.165455958864259 ], [ 6.199918708547261, 5.169973810904277 ], [ 6.213437338551025, 5.170033402357361 ], [ 6.213476832994741, 5.160997592866683 ], [ 6.20897066911647, 5.160977795834161 ], [ 6.209010157098057, 5.151942018319221 ], [ 6.204504074303152, 5.151922224295768 ], [ 6.20448430731639, 5.156440095962899 ], [ 6.19997821031938, 5.156420252632177 ], [ 6.199998009067148, 5.151902398441361 ], [ 6.195491961418256, 5.151882540756612 ], [ 6.195511774311092, 5.147364703354245 ], [ 6.191005776009091, 5.147344831371957 ], [ 6.191025602990577, 5.142827010786246 ], [ 6.177507809161298, 5.142767256799671 ], [ 6.177487887073427, 5.147285024621185 ], [ 6.181993832362052, 5.147304992004813 ], [ 6.181973924276359, 5.151822776726436 ], [ 6.186479918994651, 5.151842729898535 ], [ 6.186440113268095, 5.160878332368575 ], [ 6.195452282785999, 5.160918213412953 ], [ 6.195432417045347, 5.165436048665682 ], [ 6.199938560060051, 5.165455958864259 ] ] ] } },
{ "type": "Feature", "properties": { "cluster_id": "BC_038", "cluster_rank": 2.0, "area_km2": 3.25, "building_count": 1407.0, "building_density_km2": 432.92, "population_2025": 17613.57, "population_density_km2": 5419.56, "population_share_pct": 10.06, "distance_major_road_m": 17030.01, "distance_any_road_m": 19.35, "distance_waterway_m": 350.27, "distance_water_transport_m": 721.04, "source_class": "Derived building-concentration cluster", "interpretation_note": "Derived from Google Open Buildings concentration. Not an official administrative settlement boundary." }, "geometry": { "type": "Polygon", "coordinates": [ [ [ 6.39338380019971, 5.247616197157263 ], [ 6.393402560274707, 5.243097631074114 ], [ 6.388895140777537, 5.243078816643519 ], [ 6.388913916789976, 5.238560266143862 ], [ 6.361869939398708, 5.238446797226666 ], [ 6.361831982945233, 5.247483700706777 ], [ 6.39338380019971, 5.247616197157263 ] ] ] } },
{ "type": "Feature", "properties": { "cluster_id": "BC_017", "cluster_rank": 3.0, "area_km2": 2.25, "building_count": 1051.0, "building_density_km2": 467.11, "population_2025": 11583.9, "population_density_km2": 5148.4, "population_share_pct": 6.62, "distance_major_road_m": 27264.37, "distance_any_road_m": 60.47, "distance_waterway_m": 634.52, "distance_water_transport_m": 15426.3, "source_class": "Derived building-concentration cluster", "interpretation_note": "Derived from Google Open Buildings concentration. Not an official administrative settlement boundary." }, "geometry": { "type": "Polygon", "coordinates": [ [ [ 5.979329396322111, 5.128307123272374 ], [ 5.979350636785511, 5.123790155423354 ], [ 5.983855617301099, 5.123811427128784 ], [ 5.983897978297302, 5.114777451562555 ], [ 5.970383282779755, 5.114713654813376 ], [ 5.970298106489442, 5.13278137652921 ], [ 5.974803112194206, 5.132802749306235 ], [ 5.974824403211276, 5.12828580105897 ], [ 5.979329396322111, 5.128307123272374 ] ] ] } },
{ "type": "Feature", "properties": { "cluster_id": "BC_020", "cluster_rank": 4.0, "area_km2": 2.25, "building_count": 967.0, "building_density_km2": 429.78, "population_2025": 10048.7, "population_density_km2": 4466.09, "population_share_pct": 5.74, "distance_major_road_m": 23827.35, "distance_any_road_m": 133.98, "distance_waterway_m": 438.97, "distance_water_transport_m": 6308.61, "source_class": "Derived building-concentration cluster", "interpretation_note": "Derived from Google Open Buildings concentration. Not an official administrative settlement boundary." }, "geometry": { "type": "Polygon", "coordinates": [ [ [ 6.115069035234045, 4.997923664145923 ], [ 6.115049248976384, 5.002441205092926 ], [ 6.124058655748945, 5.002480846905435 ], [ 6.124117775638681, 4.988928114046831 ], [ 6.119613155505316, 4.988908362506171 ], [ 6.119593436185329, 4.993425922851073 ], [ 6.115088803389851, 4.993406122500001 ], [ 6.115108553444415, 4.988888580155791 ], [ 6.101594855978156, 4.988829048252462 ], [ 6.101575013723537, 4.993346536426396 ], [ 6.110584188695618, 4.993386291311791 ], [ 6.11056438977768, 4.997903814928749 ], [ 6.115069035234045, 4.997923664145923 ] ] ] } },
{ "type": "Feature", "properties": { "cluster_id": "BC_013", "cluster_rank": 5.0, "area_km2": 1.25, "building_count": 927.0, "building_density_km2": 741.6, "population_2025": 5545.04, "population_density_km2": 4436.03, "population_share_pct": 3.17, "distance_major_road_m": 22205.94, "distance_any_road_m": 98.67, "distance_waterway_m": 414.26, "distance_water_transport_m": 7285.56, "source_class": "Derived building-concentration cluster", "interpretation_note": "Derived from Google Open Buildings concentration. Not an official administrative settlement boundary." }, "geometry": { "type": "Polygon", "coordinates": [ [ [ 6.042546478350777, 5.0969816903738 ], [ 6.047051532587645, 5.097002408442887 ], [ 6.047113388585353, 5.083450648293286 ], [ 6.042608428381554, 5.083429985587752 ], [ 6.042587796936638, 5.087947221231999 ], [ 6.033577869620248, 5.087905764665521 ], [ 6.033557156923409, 5.09242296260128 ], [ 6.042567146926592, 5.092464456160893 ], [ 6.042546478350777, 5.0969816903738 ] ] ] } },
{ "type": "Feature", "properties": { "cluster_id": "BC_025", "cluster_rank": 6.0, "area_km2": 1.5, "building_count": 724.0, "building_density_km2": 482.67, "population_2025": 5280.19, "population_density_km2": 3520.12, "population_share_pct": 3.02, "distance_major_road_m": 13933.62, "distance_any_road_m": 35.35, "distance_waterway_m": 327.58, "distance_water_transport_m": 5585.33, "source_class": "Derived building-concentration cluster", "interpretation_note": "Derived from Google Open Buildings concentration. Not an official administrative settlement boundary." }, "geometry": { "type": "Polygon", "coordinates": [ [ [ 6.114609370292007, 5.10182692783104 ], [ 6.114568946634003, 5.110861976514594 ], [ 6.119074388417731, 5.110882244966969 ], [ 6.119054180908429, 5.11539978624429 ], [ 6.12355967227735, 5.115420041108989 ], [ 6.12364026796712, 5.097349799801188 ], [ 6.119134902413195, 5.097329616851376 ], [ 6.119114749169489, 5.101847160269886 ], [ 6.114609370292007, 5.10182692783104 ] ] ] } },
{ "type": "Feature", "properties": { "cluster_id": "BC_010", "cluster_rank": 7.0, "area_km2": 0.75, "building_count": 561.0, "building_density_km2": 748.0, "population_2025": 2872.61, "population_density_km2": 3830.15, "population_share_pct": 1.64, "distance_major_road_m": 34121.07, "distance_any_road_m": 40.15, "distance_waterway_m": 195.96, "distance_water_transport_m": 5786.27, "source_class": "Derived building-concentration cluster", "interpretation_note": "Derived from Google Open Buildings concentration. Not an official administrative settlement boundary." }, "geometry": { "type": "Polygon", "coordinates": [ [ [ 6.056810647939932, 4.929903567459391 ], [ 6.061314615612832, 4.929923511555918 ], [ 6.061374142537435, 4.916371507783483 ], [ 6.056870265777362, 4.916351618771475 ], [ 6.056810647939932, 4.929903567459391 ] ] ] } },
{ "type": "Feature", "properties": { "cluster_id": "BC_015", "cluster_rank": 8.0, "area_km2": 1.5, "building_count": 521.0, "building_density_km2": 347.33, "population_2025": 4395.23, "population_density_km2": 2930.16, "population_share_pct": 2.51, "distance_major_road_m": 18864.15, "distance_any_road_m": 81.23, "distance_waterway_m": 473.71, "distance_water_transport_m": 6948.84, "source_class": "Derived building-concentration cluster", "interpretation_note": "Derived from Google Open Buildings concentration. Not an official administrative settlement boundary." }, "geometry": { "type": "Polygon", "coordinates": [ [ [ 6.074061779001566, 5.101643418004416 ], [ 6.069556582553483, 5.101622870493318 ], [ 6.069577081281845, 5.097105526687478 ], [ 6.060566806414917, 5.097064373812357 ], [ 6.060525664889522, 5.10609898739236 ], [ 6.069536065427161, 5.106140213583387 ], [ 6.069515529902243, 5.110657555957057 ], [ 6.074020789243957, 5.110678140042488 ], [ 6.074061779001566, 5.101643418004416 ] ] ] } },
{ "type": "Feature", "properties": { "cluster_id": "BC_026", "cluster_rank": 9.0, "area_km2": 1.25, "building_count": 470.0, "building_density_km2": 376.0, "population_2025": 5489.21, "population_density_km2": 4391.37, "population_share_pct": 3.14, "distance_major_road_m": 8713.75, "distance_any_road_m": 38.27, "distance_waterway_m": 368.96, "distance_water_transport_m": 307.88, "source_class": "Derived building-concentration cluster", "interpretation_note": "Derived from Google Open Buildings concentration. Not an official administrative settlement boundary." }, "geometry": { "type": "Polygon", "coordinates": [ [ [ 6.164089993657119, 5.120118632115888 ], [ 6.164050119573663, 5.129154068162608 ], [ 6.168555884965643, 5.129174060142345 ], [ 6.168535952824749, 5.133691794793886 ], [ 6.173041767613871, 5.133711772759361 ], [ 6.173101415930347, 5.120158513648859 ], [ 6.164089993657119, 5.120118632115888 ] ] ] } },
{ "type": "Feature", "properties": { "cluster_id": "BC_034", "cluster_rank": 10.0, "area_km2": 0.77, "building_count": 398.0, "building_density_km2": 514.02, "population_2025": 5158.28, "population_density_km2": 6662.02, "population_share_pct": 2.95, "distance_major_road_m": 178.43, "distance_any_road_m": 20.04, "distance_waterway_m": 1498.69, "distance_water_transport_m": 9763.96, "source_class": "Derived building-concentration cluster", "interpretation_note": "Derived from Google Open Buildings concentration. Not an official administrative settlement boundary." }, "geometry": { "type": "Polygon", "coordinates": [ [ [ 6.208772177195409, 5.206156640321693 ], [ 6.208831908893386, 5.192602994535292 ], [ 6.205944270163937, 5.192590213783618 ], [ 6.2064355, 5.1990488 ], [ 6.204271231285793, 5.204887641930118 ], [ 6.204245733657296, 5.210654499936704 ], [ 6.208752231554103, 5.210674520805957 ], [ 6.208772177195409, 5.206156640321693 ] ] ] } },
{ "type": "Feature", "properties": { "cluster_id": "BC_018", "cluster_rank": 11.0, "area_km2": 1.03, "building_count": 344.0, "building_density_km2": 334.38, "population_2025": 3752.88, "population_density_km2": 3647.93, "population_share_pct": 2.14, "distance_major_road_m": 15516.82, "distance_any_road_m": 129.54, "distance_waterway_m": 1204.24, "distance_water_transport_m": 9505.57, "source_class": "Derived building-concentration cluster", "interpretation_note": "Derived from Google Open Buildings concentration. Not an official administrative settlement boundary." }, "geometry": { "type": "Polygon", "coordinates": [ [ [ 6.087372741596061, 5.14687899993957 ], [ 6.087413835279381, 5.137844180001949 ], [ 6.082908331540247, 5.137823581375645 ], [ 6.0829288825781, 5.133306188531424 ], [ 6.078423428788766, 5.133285576407828 ], [ 6.0784028461196, 5.137802951019365 ], [ 6.076933124052864, 5.137796214365745 ], [ 6.078814933498466, 5.142322309284849 ], [ 6.082887762183908, 5.142340973499794 ], [ 6.082867174508445, 5.14685836490325 ], [ 6.087372741596061, 5.14687899993957 ] ] ] } },
{ "type": "Feature", "properties": { "cluster_id": "BC_028", "cluster_rank": 12.0, "area_km2": 1.0, "building_count": 329.0, "building_density_km2": 329.0, "population_2025": 2629.06, "population_density_km2": 2629.06, "population_share_pct": 1.5, "distance_major_road_m": 13192.68, "distance_any_road_m": 8.55, "distance_waterway_m": 330.4, "distance_water_transport_m": 7035.22, "source_class": "Derived building-concentration cluster", "interpretation_note": "Derived from Google Open Buildings concentration. Not an official administrative settlement boundary." }, "geometry": { "type": "Polygon", "coordinates": [ [ [ 6.1144675704244, 5.133449585707041 ], [ 6.105456425728648, 5.133408773607756 ], [ 6.1054360328569, 5.137926257194747 ], [ 6.10093045612576, 5.137905785494677 ], [ 6.100910013413813, 5.142423250270112 ], [ 6.109921248379607, 5.142464198094494 ], [ 6.109941627765552, 5.137946697161679 ], [ 6.114447240823522, 5.13796710539484 ], [ 6.1144675704244, 5.133449585707041 ] ] ] } },
{ "type": "Feature", "properties": { "cluster_id": "BC_023", "cluster_rank": 13.0, "area_km2": 0.5, "building_count": 328.0, "building_density_km2": 656.0, "population_2025": 1582.21, "population_density_km2": 3164.41, "population_share_pct": 0.9, "distance_major_road_m": 21545.3, "distance_any_road_m": 153.67, "distance_waterway_m": 361.19, "distance_water_transport_m": 233.08, "source_class": "Derived building-concentration cluster", "interpretation_note": "Derived from Google Open Buildings concentration. Not an official administrative settlement boundary." }, "geometry": { "type": "Polygon", "coordinates": [ [ [ 6.087861038272635, 5.038460971760939 ], [ 6.083356223925479, 5.038440773580492 ], [ 6.083315872628502, 5.047475588514481 ], [ 6.087820749084061, 5.04749582309426 ], [ 6.087861038272635, 5.038460971760939 ] ] ] } },
{ "type": "Feature", "properties": { "cluster_id": "BC_022", "cluster_rank": 14.0, "area_km2": 1.0, "building_count": 309.0, "building_density_km2": 309.07, "population_2025": 1922.54, "population_density_km2": 1922.94, "population_share_pct": 1.1, "distance_major_road_m": 18810.58, "distance_any_road_m": 134.62, "distance_waterway_m": 487.44, "distance_water_transport_m": 7266.86, "source_class": "Derived building-concentration cluster", "interpretation_note": "Derived from Google Open Buildings concentration. Not an official administrative settlement boundary." }, "geometry": { "type": "Polygon", "coordinates": [ [ [ 6.155349961174071, 5.020688705810334 ], [ 6.146504026101936, 5.020650069253883 ], [ 6.146464687711775, 5.02968539429413 ], [ 6.155474716873234, 5.029724817063837 ], [ 6.155513024483582, 5.020898582868822 ], [ 6.155349961174071, 5.020688705810334 ] ] ] } },
{ "type": "Feature", "properties": { "cluster_id": "BC_005", "cluster_rank": 15.0, "area_km2": 1.0, "building_count": 291.0, "building_density_km2": 291.0, "population_2025": 1220.37, "population_density_km2": 1220.37, "population_share_pct": 0.7, "distance_major_road_m": 39489.85, "distance_any_road_m": 80.95, "distance_waterway_m": 416.9, "distance_water_transport_m": 352.86, "source_class": "Derived building-concentration cluster", "interpretation_note": "Derived from Google Open Buildings concentration. Not an official administrative settlement boundary." }, "geometry": { "type": "Polygon", "coordinates": [ [ [ 6.034550191892366, 4.871079433543152 ], [ 6.034510534142973, 4.880113896025636 ], [ 6.043517638753653, 4.880153651433746 ], [ 6.043557176478804, 4.871119115010847 ], [ 6.034550191892366, 4.871079433543152 ] ] ] } },
{ "type": "Feature", "properties": { "cluster_id": "BC_050", "cluster_rank": 16.0, "area_km2": 1.0, "building_count": 236.0, "building_density_km2": 236.0, "population_2025": 2063.59, "population_density_km2": 2063.59, "population_share_pct": 1.18, "distance_major_road_m": 29943.81, "distance_any_road_m": 43.49, "distance_waterway_m": 258.37, "distance_water_transport_m": 9645.14, "source_class": "Derived building-concentration cluster", "interpretation_note": "Derived from Google Open Buildings concentration. Not an official administrative settlement boundary." }, "geometry": { "type": "Polygon", "coordinates": [ [ [ 6.465211193511365, 5.320214147695417 ], [ 6.474227705774234, 5.320251179389558 ], [ 6.474264553413641, 5.31121349225861 ], [ 6.465248172346815, 5.311176523819159 ], [ 6.465211193511365, 5.320214147695417 ] ] ] } },
{ "type": "Feature", "properties": { "cluster_id": "BC_024", "cluster_rank": 17.0, "area_km2": 0.5, "building_count": 225.0, "building_density_km2": 450.0, "population_2025": 1337.9, "population_density_km2": 2675.79, "population_share_pct": 0.76, "distance_major_road_m": 16764.04, "distance_any_road_m": 59.24, "distance_waterway_m": 173.55, "distance_water_transport_m": 4987.42, "source_class": "Derived building-concentration cluster", "interpretation_note": "Derived from Google Open Buildings concentration. Not an official administrative settlement boundary." }, "geometry": { "type": "Polygon", "coordinates": [ [ [ 6.12830572588105, 5.061229290910979 ], [ 6.123800592549971, 5.061209283038353 ], [ 6.123760619741407, 5.070244416484933 ], [ 6.128265815473861, 5.070264460254609 ], [ 6.12830572588105, 5.061229290910979 ] ] ] } },
{ "type": "Feature", "properties": { "cluster_id": "BC_053", "cluster_rank": 18.0, "area_km2": 0.5, "building_count": 218.0, "building_density_km2": 436.0, "population_2025": 1529.82, "population_density_km2": 3059.63, "population_share_pct": 0.87, "distance_major_road_m": 36528.26, "distance_any_road_m": 9.94, "distance_waterway_m": 166.77, "distance_water_transport_m": 16220.04, "source_class": "Derived building-concentration cluster", "interpretation_note": "Derived from Google Open Buildings concentration. Not an official administrative settlement boundary." }, "geometry": { "type": "Polygon", "coordinates": [ [ [ 6.519202266459966, 5.347548346184678 ], [ 6.514693647274409, 5.347530082752885 ], [ 6.514657139941637, 5.356568040156903 ], [ 6.519165825189735, 5.356586334629321 ], [ 6.519202266459966, 5.347548346184678 ] ] ] } },
{ "type": "Feature", "properties": { "cluster_id": "BC_011", "cluster_rank": 19.0, "area_km2": 0.5, "building_count": 202.0, "building_density_km2": 404.0, "population_2025": 1390.48, "population_density_km2": 2780.97, "population_share_pct": 0.79, "distance_major_road_m": 32387.06, "distance_any_road_m": 14.01, "distance_waterway_m": 113.41, "distance_water_transport_m": 10464.67, "source_class": "Derived building-concentration cluster", "interpretation_note": "Derived from Google Open Buildings concentration. Not an official administrative settlement boundary." }, "geometry": { "type": "Polygon", "coordinates": [ [ [ 6.029605734738878, 4.970438075432261 ], [ 6.029625975461022, 4.965920876922214 ], [ 6.020617831103555, 4.965880235040141 ], [ 6.020597529219238, 4.970397396402088 ], [ 6.029605734738878, 4.970438075432261 ] ] ] } },
{ "type": "Feature", "properties": { "cluster_id": "BC_033", "cluster_rank": 20.0, "area_km2": 0.67, "building_count": 197.0, "building_density_km2": 291.89, "population_2025": 2439.64, "population_density_km2": 3614.79, "population_share_pct": 1.39, "distance_major_road_m": 4912.46, "distance_any_road_m": 130.05, "distance_waterway_m": 646.7, "distance_water_transport_m": 4746.28, "source_class": "Derived building-concentration cluster", "interpretation_note": "Derived from Google Open Buildings concentration. Not an official administrative settlement boundary." }, "geometry": { "type": "Polygon", "coordinates": [ [ [ 6.172901966793613, 5.165336018976602 ], [ 6.172921991609086, 5.160818271668949 ], [ 6.168415986533685, 5.160798187669395 ], [ 6.168406878068993, 5.162850354238257 ], [ 6.1686848, 5.1630103 ], [ 6.1703212, 5.1643704 ], [ 6.1747848, 5.1691371 ], [ 6.176311895765556, 5.169869058735753 ], [ 6.181894114927897, 5.169893908440351 ], [ 6.181914093817102, 5.165376126589007 ], [ 6.172901966793613, 5.165336018976602 ] ] ] } },
{ "type": "Feature", "properties": { "cluster_id": "BC_004", "cluster_rank": 21.0, "area_km2": 0.75, "building_count": 191.0, "building_density_km2": 254.67, "population_2025": 850.76, "population_density_km2": 1134.34, "population_share_pct": 0.49, "distance_major_road_m": 41700.99, "distance_any_road_m": 125.59, "distance_waterway_m": 324.43, "distance_water_transport_m": 238.37, "source_class": "Derived building-concentration cluster", "interpretation_note": "Derived from Google Open Buildings concentration. Not an official administrative settlement boundary." }, "geometry": { "type": "Polygon", "coordinates": [ [ [ 6.034589775276278, 4.862044968318502 ], [ 6.034629284299611, 4.853010500356739 ], [ 6.030125939562385, 4.852990688624014 ], [ 6.030106164466926, 4.857507904420655 ], [ 6.025602808468801, 4.857488044177027 ], [ 6.025582984849611, 4.862005240735476 ], [ 6.034589775276278, 4.862044968318502 ] ] ] } },
{ "type": "Feature", "properties": { "cluster_id": "BC_045", "cluster_rank": 22.0, "area_km2": 0.75, "building_count": 184.0, "building_density_km2": 245.33, "population_2025": 1217.88, "population_density_km2": 1623.84, "population_share_pct": 0.7, "distance_major_road_m": 25176.4, "distance_any_road_m": 29.94, "distance_waterway_m": 1099.42, "distance_water_transport_m": 5629.39, "source_class": "Derived building-concentration cluster", "interpretation_note": "Derived from Google Open Buildings concentration. Not an official administrative settlement boundary." }, "geometry": { "type": "Polygon", "coordinates": [ [ [ 6.424694010202379, 5.306489870616216 ], [ 6.429202015536625, 5.306508650791763 ], [ 6.429239422105718, 5.297471277830745 ], [ 6.420223558466285, 5.297433749040855 ], [ 6.420204797876444, 5.301952403695771 ], [ 6.424712754293038, 5.301971200577933 ], [ 6.424694010202379, 5.306489870616216 ] ] ] } },
{ "type": "Feature", "properties": { "cluster_id": "BC_048", "cluster_rank": 23.0, "area_km2": 0.24, "building_count": 169.0, "building_density_km2": 691.55, "population_2025": 1076.02, "population_density_km2": 4403.13, "population_share_pct": 0.61, "distance_major_road_m": 28189.16, "distance_any_road_m": 74.76, "distance_waterway_m": 1733.6, "distance_water_transport_m": 8055.09, "source_class": "Derived building-concentration cluster", "interpretation_note": "Derived from Google Open Buildings concentration. Not an official administrative settlement boundary." }, "geometry": { "type": "Polygon", "coordinates": [ [ [ 6.451723720378539, 5.311120824801018 ], [ 6.451707673279832, 5.315023845107326 ], [ 6.453193250394483, 5.315645737786271 ], [ 6.456213308031865, 5.315658204548296 ], [ 6.456231855046001, 5.311139423987496 ], [ 6.451723720378539, 5.311120824801018 ] ] ] } },
{ "type": "Feature", "properties": { "cluster_id": "BC_047", "cluster_rank": 24.0, "area_km2": 0.41, "building_count": 166.0, "building_density_km2": 409.06, "population_2025": 1354.51, "population_density_km2": 3337.81, "population_share_pct": 0.77, "distance_major_road_m": 26423.25, "distance_any_road_m": 72.61, "distance_waterway_m": 2390.1, "distance_water_transport_m": 6558.87, "source_class": "Derived building-concentration cluster", "interpretation_note": "Derived from Google Open Buildings concentration. Not an official administrative settlement boundary." }, "geometry": { "type": "Polygon", "coordinates": [ [ [ 6.442707499150884, 5.311083527889636 ], [ 6.442726128428995, 5.306564794423988 ], [ 6.433710037037991, 5.306527398151959 ], [ 6.433699227082191, 5.309140739860571 ], [ 6.441750732317169, 5.311079562358135 ], [ 6.442707499150884, 5.311083527889636 ] ] ] } },
{ "type": "Feature", "properties": { "cluster_id": "BC_012", "cluster_rank": 25.0, "area_km2": 0.5, "building_count": 158.0, "building_density_km2": 316.0, "population_2025": 859.57, "population_density_km2": 1719.15, "population_share_pct": 0.49, "distance_major_road_m": 31603.57, "distance_any_road_m": 187.21, "distance_waterway_m": 365.49, "distance_water_transport_m": 11241.63, "source_class": "Derived building-concentration cluster", "interpretation_note": "Derived from Google Open Buildings concentration. Not an official administrative settlement boundary." }, "geometry": { "type": "Polygon", "coordinates": [ [ [ 5.993408800308575, 5.006410991565772 ], [ 5.988904592672569, 5.006390271651309 ], [ 5.988863201913563, 5.015424319186584 ], [ 5.993367471237113, 5.015445076674085 ], [ 5.993408800308575, 5.006410991565772 ] ] ] } },
{ "type": "Feature", "properties": { "cluster_id": "BC_006", "cluster_rank": 26.0, "area_km2": 0.5, "building_count": 154.0, "building_density_km2": 308.0, "population_2025": 810.95, "population_density_km2": 1621.91, "population_share_pct": 0.46, "distance_major_road_m": 41172.65, "distance_any_road_m": 234.72, "distance_waterway_m": 209.97, "distance_water_transport_m": 4502.68, "source_class": "Derived building-concentration cluster", "interpretation_note": "Derived from Google Open Buildings concentration. Not an official administrative settlement boundary." }, "geometry": { "type": "Polygon", "coordinates": [ [ [ 6.002986255149323, 4.87997380317568 ], [ 5.998482861654668, 4.879953669421645 ], [ 5.998442648587006, 4.88898783114661 ], [ 6.002946102195809, 4.889008002348016 ], [ 6.002986255149323, 4.87997380317568 ] ] ] } },
{ "type": "Feature", "properties": { "cluster_id": "BC_016", "cluster_rank": 27.0, "area_km2": 0.39, "building_count": 149.0, "building_density_km2": 380.2, "population_2025": 1089.77, "population_density_km2": 2780.72, "population_share_pct": 0.62, "distance_major_road_m": 24687.98, "distance_any_road_m": 84.9, "distance_waterway_m": 161.77, "distance_water_transport_m": 11937.0, "source_class": "Derived building-concentration cluster", "interpretation_note": "Derived from Google Open Buildings concentration. Not an official administrative settlement boundary." }, "geometry": { "type": "Polygon", "coordinates": [ [ [ 6.006413977752479, 5.116790646547167 ], [ 6.006443843861119, 5.110366065269425 ], [ 6.001938863467069, 5.110345007853734 ], [ 6.001900409380302, 5.118603053930249 ], [ 6.0042509, 5.1171395 ], [ 6.006413977752479, 5.116790646547167 ] ] ] } },
{ "type": "Feature", "properties": { "cluster_id": "BC_036", "cluster_rank": 28.0, "area_km2": 0.75, "building_count": 110.0, "building_density_km2": 146.67, "population_2025": 787.47, "population_density_km2": 1049.95, "population_share_pct": 0.45, "distance_major_road_m": 2156.22, "distance_any_road_m": 87.69, "distance_waterway_m": 1495.55, "distance_water_transport_m": 13164.75, "source_class": "Derived building-concentration cluster", "interpretation_note": "Derived from Google Open Buildings concentration. Not an official administrative settlement boundary." }, "geometry": { "type": "Polygon", "coordinates": [ [ [ 6.217685579351072, 5.228786119929378 ], [ 6.213178917716974, 5.228766093871169 ], [ 6.213158916618022, 5.233283988156912 ], [ 6.226679050675887, 5.233344021505693 ], [ 6.226698955045162, 5.228826075115655 ], [ 6.217685579351072, 5.228786119929378 ] ] ] } },
{ "type": "Feature", "properties": { "cluster_id": "BC_003", "cluster_rank": 29.0, "area_km2": 0.25, "building_count": 103.0, "building_density_km2": 412.0, "population_2025": 289.36, "population_density_km2": 1157.42, "population_share_pct": 0.17, "distance_major_road_m": 44817.89, "distance_any_road_m": 2.31, "distance_waterway_m": 89.36, "distance_water_transport_m": 3484.46, "source_class": "Derived building-concentration cluster", "interpretation_note": "Derived from Google Open Buildings concentration. Not an official administrative settlement boundary." }, "geometry": { "type": "Polygon", "coordinates": [ [ [ 6.00312619864956, 4.848354084418956 ], [ 6.003146115432505, 4.843836978998209 ], [ 5.998642961269386, 4.843816995024099 ], [ 5.998623014668431, 4.848334081723188 ], [ 6.00312619864956, 4.848354084418956 ] ] ] } },
{ "type": "Feature", "properties": { "cluster_id": "BC_030", "cluster_rank": 30.0, "area_km2": 0.25, "building_count": 102.0, "building_density_km2": 408.0, "population_2025": 572.95, "population_density_km2": 2291.81, "population_share_pct": 0.33, "distance_major_road_m": 8883.94, "distance_any_road_m": 18.39, "distance_waterway_m": 245.43, "distance_water_transport_m": 3062.98, "source_class": "Derived building-concentration cluster", "interpretation_note": "Derived from Google Open Buildings concentration. Not an official administrative settlement boundary." }, "geometry": { "type": "Polygon", "coordinates": [ [ [ 6.150452588607265, 5.147164552557507 ], [ 6.150472700891203, 5.142646891021821 ], [ 6.145966911984857, 5.142626718869153 ], [ 6.145946768003749, 5.147144362592358 ], [ 6.150452588607265, 5.147164552557507 ] ] ] } },
{ "type": "Feature", "properties": { "cluster_id": "BC_031", "cluster_rank": 31.0, "area_km2": 0.5, "building_count": 87.0, "building_density_km2": 174.0, "population_2025": 1795.49, "population_density_km2": 3590.98, "population_share_pct": 1.03, "distance_major_road_m": 12765.6, "distance_any_road_m": 60.93, "distance_waterway_m": 472.27, "distance_water_transport_m": 7350.4, "source_class": "Derived building-concentration cluster", "interpretation_note": "Derived from Google Open Buildings concentration. Not an official administrative settlement boundary." }, "geometry": { "type": "Polygon", "coordinates": [ [ [ 6.100889552495522, 5.146940714325829 ], [ 6.100869073370253, 5.151458177661205 ], [ 6.109880435157232, 5.151499197801811 ], [ 6.109900850843709, 5.14698169830808 ], [ 6.100889552495522, 5.146940714325829 ] ] ] } },
{ "type": "Feature", "properties": { "cluster_id": "BC_029", "cluster_rank": 32.0, "area_km2": 0.25, "building_count": 77.0, "building_density_km2": 308.0, "population_2025": 554.29, "population_density_km2": 2217.16, "population_share_pct": 0.32, "distance_major_road_m": 12298.1, "distance_any_road_m": 34.8, "distance_waterway_m": 506.25, "distance_water_transport_m": 6469.88, "source_class": "Derived building-concentration cluster", "interpretation_note": "Derived from Google Open Buildings concentration. Not an official administrative settlement boundary." }, "geometry": { "type": "Polygon", "coordinates": [ [ [ 6.114406527257774, 5.147002142614731 ], [ 6.114426893101524, 5.142484624364277 ], [ 6.109921248379607, 5.142464198094494 ], [ 6.109900850843709, 5.14698169830808 ], [ 6.114406527257774, 5.147002142614731 ] ] ] } },
{ "type": "Feature", "properties": { "cluster_id": "BC_040", "cluster_rank": 33.0, "area_km2": 0.5, "building_count": 76.0, "building_density_km2": 152.0, "population_2025": 400.53, "population_density_km2": 801.06, "population_share_pct": 0.23, "distance_major_road_m": 23950.15, "distance_any_road_m": 137.68, "distance_waterway_m": 322.99, "distance_water_transport_m": 3525.57, "source_class": "Derived building-concentration cluster", "interpretation_note": "Derived from Google Open Buildings concentration. Not an official administrative settlement boundary." }, "geometry": { "type": "Polygon", "coordinates": [ [ [ 6.433896097329233, 5.261340343937173 ], [ 6.433877563908449, 5.265859052602487 ], [ 6.442893068297584, 5.265896160713828 ], [ 6.442911536778601, 5.261377420032875 ], [ 6.433896097329233, 5.261340343937173 ] ] ] } },
{ "type": "Feature", "properties": { "cluster_id": "BC_002", "cluster_rank": 34.0, "area_km2": 0.25, "building_count": 74.0, "building_density_km2": 296.0, "population_2025": 156.1, "population_density_km2": 624.4, "population_share_pct": 0.09, "distance_major_road_m": 45714.3, "distance_any_road_m": 110.05, "distance_waterway_m": 246.63, "distance_water_transport_m": 3938.88, "source_class": "Derived building-concentration cluster", "interpretation_note": "Derived from Google Open Buildings concentration. Not an official administrative settlement boundary." }, "geometry": { "type": "Polygon", "coordinates": [ [ [ 6.021237922953775, 4.825847888989759 ], [ 6.021257627104273, 4.8213307055565 ], [ 6.016754546652157, 4.821310934219184 ], [ 6.016734812821794, 4.825828099043997 ], [ 6.021237922953775, 4.825847888989759 ] ] ] } },
{ "type": "Feature", "properties": { "cluster_id": "BC_041", "cluster_rank": 35.0, "area_km2": 0.25, "building_count": 65.0, "building_density_km2": 260.0, "population_2025": 797.79, "population_density_km2": 3191.15, "population_share_pct": 0.46, "distance_major_road_m": 26411.64, "distance_any_road_m": 156.91, "distance_waterway_m": 530.77, "distance_water_transport_m": 5951.18, "source_class": "Derived building-concentration cluster", "interpretation_note": "Derived from Google Open Buildings concentration. Not an official administrative settlement boundary." }, "geometry": { "type": "Polygon", "coordinates": [ [ [ 6.456379655277339, 5.274989153480232 ], [ 6.460887544693212, 5.275007592757234 ], [ 6.46090591521652, 5.270488789818548 ], [ 6.456398058329638, 5.270470366423377 ], [ 6.456379655277339, 5.274989153480232 ] ] ] } },
{ "type": "Feature", "properties": { "cluster_id": "BC_019", "cluster_rank": 36.0, "area_km2": 0.25, "building_count": 60.0, "building_density_km2": 243.72, "population_2025": 429.39, "population_density_km2": 1744.21, "population_share_pct": 0.25, "distance_major_road_m": 25333.7, "distance_any_road_m": 62.96, "distance_waterway_m": 1798.37, "distance_water_transport_m": 7427.91, "source_class": "Derived building-concentration cluster", "interpretation_note": "Derived from Google Open Buildings concentration. Not an official administrative settlement boundary." }, "geometry": { "type": "Polygon", "coordinates": [ [ [ 6.115147685320459, 4.979925465183389 ], [ 6.110643188247668, 4.979899738076538 ], [ 6.110623732143879, 4.984351241982922 ], [ 6.115128285398351, 4.984371037113915 ], [ 6.115147685320459, 4.979925465183389 ] ] ] } },
{ "type": "Feature", "properties": { "cluster_id": "BC_009", "cluster_rank": 37.0, "area_km2": 0.25, "building_count": 58.0, "building_density_km2": 232.0, "population_2025": 336.06, "population_density_km2": 1344.22, "population_share_pct": 0.19, "distance_major_road_m": 38772.59, "distance_any_road_m": 134.05, "distance_waterway_m": 182.17, "distance_water_transport_m": 6113.39, "source_class": "Derived building-concentration cluster", "interpretation_note": "Derived from Google Open Buildings concentration. Not an official administrative settlement boundary." }, "geometry": { "type": "Polygon", "coordinates": [ [ [ 6.002825192337222, 4.916110583291102 ], [ 6.00284539096292, 4.9115934881974 ], [ 5.998341786576461, 4.911573223373371 ], [ 5.998321557710832, 4.916090299741827 ], [ 6.002825192337222, 4.916110583291102 ] ] ] } },
{ "type": "Feature", "properties": { "cluster_id": "BC_007", "cluster_rank": 38.0, "area_km2": 0.25, "building_count": 56.0, "building_density_km2": 224.0, "population_2025": 25.4, "population_density_km2": 101.61, "population_share_pct": 0.01, "distance_major_road_m": 38240.3, "distance_any_road_m": 269.92, "distance_waterway_m": 782.9, "distance_water_transport_m": 1522.65, "source_class": "Derived building-concentration cluster", "interpretation_note": "Derived from Google Open Buildings concentration. Not an official administrative settlement boundary." }, "geometry": { "type": "Polygon", "coordinates": [ [ [ 6.047981667133572, 4.889208054512664 ], [ 6.048001452259968, 4.884690769573691 ], [ 6.043497842086885, 4.884670918616013 ], [ 6.043478026883173, 4.889188185111316 ], [ 6.047981667133572, 4.889208054512664 ] ] ] } },
{ "type": "Feature", "properties": { "cluster_id": "BC_039", "cluster_rank": 39.0, "area_km2": 0.5, "building_count": 55.0, "building_density_km2": 110.0, "population_2025": 538.13, "population_density_km2": 1076.26, "population_share_pct": 0.31, "distance_major_road_m": 11975.55, "distance_any_road_m": 60.32, "distance_waterway_m": 250.62, "distance_water_transport_m": 9175.4, "source_class": "Derived building-concentration cluster", "interpretation_note": "Derived from Google Open Buildings concentration. Not an official administrative settlement boundary." }, "geometry": { "type": "Polygon", "coordinates": [ [ [ 6.30766738145815, 5.26532586466805 ], [ 6.30768682379049, 5.26080761601907 ], [ 6.298672376061613, 5.260768588314388 ], [ 6.298652868824852, 5.265286803262551 ], [ 6.30766738145815, 5.26532586466805 ] ] ] } },
{ "type": "Feature", "properties": { "cluster_id": "BC_049", "cluster_rank": 40.0, "area_km2": 0.25, "building_count": 51.0, "building_density_km2": 204.0, "population_2025": 384.78, "population_density_km2": 1539.14, "population_share_pct": 0.22, "distance_major_road_m": 31603.17, "distance_any_road_m": 10.03, "distance_waterway_m": 252.11, "distance_water_transport_m": 11089.78, "source_class": "Derived building-concentration cluster", "interpretation_note": "Derived from Google Open Buildings concentration. Not an official administrative settlement boundary." }, "geometry": { "type": "Polygon", "coordinates": [ [ [ 6.492297505940442, 5.311287034942644 ], [ 6.487789244080293, 5.311268698547417 ], [ 6.48777092656225, 5.315787589704784 ], [ 6.492279221209835, 5.315805941787113 ], [ 6.492297505940442, 5.311287034942644 ] ] ] } },
{ "type": "Feature", "properties": { "cluster_id": "BC_051", "cluster_rank": 41.0, "area_km2": 0.25, "building_count": 46.0, "building_density_km2": 184.0, "population_2025": 296.44, "population_density_km2": 1185.75, "population_share_pct": 0.17, "distance_major_road_m": 34518.23, "distance_any_road_m": 28.2, "distance_waterway_m": 814.0, "distance_water_transport_m": 14002.32, "source_class": "Derived building-concentration cluster", "interpretation_note": "Derived from Google Open Buildings concentration. Not an official administrative settlement boundary." }, "geometry": { "type": "Polygon", "coordinates": [ [ [ 6.514784642004767, 5.324935176544134 ], [ 6.510276203112613, 5.324916957771497 ], [ 6.510258002557914, 5.32943592491487 ], [ 6.514766474325186, 5.329454159234731 ], [ 6.514784642004767, 5.324935176544134 ] ] ] } },
{ "type": "Feature", "properties": { "cluster_id": "BC_052", "cluster_rank": 42.0, "area_km2": 0.25, "building_count": 37.0, "building_density_km2": 148.0, "population_2025": 222.61, "population_density_km2": 890.43, "population_share_pct": 0.13, "distance_major_road_m": 35029.5, "distance_any_road_m": 79.74, "distance_waterway_m": 121.97, "distance_water_transport_m": 14574.63, "source_class": "Derived building-concentration cluster", "interpretation_note": "Derived from Google Open Buildings concentration. Not an official administrative settlement boundary." }, "geometry": { "type": "Polygon", "coordinates": [ [ [ 6.514748291012925, 5.333973141201515 ], [ 6.510239786342248, 5.333954891334209 ], [ 6.510221554465049, 5.338473857028909 ], [ 6.514730092067418, 5.338492122443873 ], [ 6.514748291012925, 5.333973141201515 ] ] ] } },
{ "type": "Feature", "properties": { "cluster_id": "BC_054", "cluster_rank": 43.0, "area_km2": 0.25, "building_count": 36.0, "building_density_km2": 144.0, "population_2025": 213.84, "population_density_km2": 855.38, "population_share_pct": 0.12, "distance_major_road_m": 38374.35, "distance_any_road_m": 0.51, "distance_waterway_m": 300.06, "distance_water_transport_m": 18308.12, "source_class": "Derived building-concentration cluster", "interpretation_note": "Derived from Google Open Buildings concentration. Not an official administrative settlement boundary." }, "geometry": { "type": "Polygon", "coordinates": [ [ [ 6.523601588674112, 5.374680626094685 ], [ 6.519092755351359, 5.374662302786774 ], [ 6.519074448868059, 5.379181293003458 ], [ 6.523583315378271, 5.379199631804771 ], [ 6.523601588674112, 5.374680626094685 ] ] ] } },
{ "type": "Feature", "properties": { "cluster_id": "BC_043", "cluster_rank": 44.0, "area_km2": 0.25, "building_count": 34.0, "building_density_km2": 136.0, "population_2025": 234.54, "population_density_km2": 938.14, "population_share_pct": 0.13, "distance_major_road_m": 23215.76, "distance_any_road_m": 60.37, "distance_waterway_m": 708.85, "distance_water_transport_m": 3400.04, "source_class": "Derived building-concentration cluster", "interpretation_note": "Derived from Google Open Buildings concentration. Not an official administrative settlement boundary." }, "geometry": { "type": "Polygon", "coordinates": [ [ [ 6.420261030979058, 5.288396437559116 ], [ 6.420279742903149, 5.283877780733517 ], [ 6.415771933313664, 5.283859015608012 ], [ 6.415753188780965, 5.288377656298259 ], [ 6.420261030979058, 5.288396437559116 ] ] ] } },
{ "type": "Feature", "properties": { "cluster_id": "BC_008", "cluster_rank": 45.0, "area_km2": 0.25, "building_count": 32.0, "building_density_km2": 128.0, "population_2025": 17.21, "population_density_km2": 68.85, "population_share_pct": 0.01, "distance_major_road_m": 37428.75, "distance_any_road_m": 4.2, "distance_waterway_m": 150.07, "distance_water_transport_m": 2453.21, "source_class": "Derived building-concentration cluster", "interpretation_note": "Derived from Google Open Buildings concentration. Not an official administrative settlement boundary." }, "geometry": { "type": "Polygon", "coordinates": [ [ [ 6.047961863497751, 4.89372533876428 ], [ 6.043458193141904, 4.893705450919025 ], [ 6.043438340862461, 4.898222716038508 ], [ 6.047942041351895, 4.898242622327906 ], [ 6.047961863497751, 4.89372533876428 ] ] ] } },
{ "type": "Feature", "properties": { "cluster_id": "BC_042", "cluster_rank": 46.0, "area_km2": 0.25, "building_count": 31.0, "building_density_km2": 124.0, "population_2025": 175.46, "population_density_km2": 701.84, "population_share_pct": 0.1, "distance_major_road_m": 22387.65, "distance_any_road_m": 139.42, "distance_waterway_m": 289.38, "distance_water_transport_m": 3184.43, "source_class": "Derived building-concentration cluster", "interpretation_note": "Derived from Google Open Buildings concentration. Not an official administrative settlement boundary." }, "geometry": { "type": "Polygon", "coordinates": [ [ [ 6.4112641399732, 5.283840217809373 ], [ 6.406756362910021, 5.283821387338175 ], [ 6.406737553161854, 5.288339995673437 ], [ 6.411245362832476, 5.288358842336173 ], [ 6.4112641399732, 5.283840217809373 ] ] ] } },
{ "type": "Feature", "properties": { "cluster_id": "BC_046", "cluster_rank": 47.0, "area_km2": 0.08, "building_count": 31.0, "building_density_km2": 375.89, "population_2025": 233.05, "population_density_km2": 2825.85, "population_share_pct": 0.13, "distance_major_road_m": 21207.03, "distance_any_road_m": 141.67, "distance_waterway_m": 3510.25, "distance_water_transport_m": 5723.55, "source_class": "Derived building-concentration cluster", "interpretation_note": "Derived from Google Open Buildings concentration. Not an official administrative settlement boundary." }, "geometry": { "type": "Polygon", "coordinates": [ [ [ 6.3815043, 5.3033427 ], [ 6.384135222372905, 5.303346477122711 ], [ 6.384141732949135, 5.301800848388028 ], [ 6.379633923557914, 5.30178175645203 ], [ 6.379628592183945, 5.303045297547333 ], [ 6.3815043, 5.3033427 ] ] ] } },
{ "type": "Feature", "properties": { "cluster_id": "BC_027", "cluster_rank": 48.0, "area_km2": 0.25, "building_count": 29.0, "building_density_km2": 116.0, "population_2025": 621.54, "population_density_km2": 2486.16, "population_share_pct": 0.36, "distance_major_road_m": 7463.75, "distance_any_road_m": 75.24, "distance_waterway_m": 978.83, "distance_water_transport_m": 1556.08, "source_class": "Derived building-concentration cluster", "interpretation_note": "Derived from Google Open Buildings concentration. Not an official administrative settlement boundary." }, "geometry": { "type": "Polygon", "coordinates": [ [ [ 6.177527713522246, 5.138249488262534 ], [ 6.177547600156886, 5.133731719010396 ], [ 6.173041767613871, 5.133711772759361 ], [ 6.173021849334746, 5.138229524367802 ], [ 6.177527713522246, 5.138249488262534 ] ] ] } },
{ "type": "Feature", "properties": { "cluster_id": "BC_001", "cluster_rank": 49.0, "area_km2": 0.18, "building_count": 25.0, "building_density_km2": 137.2, "population_2025": 35.85, "population_density_km2": 196.74, "population_share_pct": 0.02, "distance_major_road_m": 46638.93, "distance_any_road_m": 194.84, "distance_waterway_m": 96.22, "distance_water_transport_m": 5204.53, "source_class": "Derived building-concentration cluster", "interpretation_note": "Derived from Google Open Buildings concentration. Not an official administrative settlement boundary." }, "geometry": { "type": "Polygon", "coordinates": [ [ [ 6.025815601820964, 4.808728477071215 ], [ 6.021310082799842, 4.809284290331917 ], [ 6.021296979398821, 4.81229633665273 ], [ 6.025800019243365, 4.812316041070329 ], [ 6.025815601820964, 4.808728477071215 ] ] ] } },
{ "type": "Feature", "properties": { "cluster_id": "BC_021", "cluster_rank": 50.0, "area_km2": 0.25, "building_count": 24.0, "building_density_km2": 96.0, "population_2025": 337.03, "population_density_km2": 1348.13, "population_share_pct": 0.19, "distance_major_road_m": 22208.01, "distance_any_road_m": 11.07, "distance_waterway_m": 399.61, "distance_water_transport_m": 4712.27, "source_class": "Derived building-concentration cluster", "interpretation_note": "Derived from Google Open Buildings concentration. Not an official administrative settlement boundary." }, "geometry": { "type": "Polygon", "coordinates": [ [ [ 6.119494568477021, 5.016013714092221 ], [ 6.119514378168506, 5.011496157243865 ], [ 6.115009622153047, 5.011476284887665 ], [ 6.114989781586142, 5.015993823734147 ], [ 6.119494568477021, 5.016013714092221 ] ] ] } },
{ "type": "Feature", "properties": { "cluster_id": "BC_037", "cluster_rank": 51.0, "area_km2": 0.25, "building_count": 24.0, "building_density_km2": 96.4, "population_2025": 200.65, "population_density_km2": 805.93, "population_share_pct": 0.11, "distance_major_road_m": 9128.57, "distance_any_road_m": 207.01, "distance_waterway_m": 758.47, "distance_water_transport_m": 10735.45, "source_class": "Derived building-concentration cluster", "interpretation_note": "Derived from Google Open Buildings concentration. Not an official administrative settlement boundary." }, "geometry": { "type": "Polygon", "coordinates": [ [ [ 6.285232279207879, 5.241896789514578 ], [ 6.285457083000109, 5.242638129159683 ], [ 6.289736114444693, 5.242656698747595 ], [ 6.289755601403526, 5.238138513989326 ], [ 6.285248598868968, 5.238118971067739 ], [ 6.285232279207879, 5.241896789514578 ] ] ] } },
{ "type": "Feature", "properties": { "cluster_id": "BC_044", "cluster_rank": 52.0, "area_km2": 0.17, "building_count": 24.0, "building_density_km2": 137.72, "population_2025": 224.86, "population_density_km2": 1290.31, "population_share_pct": 0.13, "distance_major_road_m": 16670.93, "distance_any_road_m": 223.75, "distance_waterway_m": 1306.11, "distance_water_transport_m": 8164.29, "source_class": "Derived building-concentration cluster", "interpretation_note": "Derived from Google Open Buildings concentration. Not an official administrative settlement boundary." }, "geometry": { "type": "Polygon", "coordinates": [ [ [ 6.331112, 5.2995881 ], [ 6.334558485468246, 5.301182415723892 ], [ 6.334576122234878, 5.297070690977536 ], [ 6.330068528332638, 5.297051255154814 ], [ 6.330057198631545, 5.299688506366416 ], [ 6.331112, 5.2995881 ] ] ] } },
{ "type": "Feature", "properties": { "cluster_id": "BC_035", "cluster_rank": 53.0, "area_km2": 0.25, "building_count": 23.0, "building_density_km2": 92.0, "population_2025": 127.4, "population_density_km2": 509.6, "population_share_pct": 0.07, "distance_major_road_m": 137.59, "distance_any_road_m": 137.59, "distance_waterway_m": 2039.95, "distance_water_transport_m": 11171.36, "source_class": "Derived building-concentration cluster", "interpretation_note": "Derived from Google Open Buildings concentration. Not an official administrative settlement boundary." }, "geometry": { "type": "Polygon", "coordinates": [ [ [ 6.208732268374109, 5.215192400566915 ], [ 6.204225738348844, 5.215172362246324 ], [ 6.204205725472861, 5.219690223831775 ], [ 6.20871228765481, 5.219710279603945 ], [ 6.208732268374109, 5.215192400566915 ] ] ] } },
{ "type": "Feature", "properties": { "cluster_id": "BC_014", "cluster_rank": 54.0, "area_km2": 0.25, "building_count": 22.0, "building_density_km2": 88.0, "population_2025": 179.66, "population_density_km2": 718.63, "population_share_pct": 0.1, "distance_major_road_m": 20934.52, "distance_any_road_m": 302.85, "distance_waterway_m": 573.94, "distance_water_transport_m": 6299.14, "source_class": "Derived building-concentration cluster", "interpretation_note": "Derived from Google Open Buildings concentration. Not an official administrative settlement boundary." }, "geometry": { "type": "Polygon", "coordinates": [ [ [ 6.051577211192853, 5.09250582394503 ], [ 6.056082271104191, 5.092526460669702 ], [ 6.056102827079252, 5.088009170461355 ], [ 6.051597798513546, 5.087988552135134 ], [ 6.051577211192853, 5.09250582394503 ] ] ] } }
]
}
