{
"type": "FeatureCollection",
"name": "communities",
"crs": { "type": "name", "properties": { "name": "urn:ogc:def:crs:OGC:1.3:CRS84" } },
"features": [
{ "type": "Feature", "properties": { "community_id": "n501354630", "name": "Ofoni", "place_type": "village", "population_500m": 1.6, "population_1km": 668.5, "buildings_500m": 1.0, "buildings_1km": 75.0, "distance_major_road_m": 20727.6, "distance_any_road_m": 782.0, "nearest_road_group": "local", "nearest_road_name": null, "distance_waterway_m": 544.4, "nearest_waterway_type": "river", "nearest_waterway_name": "Forcados River", "distance_water_transport_m": 7425.8, "source_class": "OSM contextual settlement", "interpretation_note": "Mapped OSM community point. Population values are local buffer context, not official settlement census totals." }, "geometry": { "type": "Point", "coordinates": [ 6.05, 5.1 ] } },
{ "type": "Feature", "properties": { "community_id": "n501379868", "name": "Sagbama", "place_type": "town", "population_500m": 9934.3, "population_1km": 19828.7, "buildings_500m": 1200.0, "buildings_1km": 1975.0, "distance_major_road_m": 4425.0, "distance_any_road_m": 39.3, "nearest_road_group": "local", "nearest_road_name": null, "distance_waterway_m": 528.7, "nearest_waterway_type": "river", "nearest_waterway_name": "Forcados River", "distance_water_transport_m": 4618.2, "source_class": "OSM contextual settlement", "interpretation_note": "Mapped OSM community point. Population values are local buffer context, not official settlement census totals." }, "geometry": { "type": "Point", "coordinates": [ 6.1947752, 5.1557461 ] } },
{ "type": "Feature", "properties": { "community_id": "n501392808", "name": "Egbepulugbene", "place_type": "locality", "population_500m": 0.0, "population_1km": 4.3, "buildings_500m": 0.0, "buildings_1km": 3.0, "distance_major_road_m": 42946.4, "distance_any_road_m": 1280.0, "nearest_road_group": "local", "nearest_road_name": null, "distance_waterway_m": 177.8, "nearest_waterway_type": "river", "nearest_waterway_name": "Osiama Creek", "distance_water_transport_m": 1399.4, "source_class": "OSM contextual settlement", "interpretation_note": "Mapped OSM community point. Population values are local buffer context, not official settlement census totals." }, "geometry": { "type": "Point", "coordinates": [ 6.0321151, 4.8448519 ] } },
{ "type": "Feature", "properties": { "community_id": "n501393740", "name": "Agoligbene", "place_type": "village", "population_500m": 861.7, "population_1km": 882.4, "buildings_500m": 192.0, "buildings_1km": 193.0, "distance_major_road_m": 41861.8, "distance_any_road_m": 27.8, "nearest_road_group": "local", "nearest_road_name": null, "distance_waterway_m": 154.2, "nearest_waterway_type": "river", "nearest_waterway_name": "Osiama Creek", "distance_water_transport_m": 69.7, "source_class": "OSM contextual settlement", "interpretation_note": "Mapped OSM community point. Population values are local buffer context, not official settlement census totals." }, "geometry": { "type": "Point", "coordinates": [ 6.0299277, 4.8581185 ] } },
{ "type": "Feature", "properties": { "community_id": "n501432952", "name": "Kabiama", "place_type": "village", "population_500m": 1582.5, "population_1km": 1765.1, "buildings_500m": 332.0, "buildings_1km": 332.0, "distance_major_road_m": 21612.4, "distance_any_road_m": 36.8, "nearest_road_group": "local", "nearest_road_name": null, "distance_waterway_m": 188.1, "nearest_waterway_type": "river", "nearest_waterway_name": "Sagbama Creek", "distance_water_transport_m": 140.2, "source_class": "OSM contextual settlement", "interpretation_note": "Mapped OSM community point. Population values are local buffer context, not official settlement census totals." }, "geometry": { "type": "Point", "coordinates": [ 6.086936, 5.0432289 ] } },
{ "type": "Feature", "properties": { "community_id": "n501432960", "name": "Isoni", "place_type": "village", "population_500m": 1139.2, "population_1km": 1313.3, "buildings_500m": 184.0, "buildings_1km": 186.0, "distance_major_road_m": 41351.8, "distance_any_road_m": 9.9, "nearest_road_group": "local", "nearest_road_name": null, "distance_waterway_m": 48.1, "nearest_waterway_type": "river", "nearest_waterway_name": null, "distance_water_transport_m": 4356.4, "source_class": "OSM contextual settlement", "interpretation_note": "Mapped OSM community point. Population values are local buffer context, not official settlement census totals." }, "geometry": { "type": "Point", "coordinates": [ 6.0013834, 4.8842681 ] } },
{ "type": "Feature", "properties": { "community_id": "n501462911", "name": "Angalawegbene", "place_type": "village", "population_500m": 10.6, "population_1km": 11.7, "buildings_500m": 2.0, "buildings_1km": 2.0, "distance_major_road_m": 29796.9, "distance_any_road_m": 2040.8, "nearest_road_group": "local", "nearest_road_name": null, "distance_waterway_m": 109.6, "nearest_waterway_type": "stream", "nearest_waterway_name": null, "distance_water_transport_m": 9863.5, "source_class": "OSM contextual settlement", "interpretation_note": "Mapped OSM community point. Population values are local buffer context, not official settlement census totals." }, "geometry": { "type": "Point", "coordinates": [ 6.0001588, 5.0279999 ] } },
{ "type": "Feature", "properties": { "community_id": "n501474396", "name": "Aguru", "place_type": "village", "population_500m": 1447.0, "population_1km": 1585.8, "buildings_500m": 225.0, "buildings_1km": 229.0, "distance_major_road_m": 17027.4, "distance_any_road_m": 18.7, "nearest_road_group": "local", "nearest_road_name": null, "distance_waterway_m": 272.0, "nearest_waterway_type": "river", "nearest_waterway_name": "Sagbama Creek", "distance_water_transport_m": 4796.8, "source_class": "OSM contextual settlement", "interpretation_note": "Mapped OSM community point. Population values are local buffer context, not official settlement census totals." }, "geometry": { "type": "Point", "coordinates": [ 6.1255425, 5.0654033 ] } },
{ "type": "Feature", "properties": { "community_id": "n501483707", "name": "Awigbene", "place_type": "village", "population_500m": 334.3, "population_1km": 336.5, "buildings_500m": 103.0, "buildings_1km": 103.0, "distance_major_road_m": 44928.1, "distance_any_road_m": 15.1, "nearest_road_group": "local", "nearest_road_name": null, "distance_waterway_m": 121.0, "nearest_waterway_type": "river", "nearest_waterway_name": "Osiama Creek", "distance_water_transport_m": 3577.1, "source_class": "OSM contextual settlement", "interpretation_note": "Mapped OSM community point. Population values are local buffer context, not official settlement census totals." }, "geometry": { "type": "Point", "coordinates": [ 6.0003049, 4.845277 ] } },
{ "type": "Feature", "properties": { "community_id": "n501483780", "name": "Ogoubiri", "place_type": "village", "population_500m": 4984.6, "population_1km": 8363.4, "buildings_500m": 579.0, "buildings_1km": 845.0, "distance_major_road_m": 23696.5, "distance_any_road_m": 40.0, "nearest_road_group": "local", "nearest_road_name": "Swali - Oguobiri", "distance_waterway_m": 192.7, "nearest_waterway_type": "river", "nearest_waterway_name": "Egbedi Creek", "distance_water_transport_m": 6065.8, "source_class": "OSM contextual settlement", "interpretation_note": "Mapped OSM community point. Population values are local buffer context, not official settlement census totals." }, "geometry": { "type": "Point", "coordinates": [ 6.1165069, 4.9977424 ] } },
{ "type": "Feature", "properties": { "community_id": "n501484027", "name": "Akede", "place_type": "village", "population_500m": 2999.4, "population_1km": 3585.3, "buildings_500m": 550.0, "buildings_1km": 592.0, "distance_major_road_m": 34002.6, "distance_any_road_m": 49.7, "nearest_road_group": "local", "nearest_road_name": null, "distance_waterway_m": 204.6, "nearest_waterway_type": "river", "nearest_waterway_name": "Osiama Creek", "distance_water_transport_m": 5946.7, "source_class": "OSM contextual settlement", "interpretation_note": "Mapped OSM community point. Population values are local buffer context, not official settlement census totals." }, "geometry": { "type": "Point", "coordinates": [ 6.0583912, 4.9249701 ] } },
{ "type": "Feature", "properties": { "community_id": "n501486035", "name": "Anubeze", "place_type": "village", "population_500m": 79.2, "population_1km": 696.5, "buildings_500m": 9.0, "buildings_1km": 57.0, "distance_major_road_m": 3426.8, "distance_any_road_m": 104.9, "nearest_road_group": "local", "nearest_road_name": null, "distance_waterway_m": 1182.9, "nearest_waterway_type": "stream", "nearest_waterway_name": null, "distance_water_transport_m": 13884.5, "source_class": "OSM contextual settlement", "interpretation_note": "Mapped OSM community point. Population values are local buffer context, not official settlement census totals." }, "geometry": { "type": "Point", "coordinates": [ 6.2329468, 5.2312389 ] } },
{ "type": "Feature", "properties": { "community_id": "n501493202", "name": "Abari", "place_type": "village", "population_500m": 554.3, "population_1km": 655.7, "buildings_500m": 30.0, "buildings_1km": 42.0, "distance_major_road_m": 8994.1, "distance_any_road_m": 17.9, "nearest_road_group": "track_path", "nearest_road_name": null, "distance_waterway_m": 473.1, "nearest_waterway_type": "river", "nearest_waterway_name": "Forcados River", "distance_water_transport_m": 10610.0, "source_class": "OSM contextual settlement", "interpretation_note": "Mapped OSM community point. Population values are local buffer context, not official settlement census totals." }, "geometry": { "type": "Point", "coordinates": [ 6.2888047, 5.2375959 ] } },
{ "type": "Feature", "properties": { "community_id": "n501496656", "name": "Fotorugbene", "place_type": "village", "population_500m": 1694.2, "population_1km": 1704.6, "buildings_500m": 224.0, "buildings_1km": 224.0, "distance_major_road_m": 32230.8, "distance_any_road_m": 46.0, "nearest_road_group": "local", "nearest_road_name": null, "distance_waterway_m": 173.7, "nearest_waterway_type": "stream", "nearest_waterway_name": null, "distance_water_transport_m": 10548.1, "source_class": "OSM contextual settlement", "interpretation_note": "Mapped OSM community point. Population values are local buffer context, not official settlement census totals." }, "geometry": { "type": "Point", "coordinates": [ 6.0262019, 4.9690821 ] } },
{ "type": "Feature", "properties": { "community_id": "n501497892", "name": "Orusakwe", "place_type": "locality", "population_500m": 3.0, "population_1km": 3.7, "buildings_500m": 0.0, "buildings_1km": 0.0, "distance_major_road_m": 46258.7, "distance_any_road_m": 1209.0, "nearest_road_group": "local", "nearest_road_name": null, "distance_waterway_m": 99.4, "nearest_waterway_type": "river", "nearest_waterway_name": "Osiama Creek", "distance_water_transport_m": 4891.5, "source_class": "OSM contextual settlement", "interpretation_note": "Mapped OSM community point. Population values are local buffer context, not official settlement census totals." }, "geometry": { "type": "Point", "coordinates": [ 5.9909983, 4.8371655 ] } },
{ "type": "Feature", "properties": { "community_id": "n501501766", "name": "Arua", "place_type": "village", "population_500m": 3900.3, "population_1km": 6028.3, "buildings_500m": 578.0, "buildings_1km": 757.0, "distance_major_road_m": 14044.9, "distance_any_road_m": 117.7, "nearest_road_group": "local", "nearest_road_name": null, "distance_waterway_m": 244.9, "nearest_waterway_type": "river", "nearest_waterway_name": "Sagbama Creek", "distance_water_transport_m": 5558.3, "source_class": "OSM contextual settlement", "interpretation_note": "Mapped OSM community point. Population values are local buffer context, not official settlement census totals." }, "geometry": { "type": "Point", "coordinates": [ 6.1204404, 5.1056338 ] } },
{ "type": "Feature", "properties": { "community_id": "n501509683", "name": "Samabri", "place_type": "village", "population_500m": 431.6, "population_1km": 2540.8, "buildings_500m": 14.0, "buildings_1km": 308.0, "distance_major_road_m": 25725.0, "distance_any_road_m": 68.0, "nearest_road_group": "local", "nearest_road_name": null, "distance_waterway_m": 1789.3, "nearest_waterway_type": "river", "nearest_waterway_name": "Le Niger", "distance_water_transport_m": 5913.7, "source_class": "OSM contextual settlement", "interpretation_note": "Mapped OSM community point. Population values are local buffer context, not official settlement census totals." }, "geometry": { "type": "Point", "coordinates": [ 6.4331866, 5.3040481 ] } },
{ "type": "Feature", "properties": { "community_id": "n501512427", "name": "Kanu", "place_type": "village", "population_500m": 1041.4, "population_1km": 1050.3, "buildings_500m": 166.0, "buildings_1km": 166.0, "distance_major_road_m": 31850.7, "distance_any_road_m": 0.7, "nearest_road_group": "local", "nearest_road_name": null, "distance_waterway_m": 103.0, "nearest_waterway_type": "river", "nearest_waterway_name": null, "distance_water_transport_m": 11421.8, "source_class": "OSM contextual settlement", "interpretation_note": "Mapped OSM community point. Population values are local buffer context, not official settlement census totals." }, "geometry": { "type": "Point", "coordinates": [ 5.9902175, 5.0107633 ] } },
{ "type": "Feature", "properties": { "community_id": "n501514725", "name": "Ekowe", "place_type": "village", "population_500m": 367.4, "population_1km": 722.8, "buildings_500m": 41.0, "buildings_1km": 74.0, "distance_major_road_m": 23020.9, "distance_any_road_m": 50.9, "nearest_road_group": "local", "nearest_road_name": null, "distance_waterway_m": 559.6, "nearest_waterway_type": "river", "nearest_waterway_name": "Le Niger", "distance_water_transport_m": 3237.0, "source_class": "OSM contextual settlement", "interpretation_note": "Mapped OSM community point. Population values are local buffer context, not official settlement census totals." }, "geometry": { "type": "Point", "coordinates": [ 6.4166104, 5.2850669 ] } },
{ "type": "Feature", "properties": { "community_id": "n501521646", "name": "Ogbonogbene", "place_type": "village", "population_500m": 214.8, "population_1km": 219.0, "buildings_500m": 77.0, "buildings_1km": 80.0, "distance_major_road_m": 45792.2, "distance_any_road_m": 10.2, "nearest_road_group": "local", "nearest_road_name": null, "distance_waterway_m": 127.2, "nearest_waterway_type": "river", "nearest_waterway_name": "Osiama Creek", "distance_water_transport_m": 4066.7, "source_class": "OSM contextual settlement", "interpretation_note": "Mapped OSM community point. Population values are local buffer context, not official settlement census totals." }, "geometry": { "type": "Point", "coordinates": [ 6.0200886, 4.8220311 ] } },
{ "type": "Feature", "properties": { "community_id": "n501522799", "name": "Adagbabri", "place_type": "village", "population_500m": 3699.1, "population_1km": 6251.3, "buildings_500m": 288.0, "buildings_1km": 430.0, "distance_major_road_m": 130.2, "distance_any_road_m": 67.6, "nearest_road_group": "local", "nearest_road_name": null, "distance_waterway_m": 1284.8, "nearest_waterway_type": "river", "nearest_waterway_name": "Forcados River", "distance_water_transport_m": 9609.3, "source_class": "OSM contextual settlement", "interpretation_note": "Mapped OSM community point. Population values are local buffer context, not official settlement census totals." }, "geometry": { "type": "Point", "coordinates": [ 6.207794, 5.2011906 ] } },
{ "type": "Feature", "properties": { "community_id": "n7769519130", "name": "Odoni", "place_type": "town", "population_500m": 6703.4, "population_1km": 12894.4, "buildings_500m": 557.0, "buildings_1km": 1059.0, "distance_major_road_m": 17147.8, "distance_any_road_m": 2.6, "nearest_road_group": "local", "nearest_road_name": null, "distance_waterway_m": 477.6, "nearest_waterway_type": "river", "nearest_waterway_name": "Le Niger", "distance_water_transport_m": 546.5, "source_class": "OSM contextual settlement", "interpretation_note": "Mapped OSM community point. Population values are local buffer context, not official settlement census totals." }, "geometry": { "type": "Point", "coordinates": [ 6.3794684, 5.2441368 ] } },
{ "type": "Feature", "properties": { "community_id": "n8828142914", "name": "Ogbokiri", "place_type": "village", "population_500m": 275.6, "population_1km": 638.7, "buildings_500m": 34.0, "buildings_1km": 75.0, "distance_major_road_m": 22398.4, "distance_any_road_m": 33.5, "nearest_road_group": "track_path", "nearest_road_name": null, "distance_waterway_m": 143.1, "nearest_waterway_type": "river", "nearest_waterway_name": "Le Niger", "distance_water_transport_m": 3018.8, "source_class": "OSM contextual settlement", "interpretation_note": "Mapped OSM community point. Population values are local buffer context, not official settlement census totals." }, "geometry": { "type": "Point", "coordinates": [ 6.4102327, 5.2844811 ] } },
{ "type": "Feature", "properties": { "community_id": "n8828154396", "name": "Ekpeniwhare", "place_type": "village", "population_500m": 1802.7, "population_1km": 2129.5, "buildings_500m": 211.0, "buildings_1km": 246.0, "distance_major_road_m": 29905.1, "distance_any_road_m": 61.9, "nearest_road_group": "local", "nearest_road_name": null, "distance_waterway_m": 295.5, "nearest_waterway_type": "river", "nearest_waterway_name": "Le Niger", "distance_water_transport_m": 9605.5, "source_class": "OSM contextual settlement", "interpretation_note": "Mapped OSM community point. Population values are local buffer context, not official settlement census totals." }, "geometry": { "type": "Point", "coordinates": [ 6.4694784, 5.317717 ] } },
{ "type": "Feature", "properties": { "community_id": "n8828194758", "name": "Ofonibagha", "place_type": "village", "population_500m": 526.6, "population_1km": 528.7, "buildings_500m": 53.0, "buildings_1km": 55.0, "distance_major_road_m": 31662.9, "distance_any_road_m": 45.5, "nearest_road_group": "track_path", "nearest_road_name": null, "distance_waterway_m": 280.5, "nearest_waterway_type": "river", "nearest_waterway_name": "Le Niger", "distance_water_transport_m": 11145.9, "source_class": "OSM contextual settlement", "interpretation_note": "Mapped OSM community point. Population values are local buffer context, not official settlement census totals." }, "geometry": { "type": "Point", "coordinates": [ 6.4907392, 5.3133956 ] } },
{ "type": "Feature", "properties": { "community_id": "n8828194759", "name": "Osikenike", "place_type": "village", "population_500m": 1463.6, "population_1km": 1710.3, "buildings_500m": 189.0, "buildings_1km": 208.0, "distance_major_road_m": 28266.7, "distance_any_road_m": 85.6, "nearest_road_group": "local", "nearest_road_name": null, "distance_waterway_m": 1669.7, "nearest_waterway_type": "river", "nearest_waterway_name": "Le Niger", "distance_water_transport_m": 8181.1, "source_class": "OSM contextual settlement", "interpretation_note": "Mapped OSM community point. Population values are local buffer context, not official settlement census totals." }, "geometry": { "type": "Point", "coordinates": [ 6.4536018, 5.3148614 ] } },
{ "type": "Feature", "properties": { "community_id": "n8828194760", "name": "Osifo", "place_type": "village", "population_500m": 1444.2, "population_1km": 1765.3, "buildings_500m": 170.0, "buildings_1km": 182.0, "distance_major_road_m": 26562.1, "distance_any_road_m": 17.5, "nearest_road_group": "local", "nearest_road_name": null, "distance_waterway_m": 2517.5, "nearest_waterway_type": "river", "nearest_waterway_name": "Le Niger", "distance_water_transport_m": 6686.7, "source_class": "OSM contextual settlement", "interpretation_note": "Mapped OSM community point. Population values are local buffer context, not official settlement census totals." }, "geometry": { "type": "Point", "coordinates": [ 6.4392369, 5.3085747 ] } },
{ "type": "Feature", "properties": { "community_id": "n8828210417", "name": "Angbariama", "place_type": "village", "population_500m": 263.6, "population_1km": 354.4, "buildings_500m": 27.0, "buildings_1km": 29.0, "distance_major_road_m": 17574.9, "distance_any_road_m": 35.0, "nearest_road_group": "local", "nearest_road_name": null, "distance_waterway_m": 2089.5, "nearest_waterway_type": "river", "nearest_waterway_name": "Forcados River", "distance_water_transport_m": 7950.9, "source_class": "OSM contextual settlement", "interpretation_note": "Mapped OSM community point. Population values are local buffer context, not official settlement census totals." }, "geometry": { "type": "Point", "coordinates": [ 6.3395275, 5.3021658 ] } },
{ "type": "Feature", "properties": { "community_id": "n8828210419", "name": "Ogbiriasa Camp", "place_type": "hamlet", "population_500m": 301.5, "population_1km": 704.2, "buildings_500m": 22.0, "buildings_1km": 49.0, "distance_major_road_m": 15429.1, "distance_any_road_m": 37.0, "nearest_road_group": "local", "nearest_road_name": null, "distance_waterway_m": 568.0, "nearest_waterway_type": "river", "nearest_waterway_name": "Forcados River", "distance_water_transport_m": 8639.3, "source_class": "OSM contextual settlement", "interpretation_note": "Mapped OSM community point. Population values are local buffer context, not official settlement census totals." }, "geometry": { "type": "Point", "coordinates": [ 6.3222376, 5.2933303 ] } },
{ "type": "Feature", "properties": { "community_id": "n8828210420", "name": "Obodangese", "place_type": "village", "population_500m": 345.8, "population_1km": 638.7, "buildings_500m": 24.0, "buildings_1km": 41.0, "distance_major_road_m": 15028.6, "distance_any_road_m": 20.0, "nearest_road_group": "local", "nearest_road_name": null, "distance_waterway_m": 504.4, "nearest_waterway_type": "river", "nearest_waterway_name": "Forcados River", "distance_water_transport_m": 8696.0, "source_class": "OSM contextual settlement", "interpretation_note": "Mapped OSM community point. Population values are local buffer context, not official settlement census totals." }, "geometry": { "type": "Point", "coordinates": [ 6.3196516, 5.2906403 ] } },
{ "type": "Feature", "properties": { "community_id": "n8828210421", "name": "Aduku", "place_type": "village", "population_500m": 484.3, "population_1km": 817.7, "buildings_500m": 50.0, "buildings_1km": 88.0, "distance_major_road_m": 11578.1, "distance_any_road_m": 28.8, "nearest_road_group": "local", "nearest_road_name": null, "distance_waterway_m": 51.9, "nearest_waterway_type": "stream", "nearest_waterway_name": null, "distance_water_transport_m": 9770.3, "source_class": "OSM contextual settlement", "interpretation_note": "Mapped OSM community point. Population values are local buffer context, not official settlement census totals." }, "geometry": { "type": "Point", "coordinates": [ 6.2981597, 5.2652465 ] } },
{ "type": "Feature", "properties": { "community_id": "n8838148435", "name": "Adorbu", "place_type": "village", "population_500m": 1371.1, "population_1km": 1388.4, "buildings_500m": 163.0, "buildings_1km": 165.0, "distance_major_road_m": 24619.0, "distance_any_road_m": 34.3, "nearest_road_group": "local", "nearest_road_name": null, "distance_waterway_m": 393.8, "nearest_waterway_type": "river", "nearest_waterway_name": "Forcados River", "distance_water_transport_m": 12163.7, "source_class": "OSM contextual settlement", "interpretation_note": "Mapped OSM community point. Population values are local buffer context, not official settlement census totals." }, "geometry": { "type": "Point", "coordinates": [ 6.0037684, 5.1153242 ] } },
{ "type": "Feature", "properties": { "community_id": "n8838148436", "name": "Angalabiri", "place_type": "village", "population_500m": 4817.4, "population_1km": 6287.4, "buildings_500m": 845.0, "buildings_1km": 979.0, "distance_major_road_m": 22062.2, "distance_any_road_m": 34.5, "nearest_road_group": "local", "nearest_road_name": null, "distance_waterway_m": 452.6, "nearest_waterway_type": "river", "nearest_waterway_name": "Forcados River", "distance_water_transport_m": 7137.4, "source_class": "OSM contextual settlement", "interpretation_note": "Mapped OSM community point. Population values are local buffer context, not official settlement census totals." }, "geometry": { "type": "Point", "coordinates": [ 6.0419788, 5.0899743 ] } },
{ "type": "Feature", "properties": { "community_id": "n8838148437", "name": "Toru-Orua", "place_type": "village", "population_500m": 3515.1, "population_1km": 5045.3, "buildings_500m": 433.0, "buildings_1km": 571.0, "distance_major_road_m": 19058.6, "distance_any_road_m": 87.1, "nearest_road_group": "local", "nearest_road_name": null, "distance_waterway_m": 420.0, "nearest_waterway_type": "river", "nearest_waterway_name": "Forcados River", "distance_water_transport_m": 6784.1, "source_class": "OSM contextual settlement", "interpretation_note": "Mapped OSM community point. Population values are local buffer context, not official settlement census totals." }, "geometry": { "type": "Point", "coordinates": [ 6.066414, 5.1019794 ] } },
{ "type": "Feature", "properties": { "community_id": "n9290712666", "name": "Toru-Angiama", "place_type": "village", "population_500m": 1233.5, "population_1km": 5010.1, "buildings_500m": 66.0, "buildings_1km": 405.0, "distance_major_road_m": 12681.0, "distance_any_road_m": 45.1, "nearest_road_group": "local", "nearest_road_name": null, "distance_waterway_m": 365.1, "nearest_waterway_type": "river", "nearest_waterway_name": "Forcados River", "distance_water_transport_m": 7012.4, "source_class": "OSM contextual settlement", "interpretation_note": "Mapped OSM community point. Population values are local buffer context, not official settlement census totals." }, "geometry": { "type": "Point", "coordinates": [ 6.1075469, 5.1463472 ] } },
{ "type": "Feature", "properties": { "community_id": "n9290749189", "name": "Owumbiri", "place_type": "village", "population_500m": 2483.0, "population_1km": 3453.8, "buildings_500m": 334.0, "buildings_1km": 426.0, "distance_major_road_m": 13102.1, "distance_any_road_m": 138.9, "nearest_road_group": "local", "nearest_road_name": null, "distance_waterway_m": 451.3, "nearest_waterway_type": "river", "nearest_waterway_name": "Forcados River", "distance_water_transport_m": 6681.7, "source_class": "OSM contextual settlement", "interpretation_note": "Mapped OSM community point. Population values are local buffer context, not official settlement census totals." }, "geometry": { "type": "Point", "coordinates": [ 6.1079814, 5.1371225 ] } },
{ "type": "Feature", "properties": { "community_id": "n9290749190", "name": "Zumangbene", "place_type": "village", "population_500m": 70.1, "population_1km": 369.9, "buildings_500m": 5.0, "buildings_1km": 33.0, "distance_major_road_m": 12497.6, "distance_any_road_m": 56.9, "nearest_road_group": "local", "nearest_road_name": null, "distance_waterway_m": 381.7, "nearest_waterway_type": "river", "nearest_waterway_name": "Forcados River", "distance_water_transport_m": 5453.5, "source_class": "OSM contextual settlement", "interpretation_note": "Mapped OSM community point. Population values are local buffer context, not official settlement census totals." }, "geometry": { "type": "Point", "coordinates": [ 6.1181427, 5.1309583 ] } },
{ "type": "Feature", "properties": { "community_id": "n9290800790", "name": "God-Deygbene", "place_type": "village", "population_500m": 787.2, "population_1km": 789.6, "buildings_500m": 112.0, "buildings_1km": 113.0, "distance_major_road_m": 9082.5, "distance_any_road_m": 35.1, "nearest_road_group": "local", "nearest_road_name": null, "distance_waterway_m": 372.0, "nearest_waterway_type": "river", "nearest_waterway_name": "Forcados River", "distance_water_transport_m": 3161.6, "source_class": "OSM contextual settlement", "interpretation_note": "Mapped OSM community point. Population values are local buffer context, not official settlement census totals." }, "geometry": { "type": "Point", "coordinates": [ 6.1463787, 5.1443515 ] } },
{ "type": "Feature", "properties": { "community_id": "n9290811361", "name": "Tungbo", "place_type": "village", "population_500m": 4609.0, "population_1km": 6256.1, "buildings_500m": 428.0, "buildings_1km": 510.0, "distance_major_road_m": 8772.8, "distance_any_road_m": 44.0, "nearest_road_group": "local", "nearest_road_name": null, "distance_waterway_m": 396.5, "nearest_waterway_type": "river", "nearest_waterway_name": "Sagbama Creek", "distance_water_transport_m": 260.0, "source_class": "OSM contextual settlement", "interpretation_note": "Mapped OSM community point. Population values are local buffer context, not official settlement census totals." }, "geometry": { "type": "Point", "coordinates": [ 6.1691009, 5.1258607 ] } },
{ "type": "Feature", "properties": { "community_id": "n12800934960", "name": "Ofoni", "place_type": "village", "population_500m": 6809.4, "population_1km": 11408.9, "buildings_500m": 677.0, "buildings_1km": 1037.0, "distance_major_road_m": 27113.5, "distance_any_road_m": 16.7, "nearest_road_group": "local", "nearest_road_name": null, "distance_waterway_m": 791.6, "nearest_waterway_type": "river", "nearest_waterway_name": "Forcados River", "distance_water_transport_m": 14861.3, "source_class": "OSM contextual settlement", "interpretation_note": "Mapped OSM community point. Population values are local buffer context, not official settlement census totals." }, "geometry": { "type": "Point", "coordinates": [ 5.9777415, 5.1213142 ] } }
]
}
