{
"type": "FeatureCollection",
"name": "demo_reports",
"crs": { "type": "name", "properties": { "name": "urn:ogc:def:crs:OGC:1.3:CRS84" } },
"features": [
{ "type": "Feature", "properties": { "report_id": "NFSS-DEMO-2026-001", "is_demo": true, "report_category": "Suspicious forest activity", "description": "DEMO ONLY: community observation requiring field verification.", "submitted_at": "2026-08-25T08:15:00+0100", "status": "Submitted", "verification_status": "Unverified", "priority_demo": "Medium", "evidence_attached_demo": true, "community_id": "n501354630", "community_name": "Ofoni", "population_context_1km": 668.5, "buildings_context_1km": 75.0, "distance_any_road_m": 782.0, "nearest_road_group": "local", "distance_waterway_m": 544.4, "nearest_waterway_type": "river", "source_type": "Synthetic NFSS GeoSafe demonstration report", "public_disclaimer": "DEMO DATA — NOT A REAL INCIDENT" }, "geometry": { "type": "Point", "coordinates": [ 6.05, 5.1 ] } },
{ "type": "Feature", "properties": { "report_id": "NFSS-DEMO-2026-002", "is_demo": true, "report_category": "Forest encroachment", "description": "DEMO ONLY: possible encroachment reported near community environment.", "submitted_at": "2026-08-24T14:30:00+0100", "status": "Under Review", "verification_status": "Pending review", "priority_demo": "Low", "evidence_attached_demo": false, "community_id": "n501462911", "community_name": "Angalawegbene", "population_context_1km": 11.7, "buildings_context_1km": 2.0, "distance_any_road_m": 2040.8, "nearest_road_group": "local", "distance_waterway_m": 109.6, "nearest_waterway_type": "stream", "source_type": "Synthetic NFSS GeoSafe demonstration report", "public_disclaimer": "DEMO DATA — NOT A REAL INCIDENT" }, "geometry": { "type": "Point", "coordinates": [ 6.0001588, 5.0279999 ] } },
{ "type": "Feature", "properties": { "report_id": "NFSS-DEMO-2026-003", "is_demo": true, "report_category": "Illegal logging / tree removal", "description": "DEMO ONLY: suspected tree removal requiring verification by officers.", "submitted_at": "2026-08-24T10:05:00+0100", "status": "Verified", "verification_status": "Verified", "priority_demo": "High", "evidence_attached_demo": true, "community_id": "n501486035", "community_name": "Anubeze", "population_context_1km": 696.5, "buildings_context_1km": 57.0, "distance_any_road_m": 104.9, "nearest_road_group": "local", "distance_waterway_m": 1182.9, "nearest_waterway_type": "stream", "source_type": "Synthetic NFSS GeoSafe demonstration report", "public_disclaimer": "DEMO DATA — NOT A REAL INCIDENT" }, "geometry": { "type": "Point", "coordinates": [ 6.2329468, 5.2312389 ] } },
{ "type": "Feature", "properties": { "report_id": "NFSS-DEMO-2026-004", "is_demo": true, "report_category": "Farmer or community threat", "description": "DEMO ONLY: community safety concern submitted for review.", "submitted_at": "2026-08-23T16:45:00+0100", "status": "Assigned", "verification_status": "Verified", "priority_demo": "High", "evidence_attached_demo": true, "community_id": "n501512427", "community_name": "Kanu", "population_context_1km": 1050.3, "buildings_context_1km": 166.0, "distance_any_road_m": 0.7, "nearest_road_group": "local", "distance_waterway_m": 103.0, "nearest_waterway_type": "river", "source_type": "Synthetic NFSS GeoSafe demonstration report", "public_disclaimer": "DEMO DATA — NOT A REAL INCIDENT" }, "geometry": { "type": "Point", "coordinates": [ 5.9902175, 5.0107633 ] } },
{ "type": "Feature", "properties": { "report_id": "NFSS-DEMO-2026-005", "is_demo": true, "report_category": "Suspicious waterway movement", "description": "DEMO ONLY: unusual movement reported along nearby waterway.", "submitted_at": "2026-08-22T12:20:00+0100", "status": "Resolved", "verification_status": "Verified", "priority_demo": "Medium", "evidence_attached_demo": true, "community_id": "n8828142914", "community_name": "Ogbokiri", "population_context_1km": 638.7, "buildings_context_1km": 75.0, "distance_any_road_m": 33.5, "nearest_road_group": "track_path", "distance_waterway_m": 143.1, "nearest_waterway_type": "river", "source_type": "Synthetic NFSS GeoSafe demonstration report", "public_disclaimer": "DEMO DATA — NOT A REAL INCIDENT" }, "geometry": { "type": "Point", "coordinates": [ 6.4102327, 5.2844811 ] } },
{ "type": "Feature", "properties": { "report_id": "NFSS-DEMO-2026-006", "is_demo": true, "report_category": "Bush fire / burning", "description": "DEMO ONLY: smoke or burning observation requiring field confirmation.", "submitted_at": "2026-08-21T09:10:00+0100", "status": "Closed", "verification_status": "Verified", "priority_demo": "Medium", "evidence_attached_demo": true, "community_id": "n8828210419", "community_name": "Ogbiriasa Camp", "population_context_1km": 704.2, "buildings_context_1km": 49.0, "distance_any_road_m": 37.0, "nearest_road_group": "local", "distance_waterway_m": 568.0, "nearest_waterway_type": "river", "source_type": "Synthetic NFSS GeoSafe demonstration report", "public_disclaimer": "DEMO DATA — NOT A REAL INCIDENT" }, "geometry": { "type": "Point", "coordinates": [ 6.3222376, 5.2933303 ] } },
{ "type": "Feature", "properties": { "report_id": "NFSS-DEMO-2026-007", "is_demo": true, "report_category": "Blocked or inaccessible route", "description": "DEMO ONLY: access route reportedly obstructed; verification required.", "submitted_at": "2026-08-20T15:05:00+0100", "status": "Verified", "verification_status": "Verified", "priority_demo": "Low", "evidence_attached_demo": false, "community_id": "n8838148437", "community_name": "Toru-Orua", "population_context_1km": 5045.3, "buildings_context_1km": 571.0, "distance_any_road_m": 87.1, "nearest_road_group": "local", "distance_waterway_m": 420.0, "nearest_waterway_type": "river", "source_type": "Synthetic NFSS GeoSafe demonstration report", "public_disclaimer": "DEMO DATA — NOT A REAL INCIDENT" }, "geometry": { "type": "Point", "coordinates": [ 6.066414, 5.1019794 ] } },
{ "type": "Feature", "properties": { "report_id": "NFSS-DEMO-2026-008", "is_demo": true, "report_category": "Environmental damage", "description": "DEMO ONLY: environmental disturbance reported for inspection.", "submitted_at": "2026-08-19T11:40:00+0100", "status": "Assigned", "verification_status": "Verified", "priority_demo": "High", "evidence_attached_demo": true, "community_id": "n12800934960", "community_name": "Ofoni", "population_context_1km": 11408.9, "buildings_context_1km": 1037.0, "distance_any_road_m": 16.7, "nearest_road_group": "local", "distance_waterway_m": 791.6, "nearest_waterway_type": "river", "source_type": "Synthetic NFSS GeoSafe demonstration report", "public_disclaimer": "DEMO DATA — NOT A REAL INCIDENT" }, "geometry": { "type": "Point", "coordinates": [ 5.9777415, 5.1213142 ] } }
]
}
