{
"type": "FeatureCollection",
"name": "health_facilities",
"crs": { "type": "name", "properties": { "name": "urn:ogc:def:crs:OGC:1.3:CRS84" } },
"features": [
{ "type": "Feature", "properties": { "facility_id": "HF_001", "name": null, "facility_type": "Primary", "source_class": "Authoritative project health-facility dataset" }, "geometry": { "type": "Point", "coordinates": [ 6.042059999592285, 5.090909999696473 ] } },
{ "type": "Feature", "properties": { "facility_id": "HF_002", "name": null, "facility_type": "Primary", "source_class": "Authoritative project health-facility dataset" }, "geometry": { "type": "Point", "coordinates": [ 6.064540000242599, 5.101630000323974 ] } },
{ "type": "Feature", "properties": { "facility_id": "HF_003", "name": null, "facility_type": "Primary", "source_class": "Authoritative project health-facility dataset" }, "geometry": { "type": "Point", "coordinates": [ 6.025878906310693, 4.810485840049161 ] } },
{ "type": "Feature", "properties": { "facility_id": "HF_004", "name": null, "facility_type": "Primary", "source_class": "Authoritative project health-facility dataset" }, "geometry": { "type": "Point", "coordinates": [ 6.202513888809881, 5.213748265407077 ] } },
{ "type": "Feature", "properties": { "facility_id": "HF_005", "name": null, "facility_type": "Primary", "source_class": "Authoritative project health-facility dataset" }, "geometry": { "type": "Point", "coordinates": [ 6.199277000248962, 5.160438999959706 ] } },
{ "type": "Feature", "properties": { "facility_id": "HF_006", "name": null, "facility_type": "Primary", "source_class": "Authoritative project health-facility dataset" }, "geometry": { "type": "Point", "coordinates": [ 6.032400000183682, 4.856599999789867 ] } },
{ "type": "Feature", "properties": { "facility_id": "HF_007", "name": null, "facility_type": "Primary", "source_class": "Authoritative project health-facility dataset" }, "geometry": { "type": "Point", "coordinates": [ 6.515149999579533, 5.353029999634754 ] } },
{ "type": "Feature", "properties": { "facility_id": "HF_008", "name": null, "facility_type": "Primary", "source_class": "Authoritative project health-facility dataset" }, "geometry": { "type": "Point", "coordinates": [ 5.974019999650237, 5.129879999961672 ] } },
{ "type": "Feature", "properties": { "facility_id": "HF_009", "name": null, "facility_type": "Primary", "source_class": "Authoritative project health-facility dataset" }, "geometry": { "type": "Point", "coordinates": [ 6.194950000358052, 5.155089999703532 ] } },
{ "type": "Feature", "properties": { "facility_id": "HF_010", "name": null, "facility_type": "Primary", "source_class": "Authoritative project health-facility dataset" }, "geometry": { "type": "Point", "coordinates": [ 6.117756199708021, 5.115302799884113 ] } },
{ "type": "Feature", "properties": { "facility_id": "HF_011", "name": null, "facility_type": "Primary", "source_class": "Authoritative project health-facility dataset" }, "geometry": { "type": "Point", "coordinates": [ 6.02569090033881, 4.970614000135703 ] } },
{ "type": "Feature", "properties": { "facility_id": "HF_012", "name": null, "facility_type": "Primary", "source_class": "Authoritative project health-facility dataset" }, "geometry": { "type": "Point", "coordinates": [ 5.988766700349144, 5.011100000164508 ] } },
{ "type": "Feature", "properties": { "facility_id": "HF_013", "name": null, "facility_type": "Primary", "source_class": "Authoritative project health-facility dataset" }, "geometry": { "type": "Point", "coordinates": [ 6.185638300283506, 5.147168299876971 ] } },
{ "type": "Feature", "properties": { "facility_id": "HF_014", "name": null, "facility_type": "Primary", "source_class": "Authoritative project health-facility dataset" }, "geometry": { "type": "Point", "coordinates": [ 6.30206309974423, 5.263506199651246 ] } },
{ "type": "Feature", "properties": { "facility_id": "HF_015", "name": null, "facility_type": "Primary", "source_class": "Authoritative project health-facility dataset" }, "geometry": { "type": "Point", "coordinates": [ 6.127023332979204, 5.068858332645681 ] } },
{ "type": "Feature", "properties": { "facility_id": "HF_016", "name": null, "facility_type": "Primary", "source_class": "Authoritative project health-facility dataset" }, "geometry": { "type": "Point", "coordinates": [ 5.999070000106146, 4.884108333032777 ] } },
{ "type": "Feature", "properties": { "facility_id": "HF_017", "name": null, "facility_type": "Primary", "source_class": "Authoritative project health-facility dataset" }, "geometry": { "type": "Point", "coordinates": [ 6.04872000005083, 4.868386667410521 ] } },
{ "type": "Feature", "properties": { "facility_id": "HF_018", "name": null, "facility_type": "Primary", "source_class": "Authoritative project health-facility dataset" }, "geometry": { "type": "Point", "coordinates": [ 6.119670000189511, 4.999309999656545 ] } },
{ "type": "Feature", "properties": { "facility_id": "HF_019", "name": null, "facility_type": "Primary", "source_class": "Authoritative project health-facility dataset" }, "geometry": { "type": "Point", "coordinates": [ 6.469060000126571, 5.315680000331694 ] } },
{ "type": "Feature", "properties": { "facility_id": "HF_020", "name": null, "facility_type": "Primary", "source_class": "Authoritative project health-facility dataset" }, "geometry": { "type": "Point", "coordinates": [ 6.308080000403455, 5.263403674240077 ] } },
{ "type": "Feature", "properties": { "facility_id": "HF_021", "name": null, "facility_type": "Primary", "source_class": "Authoritative project health-facility dataset" }, "geometry": { "type": "Point", "coordinates": [ 6.154479980384343, 5.027282714925128 ] } },
{ "type": "Feature", "properties": { "facility_id": "HF_022", "name": null, "facility_type": "Primary", "source_class": "Authoritative project health-facility dataset" }, "geometry": { "type": "Point", "coordinates": [ 6.453125000026687, 5.312683104941295 ] } },
{ "type": "Feature", "properties": { "facility_id": "HF_023", "name": null, "facility_type": "Primary", "source_class": "Authoritative project health-facility dataset" }, "geometry": { "type": "Point", "coordinates": [ 6.490943832998687, 5.312097985333732 ] } },
{ "type": "Feature", "properties": { "facility_id": "HF_024", "name": null, "facility_type": "Primary", "source_class": "Authoritative project health-facility dataset" }, "geometry": { "type": "Point", "coordinates": [ 6.382690430128905, 5.24432372965636 ] } },
{ "type": "Feature", "properties": { "facility_id": "HF_025", "name": null, "facility_type": "Primary", "source_class": "Authoritative project health-facility dataset" }, "geometry": { "type": "Point", "coordinates": [ 6.368530272664028, 5.24267578136215 ] } },
{ "type": "Feature", "properties": { "facility_id": "HF_026", "name": null, "facility_type": "Primary", "source_class": "Authoritative project health-facility dataset" }, "geometry": { "type": "Point", "coordinates": [ 6.364600833371918, 5.24088196662934 ] } },
{ "type": "Feature", "properties": { "facility_id": "HF_027", "name": null, "facility_type": "Primary", "source_class": "Authoritative project health-facility dataset" }, "geometry": { "type": "Point", "coordinates": [ 6.12487793009125, 5.064086913879726 ] } },
{ "type": "Feature", "properties": { "facility_id": "HF_028", "name": null, "facility_type": "Primary", "source_class": "Authoritative project health-facility dataset" }, "geometry": { "type": "Point", "coordinates": [ 6.51593017584365, 5.351074218800134 ] } },
{ "type": "Feature", "properties": { "facility_id": "HF_029", "name": null, "facility_type": "Secondary", "source_class": "Authoritative project health-facility dataset" }, "geometry": { "type": "Point", "coordinates": [ 6.37847900391268, 5.245300292674295 ] } },
{ "type": "Feature", "properties": { "facility_id": "HF_030", "name": null, "facility_type": "Primary", "source_class": "Authoritative project health-facility dataset" }, "geometry": { "type": "Point", "coordinates": [ 6.023760000148212, 4.823300000194517 ] } },
{ "type": "Feature", "properties": { "facility_id": "HF_031", "name": null, "facility_type": "Primary", "source_class": "Authoritative project health-facility dataset" }, "geometry": { "type": "Point", "coordinates": [ 6.194420000198665, 5.156660000158697 ] } },
{ "type": "Feature", "properties": { "facility_id": "HF_032", "name": null, "facility_type": "Primary", "source_class": "Authoritative project health-facility dataset" }, "geometry": { "type": "Point", "coordinates": [ 6.032094162339537, 4.856988834267 ] } },
{ "type": "Feature", "properties": { "facility_id": "HF_033", "name": null, "facility_type": "Primary", "source_class": "Authoritative project health-facility dataset" }, "geometry": { "type": "Point", "coordinates": [ 6.088028333361543, 5.047125000418196 ] } },
{ "type": "Feature", "properties": { "facility_id": "HF_034", "name": null, "facility_type": "Primary", "source_class": "Authoritative project health-facility dataset" }, "geometry": { "type": "Point", "coordinates": [ 6.167862697322541, 5.126392604434937 ] } },
{ "type": "Feature", "properties": { "facility_id": "HF_035", "name": null, "facility_type": "Secondary", "source_class": "Authoritative project health-facility dataset" }, "geometry": { "type": "Point", "coordinates": [ 6.200441605211496, 5.162381514894824 ] } },
{ "type": "Feature", "properties": { "facility_id": "HF_036", "name": null, "facility_type": "Primary", "source_class": "Authoritative project health-facility dataset" }, "geometry": { "type": "Point", "coordinates": [ 6.085860000459445, 5.040909999796422 ] } },
{ "type": "Feature", "properties": { "facility_id": "HF_037", "name": null, "facility_type": "Primary", "source_class": "Authoritative project health-facility dataset" }, "geometry": { "type": "Point", "coordinates": [ 5.989959999980111, 5.010019999822765 ] } },
{ "type": "Feature", "properties": { "facility_id": "HF_038", "name": null, "facility_type": "Primary", "source_class": "Authoritative project health-facility dataset" }, "geometry": { "type": "Point", "coordinates": [ 6.039580000340086, 4.874900000134638 ] } },
{ "type": "Feature", "properties": { "facility_id": "HF_039", "name": null, "facility_type": "Primary", "source_class": "Authoritative project health-facility dataset" }, "geometry": { "type": "Point", "coordinates": [ 6.12053999984014, 5.110489999713506 ] } },
{ "type": "Feature", "properties": { "facility_id": "HF_040", "name": null, "facility_type": "Primary", "source_class": "Authoritative project health-facility dataset" }, "geometry": { "type": "Point", "coordinates": [ 6.209209999656967, 5.195829999754486 ] } },
{ "type": "Feature", "properties": { "facility_id": "HF_041", "name": null, "facility_type": "Primary", "source_class": "Authoritative project health-facility dataset" }, "geometry": { "type": "Point", "coordinates": [ 6.44124633535835, 5.30817436015854 ] } },
{ "type": "Feature", "properties": { "facility_id": "HF_042", "name": null, "facility_type": "Primary", "source_class": "Authoritative project health-facility dataset" }, "geometry": { "type": "Point", "coordinates": [ 6.103974371739625, 5.140704372308659 ] } },
{ "type": "Feature", "properties": { "facility_id": "HF_043", "name": null, "facility_type": "Primary", "source_class": "Authoritative project health-facility dataset" }, "geometry": { "type": "Point", "coordinates": [ 6.066488966913958, 5.104582606801569 ] } },
{ "type": "Feature", "properties": { "facility_id": "HF_044", "name": null, "facility_type": "Primary", "source_class": "Authoritative project health-facility dataset" }, "geometry": { "type": "Point", "coordinates": [ 6.057661948362578, 4.928152159893968 ] } }
]
}
