{
"type": "FeatureCollection",
"name": "police_context",
"crs": { "type": "name", "properties": { "name": "urn:ogc:def:crs:OGC:1.3:CRS84" } },
"features": [
{ "type": "Feature", "properties": { "police_id": "n7956225495", "name": "Divisional Police Headquarters, Sagbama", "source_class": "OSM contextual police location", "authority_status": "Not authoritative operational security database", "interpretation_note": "For contextual demonstration only. Must not be treated as complete police coverage." }, "geometry": { "type": "Point", "coordinates": [ 6.2092179, 5.1629184 ] } },
{ "type": "Feature", "properties": { "police_id": "n7956225896", "name": "Area Command Sagbama, Nigeria Police", "source_class": "OSM contextual police location", "authority_status": "Not authoritative operational security database", "interpretation_note": "For contextual demonstration only. Must not be treated as complete police coverage." }, "geometry": { "type": "Point", "coordinates": [ 6.2078282, 5.1638691 ] } }
]
}
