{
"type": "FeatureCollection",
"name": "schools",
"crs": { "type": "name", "properties": { "name": "urn:ogc:def:crs:OGC:1.3:CRS84" } },
"features": [
{ "type": "Feature", "properties": { "school_id": "SCH_001", "name": "Community Primary School Anyama Ebeni", "school_type": null, "source_class": "Authoritative project school dataset" }, "geometry": { "type": "Point", "coordinates": [ 6.026138000068669, 4.970074000414854 ] } },
{ "type": "Feature", "properties": { "school_id": "SCH_002", "name": "Community Primary School Tungbabiri", "school_type": null, "source_class": "Authoritative project school dataset" }, "geometry": { "type": "Point", "coordinates": [ 6.18485820044566, 5.148261835015717 ] } },
{ "type": "Feature", "properties": { "school_id": "SCH_003", "name": "Community Primary School Ii", "school_type": null, "source_class": "Authoritative project school dataset" }, "geometry": { "type": "Point", "coordinates": [ 6.168291706297282, 5.126573037215962 ] } },
{ "type": "Feature", "properties": { "school_id": "SCH_004", "name": "Faith Foundation Nursery Primary School Tungbo Tungbo", "school_type": null, "source_class": "Authoritative project school dataset" }, "geometry": { "type": "Point", "coordinates": [ 6.169119999888154, 5.124000000399747 ] } },
{ "type": "Feature", "properties": { "school_id": "SCH_005", "name": "Community Primary School Ekperiwari", "school_type": null, "source_class": "Authoritative project school dataset" }, "geometry": { "type": "Point", "coordinates": [ 6.490023000061456, 5.311610999747868 ] } },
{ "type": "Feature", "properties": { "school_id": "SCH_006", "name": "Community Primary School II Ofoni", "school_type": null, "source_class": "Authoritative project school dataset" }, "geometry": { "type": "Point", "coordinates": [ 5.973074000065083, 5.117780999593492 ] } },
{ "type": "Feature", "properties": { "school_id": "SCH_007", "name": "Community Primary School III Ofoni", "school_type": null, "source_class": "Authoritative project school dataset" }, "geometry": { "type": "Point", "coordinates": [ 5.983047999565599, 5.117665999686211 ] } },
{ "type": "Feature", "properties": { "school_id": "SCH_008", "name": "Community Primary School I Ofoni", "school_type": null, "source_class": "Authoritative project school dataset" }, "geometry": { "type": "Point", "coordinates": [ 5.976360999660471, 5.124082999730718 ] } },
{ "type": "Feature", "properties": { "school_id": "SCH_009", "name": "Community Primary School IV Ofoni", "school_type": null, "source_class": "Authoritative project school dataset" }, "geometry": { "type": "Point", "coordinates": [ 5.970983999911709, 5.122139000014896 ] } },
{ "type": "Feature", "properties": { "school_id": "SCH_010", "name": "Community Primary School I Akeddei", "school_type": null, "source_class": "Authoritative project school dataset" }, "geometry": { "type": "Point", "coordinates": [ 6.059204999711029, 4.922529999559857 ] } },
{ "type": "Feature", "properties": { "school_id": "SCH_011", "name": "Community Primary School II Akeddei", "school_type": null, "source_class": "Authoritative project school dataset" }, "geometry": { "type": "Point", "coordinates": [ 6.05723199955719, 4.927503999609938 ] } },
{ "type": "Feature", "properties": { "school_id": "SCH_012", "name": "Community Primary School Awe Gbene", "school_type": null, "source_class": "Authoritative project school dataset" }, "geometry": { "type": "Point", "coordinates": [ 6.002059000322674, 4.846553999667377 ] } },
{ "type": "Feature", "properties": { "school_id": "SCH_013", "name": "Community Primary School Egbepulouma", "school_type": null, "source_class": "Authoritative project school dataset" }, "geometry": { "type": "Point", "coordinates": [ 6.028264000083595, 4.859168000402917 ] } },
{ "type": "Feature", "properties": { "school_id": "SCH_014", "name": "Community Primary School I Ossiama", "school_type": null, "source_class": "Authoritative project school dataset" }, "geometry": { "type": "Point", "coordinates": [ 6.041636999847696, 4.876557000105491 ] } },
{ "type": "Feature", "properties": { "school_id": "SCH_015", "name": "Community Primary School II Ossiama", "school_type": null, "source_class": "Authoritative project school dataset" }, "geometry": { "type": "Point", "coordinates": [ 6.04019499989937, 4.875037000157477 ] } },
{ "type": "Feature", "properties": { "school_id": "SCH_016", "name": "Community Primary School Isoni", "school_type": null, "source_class": "Authoritative project school dataset" }, "geometry": { "type": "Point", "coordinates": [ 6.002757000135489, 4.88426999966083 ] } },
{ "type": "Feature", "properties": { "school_id": "SCH_017", "name": "Community Primary School Ogbonugbene", "school_type": null, "source_class": "Authoritative project school dataset" }, "geometry": { "type": "Point", "coordinates": [ 6.021087000065052, 4.821952000084764 ] } },
{ "type": "Feature", "properties": { "school_id": "SCH_018", "name": "Community Primary School", "school_type": null, "source_class": "Authoritative project school dataset" }, "geometry": { "type": "Point", "coordinates": [ 6.079747000024099, 5.141741000147078 ] } },
{ "type": "Feature", "properties": { "school_id": "SCH_019", "name": "Community Primary School II Ebedebiri", "school_type": null, "source_class": "Authoritative project school dataset" }, "geometry": { "type": "Point", "coordinates": [ 6.079584999747966, 5.141866999662341 ] } },
{ "type": "Feature", "properties": { "school_id": "SCH_020", "name": "Community Primary School Toru Angiama", "school_type": null, "source_class": "Authoritative project school dataset" }, "geometry": { "type": "Point", "coordinates": [ 6.107253999572493, 5.13875299995101 ] } },
{ "type": "Feature", "properties": { "school_id": "SCH_021", "name": "Community Primary School Agoro", "school_type": null, "source_class": "Authoritative project school dataset" }, "geometry": { "type": "Point", "coordinates": [ 6.126577000328324, 5.06569599977064 ] } },
{ "type": "Feature", "properties": { "school_id": "SCH_022", "name": "Community Primary School I Agoro Gbene", "school_type": null, "source_class": "Authoritative project school dataset" }, "geometry": { "type": "Point", "coordinates": [ 6.15397700033833, 5.026792999897055 ] } },
{ "type": "Feature", "properties": { "school_id": "SCH_023", "name": "Community Primary School I Ogobiri", "school_type": null, "source_class": "Authoritative project school dataset" }, "geometry": { "type": "Point", "coordinates": [ 6.11900900026518, 4.998270000260334 ] } },
{ "type": "Feature", "properties": { "school_id": "SCH_024", "name": "Community Primary School II Ogobiri", "school_type": null, "source_class": "Authoritative project school dataset" }, "geometry": { "type": "Point", "coordinates": [ 6.119523999732849, 4.998404000144546 ] } },
{ "type": "Feature", "properties": { "school_id": "SCH_025", "name": "Community Primary School Adagbabiri", "school_type": null, "source_class": "Authoritative project school dataset" }, "geometry": { "type": "Point", "coordinates": [ 6.207157000295354, 5.20156399977884 ] } },
{ "type": "Feature", "properties": { "school_id": "SCH_026", "name": "Community Primary School I Bolou Orua", "school_type": null, "source_class": "Authoritative project school dataset" }, "geometry": { "type": "Point", "coordinates": [ 6.167047999665499, 5.122375000106218 ] } },
{ "type": "Feature", "properties": { "school_id": "SCH_027", "name": "Community Primary School I Tungbo", "school_type": null, "source_class": "Authoritative project school dataset" }, "geometry": { "type": "Point", "coordinates": [ 6.16718000035678, 5.120837000227425 ] } },
{ "type": "Feature", "properties": { "school_id": "SCH_028", "name": "Community Primary School New Patani", "school_type": null, "source_class": "Authoritative project school dataset" }, "geometry": { "type": "Point", "coordinates": [ 6.219137999718953, 5.231827999662528 ] } },
{ "type": "Feature", "properties": { "school_id": "SCH_029", "name": "Community Primary School I Sagbama", "school_type": null, "source_class": "Authoritative project school dataset" }, "geometry": { "type": "Point", "coordinates": [ 6.196265999876062, 5.153169000149261 ] } },
{ "type": "Feature", "properties": { "school_id": "SCH_030", "name": "Community Primary School II Sagbama", "school_type": null, "source_class": "Authoritative project school dataset" }, "geometry": { "type": "Point", "coordinates": [ 6.204410999568041, 5.159827999662525 ] } },
{ "type": "Feature", "properties": { "school_id": "SCH_031", "name": "Community Primary School III Sagbama", "school_type": null, "source_class": "Authoritative project school dataset" }, "geometry": { "type": "Point", "coordinates": [ 6.19206200026116, 5.155462999817643 ] } },
{ "type": "Feature", "properties": { "school_id": "SCH_032", "name": "Community Primary School I Odoni", "school_type": null, "source_class": "Authoritative project school dataset" }, "geometry": { "type": "Point", "coordinates": [ 6.368396000275255, 5.243837000377311 ] } },
{ "type": "Feature", "properties": { "school_id": "SCH_033", "name": "Migrant Fishermen Children Primary School Aduku", "school_type": null, "source_class": "Authoritative project school dataset" }, "geometry": { "type": "Point", "coordinates": [ 6.308310000206404, 5.263301999587667 ] } },
{ "type": "Feature", "properties": { "school_id": "SCH_034", "name": "Community Primary School Igule Ogbokiri", "school_type": null, "source_class": "Authoritative project school dataset" }, "geometry": { "type": "Point", "coordinates": [ 6.410093000391726, 5.284954999873379 ] } },
{ "type": "Feature", "properties": { "school_id": "SCH_035", "name": "Community Primary School II Trofani", "school_type": null, "source_class": "Authoritative project school dataset" }, "geometry": { "type": "Point", "coordinates": [ 6.330274000444831, 5.298723999912739 ] } },
{ "type": "Feature", "properties": { "school_id": "SCH_036", "name": "Community Primary School I Aboetor", "school_type": null, "source_class": "Authoritative project school dataset" }, "geometry": { "type": "Point", "coordinates": [ 6.425306999618386, 5.300131000045667 ] } },
{ "type": "Feature", "properties": { "school_id": "SCH_037", "name": "Community Primary School Osekwenlke", "school_type": null, "source_class": "Authoritative project school dataset" }, "geometry": { "type": "Point", "coordinates": [ 6.454465999806075, 5.314059000222755 ] } },
{ "type": "Feature", "properties": { "school_id": "SCH_038", "name": "Osifo Community Primary School I", "school_type": null, "source_class": "Authoritative project school dataset" }, "geometry": { "type": "Point", "coordinates": [ 6.438797000281398, 5.30786599971617 ] } },
{ "type": "Feature", "properties": { "school_id": "SCH_039", "name": "Community Primary School", "school_type": null, "source_class": "Authoritative project school dataset" }, "geometry": { "type": "Point", "coordinates": [ 6.469406999933143, 5.314152000014814 ] } },
{ "type": "Feature", "properties": { "school_id": "SCH_040", "name": "Community Primary School Elemebiri", "school_type": null, "source_class": "Authoritative project school dataset" }, "geometry": { "type": "Point", "coordinates": [ 6.516501999867444, 5.354735000020298 ] } },
{ "type": "Feature", "properties": { "school_id": "SCH_041", "name": "Community Primary School Bulou Orua", "school_type": null, "source_class": "Authoritative project school dataset" }, "geometry": { "type": "Point", "coordinates": [ 6.119852999616284, 5.107164000118587 ] } },
{ "type": "Feature", "properties": { "school_id": "SCH_042", "name": "Community Primary School I Angalabiri", "school_type": null, "source_class": "Authoritative project school dataset" }, "geometry": { "type": "Point", "coordinates": [ 6.037819000046852, 5.091584000201522 ] } },
{ "type": "Feature", "properties": { "school_id": "SCH_043", "name": "Community Primary School I Kabeama", "school_type": null, "source_class": "Authoritative project school dataset" }, "geometry": { "type": "Point", "coordinates": [ 6.086546999744314, 5.043694999624562 ] } },
{ "type": "Feature", "properties": { "school_id": "SCH_044", "name": "Community Primary School II Angalabiri", "school_type": null, "source_class": "Authoritative project school dataset" }, "geometry": { "type": "Point", "coordinates": [ 6.038092000045822, 5.091787999716472 ] } },
{ "type": "Feature", "properties": { "school_id": "SCH_045", "name": "Community Primary School II Bolou Orua", "school_type": null, "source_class": "Authoritative project school dataset" }, "geometry": { "type": "Point", "coordinates": [ 6.119494000148053, 5.106286000098861 ] } },
{ "type": "Feature", "properties": { "school_id": "SCH_046", "name": "Community Primary School I Agbere", "school_type": null, "source_class": "Authoritative project school dataset" }, "geometry": { "type": "Point", "coordinates": [ 6.384649999797717, 5.244475000121213 ] } },
{ "type": "Feature", "properties": { "school_id": "SCH_047", "name": "Community Primary School Toru Orua", "school_type": null, "source_class": "Authoritative project school dataset" }, "geometry": { "type": "Point", "coordinates": [ 6.064339999991035, 5.10132000041773 ] } },
{ "type": "Feature", "properties": { "school_id": "SCH_048", "name": "Okugbe Primary School Ikpide", "school_type": null, "source_class": "Authoritative project school dataset" }, "geometry": { "type": "Point", "coordinates": [ 6.388232999553338, 5.302243000314262 ] } },
{ "type": "Feature", "properties": { "school_id": "SCH_049", "name": "United Nursery and Primary School Ofoni", "school_type": null, "source_class": "Authoritative project school dataset" }, "geometry": { "type": "Point", "coordinates": [ 5.974984000011659, 5.127783000385191 ] } },
{ "type": "Feature", "properties": { "school_id": "SCH_050", "name": "Holy Family Catholic Nursery and Primary School", "school_type": null, "source_class": "Authoritative project school dataset" }, "geometry": { "type": "Point", "coordinates": [ 6.080850999673943, 5.140800999966244 ] } },
{ "type": "Feature", "properties": { "school_id": "SCH_051", "name": "Faith Foundation Nursery and Primary School Tungbo", "school_type": null, "source_class": "Authoritative project school dataset" }, "geometry": { "type": "Point", "coordinates": [ 6.168606999613417, 5.12611299981512 ] } },
{ "type": "Feature", "properties": { "school_id": "SCH_052", "name": "Agua Memoral Nursery and Primary School", "school_type": null, "source_class": "Authoritative project school dataset" }, "geometry": { "type": "Point", "coordinates": [ 6.205077999749959, 5.16571699963987 ] } },
{ "type": "Feature", "properties": { "school_id": "SCH_053", "name": "Foundation Academy Primary School", "school_type": null, "source_class": "Authoritative project school dataset" }, "geometry": { "type": "Point", "coordinates": [ 6.193236000441119, 5.153978999731122 ] } },
{ "type": "Feature", "properties": { "school_id": "SCH_054", "name": "Sandbank Mile IV Primary School", "school_type": null, "source_class": "Authoritative project school dataset" }, "geometry": { "type": "Point", "coordinates": [ 6.190286000198796, 5.150509999836684 ] } },
{ "type": "Feature", "properties": { "school_id": "SCH_055", "name": "Sprout Nursery and Primary School Sagbama", "school_type": null, "source_class": "Authoritative project school dataset" }, "geometry": { "type": "Point", "coordinates": [ 6.202834999735501, 5.16339300038669 ] } },
{ "type": "Feature", "properties": { "school_id": "SCH_056", "name": "Bright Future Nursery and Primary School", "school_type": null, "source_class": "Authoritative project school dataset" }, "geometry": { "type": "Point", "coordinates": [ 6.384315999683679, 5.245066000395639 ] } },
{ "type": "Feature", "properties": { "school_id": "SCH_057", "name": "Ideal Nursery and Primary School I", "school_type": null, "source_class": "Authoritative project school dataset" }, "geometry": { "type": "Point", "coordinates": [ 6.386566000020935, 5.244870000350262 ] } },
{ "type": "Feature", "properties": { "school_id": "SCH_058", "name": "Brainfield Academy Nursery and Primary School", "school_type": null, "source_class": "Authoritative project school dataset" }, "geometry": { "type": "Point", "coordinates": [ 6.121374999656552, 5.102262999837649 ] } },
{ "type": "Feature", "properties": { "school_id": "SCH_059", "name": "Funebi Nursery and Primary School Bolou Orua", "school_type": null, "source_class": "Authoritative project school dataset" }, "geometry": { "type": "Point", "coordinates": [ 6.121356999725833, 5.107097999772919 ] } },
{ "type": "Feature", "properties": { "school_id": "SCH_060", "name": "Divine Liberty Nursery and Primary School", "school_type": null, "source_class": "Authoritative project school dataset" }, "geometry": { "type": "Point", "coordinates": [ 6.195072999719231, 5.158123000176373 ] } },
{ "type": "Feature", "properties": { "school_id": "SCH_061", "name": "Orie Primary School Adobu", "school_type": null, "source_class": "Authoritative project school dataset" }, "geometry": { "type": "Point", "coordinates": [ 6.003711000062652, 5.114783999881751 ] } },
{ "type": "Feature", "properties": { "school_id": "SCH_062", "name": "Akadeinowei Primary School 11", "school_type": null, "source_class": "Authoritative project school dataset" }, "geometry": { "type": "Point", "coordinates": [ 6.113928999823543, 5.142341999983387 ] } },
{ "type": "Feature", "properties": { "school_id": "SCH_063", "name": "Akendein Owei Primary School Toru Angiama", "school_type": null, "source_class": "Authoritative project school dataset" }, "geometry": { "type": "Point", "coordinates": [ 6.102774999866426, 5.149979999677271 ] } },
{ "type": "Feature", "properties": { "school_id": "SCH_064", "name": "Apelebiri Primary School", "school_type": null, "source_class": "Authoritative project school dataset" }, "geometry": { "type": "Point", "coordinates": [ 6.146858000296504, 5.14422200034511 ] } },
{ "type": "Feature", "properties": { "school_id": "SCH_065", "name": "Community Primary School Eriama", "school_type": null, "source_class": "Authoritative project school dataset" }, "geometry": { "type": "Point", "coordinates": [ 5.99108000034181, 5.010342000283117 ] } },
{ "type": "Feature", "properties": { "school_id": "SCH_066", "name": "Community Primary School II Kabeama", "school_type": null, "source_class": "Authoritative project school dataset" }, "geometry": { "type": "Point", "coordinates": [ 6.086263000137422, 5.039365999641234 ] } },
{ "type": "Feature", "properties": { "school_id": "SCH_067", "name": "Bomabebe Primary School Aruke III", "school_type": null, "source_class": "Authoritative project school dataset" }, "geometry": { "type": "Point", "coordinates": [ 6.289350000002571, 5.239970000115476 ] } },
{ "type": "Feature", "properties": { "school_id": "SCH_068", "name": "Community Primary School 1", "school_type": null, "source_class": "Authoritative project school dataset" }, "geometry": { "type": "Point", "coordinates": [ 6.454072353956008, 5.315402504621942 ] } },
{ "type": "Feature", "properties": { "school_id": "SCH_069", "name": "Community Primary School 1", "school_type": null, "source_class": "Authoritative project school dataset" }, "geometry": { "type": "Point", "coordinates": [ 6.087251621265353, 5.144429760824834 ] } },
{ "type": "Feature", "properties": { "school_id": "SCH_070", "name": "Community Primary School 1 Sagbama", "school_type": null, "source_class": "Authoritative project school dataset" }, "geometry": { "type": "Point", "coordinates": [ 6.205689928147706, 5.168357167249495 ] } },
{ "type": "Feature", "properties": { "school_id": "SCH_071", "name": "Community Primary School", "school_type": null, "source_class": "Authoritative project school dataset" }, "geometry": { "type": "Point", "coordinates": [ 5.976637542988273, 5.124897997744426 ] } },
{ "type": "Feature", "properties": { "school_id": "SCH_072", "name": "Community Primary School 3", "school_type": null, "source_class": "Authoritative project school dataset" }, "geometry": { "type": "Point", "coordinates": [ 6.205689928147706, 5.168357167249495 ] } },
{ "type": "Feature", "properties": { "school_id": "SCH_073", "name": "Community Primary School", "school_type": null, "source_class": "Authoritative project school dataset" }, "geometry": { "type": "Point", "coordinates": [ 6.207028748877689, 5.202037667304524 ] } },
{ "type": "Feature", "properties": { "school_id": "SCH_074", "name": "Community Primary School", "school_type": null, "source_class": "Authoritative project school dataset" }, "geometry": { "type": "Point", "coordinates": [ 6.041373293442803, 5.093510869630962 ] } },
{ "type": "Feature", "properties": { "school_id": "SCH_075", "name": "Community Primary School Tungbabiri", "school_type": null, "source_class": "Authoritative project school dataset" }, "geometry": { "type": "Point", "coordinates": [ 6.192336493134689, 5.156667855736997 ] } },
{ "type": "Feature", "properties": { "school_id": "SCH_076", "name": "Community Primary School 2", "school_type": null, "source_class": "Authoritative project school dataset" }, "geometry": { "type": "Point", "coordinates": [ 6.16702750141809, 5.126882785312318 ] } },
{ "type": "Feature", "properties": { "school_id": "SCH_077", "name": "Community Primary School", "school_type": null, "source_class": "Authoritative project school dataset" }, "geometry": { "type": "Point", "coordinates": [ 6.005484330037859, 4.846183655251537 ] } },
{ "type": "Feature", "properties": { "school_id": "SCH_078", "name": "Community Primary School 1", "school_type": null, "source_class": "Authoritative project school dataset" }, "geometry": { "type": "Point", "coordinates": [ 6.0873645293496, 5.044107433211536 ] } },
{ "type": "Feature", "properties": { "school_id": "SCH_079", "name": "Community Primary School 1", "school_type": null, "source_class": "Authoritative project school dataset" }, "geometry": { "type": "Point", "coordinates": [ 6.384908160982889, 5.245026084885978 ] } },
{ "type": "Feature", "properties": { "school_id": "SCH_080", "name": "Community Primary School 1 Angalabiri", "school_type": null, "source_class": "Authoritative project school dataset" }, "geometry": { "type": "Point", "coordinates": [ 6.03852614326695, 5.092344188133836 ] } },
{ "type": "Feature", "properties": { "school_id": "SCH_081", "name": "Community Primary School 1", "school_type": null, "source_class": "Authoritative project school dataset" }, "geometry": { "type": "Point", "coordinates": [ 6.039730530639532, 4.875307641234713 ] } },
{ "type": "Feature", "properties": { "school_id": "SCH_082", "name": "Community Primary School Odoni", "school_type": null, "source_class": "Authoritative project school dataset" }, "geometry": { "type": "Point", "coordinates": [ 6.371373000863343, 5.246282316375868 ] } },
{ "type": "Feature", "properties": { "school_id": "SCH_083", "name": "Community Primary School", "school_type": null, "source_class": "Authoritative project school dataset" }, "geometry": { "type": "Point", "coordinates": [ 6.118852278110182, 4.999704928839435 ] } },
{ "type": "Feature", "properties": { "school_id": "SCH_084", "name": "Community Primary School 1", "school_type": null, "source_class": "Authoritative project school dataset" }, "geometry": { "type": "Point", "coordinates": [ 6.152892597815197, 5.026751102281593 ] } },
{ "type": "Feature", "properties": { "school_id": "SCH_085", "name": "Community Primary School 2", "school_type": null, "source_class": "Authoritative project school dataset" }, "geometry": { "type": "Point", "coordinates": [ 6.039730530639532, 4.875307641234713 ] } },
{ "type": "Feature", "properties": { "school_id": "SCH_086", "name": "Community Primary School 2", "school_type": null, "source_class": "Authoritative project school dataset" }, "geometry": { "type": "Point", "coordinates": [ 6.059895625982393, 4.929468432821977 ] } },
{ "type": "Feature", "properties": { "school_id": "SCH_087", "name": "Community Primary School 2", "school_type": null, "source_class": "Authoritative project school dataset" }, "geometry": { "type": "Point", "coordinates": [ 6.454072353956008, 5.315402504621942 ] } },
{ "type": "Feature", "properties": { "school_id": "SCH_088", "name": "Community Primary School 2", "school_type": null, "source_class": "Authoritative project school dataset" }, "geometry": { "type": "Point", "coordinates": [ 6.384908160982889, 5.245026084885978 ] } },
{ "type": "Feature", "properties": { "school_id": "SCH_089", "name": "Community Primary School 2", "school_type": null, "source_class": "Authoritative project school dataset" }, "geometry": { "type": "Point", "coordinates": [ 6.515846192647699, 5.355379343581887 ] } },
{ "type": "Feature", "properties": { "school_id": "SCH_090", "name": "Community Primary School 2", "school_type": null, "source_class": "Authoritative project school dataset" }, "geometry": { "type": "Point", "coordinates": [ 6.118852278110182, 4.999704928839435 ] } },
{ "type": "Feature", "properties": { "school_id": "SCH_091", "name": "Community Primary School Abuetor", "school_type": null, "source_class": "Authoritative project school dataset" }, "geometry": { "type": "Point", "coordinates": [ 6.424421249241334, 5.30175356137778 ] } },
{ "type": "Feature", "properties": { "school_id": "SCH_092", "name": "Community Primary School Eriama", "school_type": null, "source_class": "Authoritative project school dataset" }, "geometry": { "type": "Point", "coordinates": [ 6.031045254235154, 5.006754091128471 ] } },
{ "type": "Feature", "properties": { "school_id": "SCH_093", "name": "Community Primary School Osifo", "school_type": null, "source_class": "Authoritative project school dataset" }, "geometry": { "type": "Point", "coordinates": [ 6.433856243670732, 5.308991369955833 ] } },
{ "type": "Feature", "properties": { "school_id": "SCH_094", "name": "Community Primary School 2 Agorogbene", "school_type": null, "source_class": "Authoritative project school dataset" }, "geometry": { "type": "Point", "coordinates": [ 6.152892597815197, 5.026751102281593 ] } },
{ "type": "Feature", "properties": { "school_id": "SCH_095", "name": "Community Primary School Eqbologbene", "school_type": null, "source_class": "Authoritative project school dataset" }, "geometry": { "type": "Point", "coordinates": [ 6.030208525902822, 4.857731996234691 ] } },
{ "type": "Feature", "properties": { "school_id": "SCH_096", "name": "Issac Jasper Boro College Of Education Sagbama", "school_type": null, "source_class": "Authoritative project school dataset" }, "geometry": { "type": "Point", "coordinates": [ 6.193891393073386, 5.151307605861347 ] } },
{ "type": "Feature", "properties": { "school_id": "SCH_097", "name": "Community Modern Secondary School Sagbama", "school_type": null, "source_class": "Authoritative project school dataset" }, "geometry": { "type": "Point", "coordinates": [ 6.205960241871709, 5.16783045231358 ] } },
{ "type": "Feature", "properties": { "school_id": "SCH_098", "name": "Government Comprehensive Secondary School Tongbo", "school_type": null, "source_class": "Authoritative project school dataset" }, "geometry": { "type": "Point", "coordinates": [ 6.166530593612038, 5.12063889037256 ] } },
{ "type": "Feature", "properties": { "school_id": "SCH_099", "name": "Okugbe Secondary School Osifo Abuetor Osifo", "school_type": null, "source_class": "Authoritative project school dataset" }, "geometry": { "type": "Point", "coordinates": [ 6.433519999748228, 5.304970000165439 ] } },
{ "type": "Feature", "properties": { "school_id": "SCH_100", "name": "Mein Grammer School Ogobiri", "school_type": null, "source_class": "Authoritative project school dataset" }, "geometry": { "type": "Point", "coordinates": [ 6.114509999636824, 4.997579999917093 ] } },
{ "type": "Feature", "properties": { "school_id": "SCH_101", "name": "Miracle International School Ogobiri", "school_type": null, "source_class": "Authoritative project school dataset" }, "geometry": { "type": "Point", "coordinates": [ 6.122879999812199, 4.999079999842194 ] } },
{ "type": "Feature", "properties": { "school_id": "SCH_102", "name": "Community Secondary School Akedde", "school_type": null, "source_class": "Authoritative project school dataset" }, "geometry": { "type": "Point", "coordinates": [ 6.057941999923401, 4.933567000416757 ] } },
{ "type": "Feature", "properties": { "school_id": "SCH_103", "name": "St Mathew Secondary School", "school_type": null, "source_class": "Authoritative project school dataset" }, "geometry": { "type": "Point", "coordinates": [ 6.026552000274648, 4.970652000089785 ] } },
{ "type": "Feature", "properties": { "school_id": "SCH_104", "name": "Community Comprehensive Secondary School Egbopulama", "school_type": null, "source_class": "Authoritative project school dataset" }, "geometry": { "type": "Point", "coordinates": [ 6.02892399994272, 4.859462999617789 ] } },
{ "type": "Feature", "properties": { "school_id": "SCH_105", "name": "Community Secondary School Isoni", "school_type": null, "source_class": "Authoritative project school dataset" }, "geometry": { "type": "Point", "coordinates": [ 6.003150000272342, 4.884597000351333 ] } },
{ "type": "Feature", "properties": { "school_id": "SCH_106", "name": "Community Secondary School Ossiama", "school_type": null, "source_class": "Authoritative project school dataset" }, "geometry": { "type": "Point", "coordinates": [ 6.035152000264646, 4.876953000380694 ] } },
{ "type": "Feature", "properties": { "school_id": "SCH_107", "name": "Federal Science and Technical College Tungbo", "school_type": null, "source_class": "Authoritative project school dataset" }, "geometry": { "type": "Point", "coordinates": [ 6.17268199957465, 5.131178999611166 ] } },
{ "type": "Feature", "properties": { "school_id": "SCH_108", "name": "Divine Nursery and Primary Academy", "school_type": null, "source_class": "Authoritative project school dataset" }, "geometry": { "type": "Point", "coordinates": [ 6.081158000341475, 5.141398999664147 ] } },
{ "type": "Feature", "properties": { "school_id": "SCH_109", "name": "Migrant Fisherman Children School Bieta Gbene", "school_type": null, "source_class": "Authoritative project school dataset" }, "geometry": { "type": "Point", "coordinates": [ 6.159257000110529, 5.04939299978713 ] } },
{ "type": "Feature", "properties": { "school_id": "SCH_110", "name": "Migrant Fisherman Children School Dagana Ama", "school_type": null, "source_class": "Authoritative project school dataset" }, "geometry": { "type": "Point", "coordinates": [ 6.116394000182993, 5.015474000424832 ] } },
{ "type": "Feature", "properties": { "school_id": "SCH_111", "name": "Migrant Fisherman Children School Puota Gbene", "school_type": null, "source_class": "Authoritative project school dataset" }, "geometry": { "type": "Point", "coordinates": [ 6.157743000439155, 5.041348000210064 ] } },
{ "type": "Feature", "properties": { "school_id": "SCH_112", "name": "Solution Academy", "school_type": null, "source_class": "Authoritative project school dataset" }, "geometry": { "type": "Point", "coordinates": [ 6.19001999962336, 5.150345000321579 ] } },
{ "type": "Feature", "properties": { "school_id": "SCH_113", "name": "Agbere Town School II", "school_type": null, "source_class": "Authoritative project school dataset" }, "geometry": { "type": "Point", "coordinates": [ 6.385020999819347, 5.244145000191679 ] } },
{ "type": "Feature", "properties": { "school_id": "SCH_114", "name": "Fulfillment International School Tungbo", "school_type": null, "source_class": "Authoritative project school dataset" }, "geometry": { "type": "Point", "coordinates": [ 6.171208999995429, 5.126233999999159 ] } },
{ "type": "Feature", "properties": { "school_id": "SCH_115", "name": "Faithville Montessori School", "school_type": null, "source_class": "Authoritative project school dataset" }, "geometry": { "type": "Point", "coordinates": [ 6.203371000171558, 5.162953999927196 ] } },
{ "type": "Feature", "properties": { "school_id": "SCH_116", "name": "Glory Comprehensive School Agbere", "school_type": null, "source_class": "Authoritative project school dataset" }, "geometry": { "type": "Point", "coordinates": [ 6.379459999679285, 5.243690999939758 ] } },
{ "type": "Feature", "properties": { "school_id": "SCH_117", "name": "Alpha Comprehensive Training School", "school_type": null, "source_class": "Authoritative project school dataset" }, "geometry": { "type": "Point", "coordinates": [ 6.19517399988024, 5.15847800035948 ] } },
{ "type": "Feature", "properties": { "school_id": "SCH_118", "name": "True Life Mission School", "school_type": null, "source_class": "Authoritative project school dataset" }, "geometry": { "type": "Point", "coordinates": [ 6.369885999739154, 5.24456499977498 ] } },
{ "type": "Feature", "properties": { "school_id": "SCH_119", "name": "Bright Light Academy", "school_type": null, "source_class": "Authoritative project school dataset" }, "geometry": { "type": "Point", "coordinates": [ 6.121062999657739, 5.109597999947765 ] } },
{ "type": "Feature", "properties": { "school_id": "SCH_120", "name": "Toru Angiama Secondary School", "school_type": null, "source_class": "Authoritative project school dataset" }, "geometry": { "type": "Point", "coordinates": [ 6.111409999671822, 5.145955000223125 ] } },
{ "type": "Feature", "properties": { "school_id": "SCH_121", "name": "St Andrew School", "school_type": null, "source_class": "Authoritative project school dataset" }, "geometry": { "type": "Point", "coordinates": [ 6.025889000277175, 4.80889899978905 ] } },
{ "type": "Feature", "properties": { "school_id": "SCH_122", "name": "Community Second School Ofoni", "school_type": null, "source_class": "Authoritative project school dataset" }, "geometry": { "type": "Point", "coordinates": [ 5.977339644608947, 5.122993121235595 ] } },
{ "type": "Feature", "properties": { "school_id": "SCH_123", "name": "Agoloma Grammar School", "school_type": null, "source_class": "Authoritative project school dataset" }, "geometry": { "type": "Point", "coordinates": [ 6.208603286412597, 5.215338327401923 ] } },
{ "type": "Feature", "properties": { "school_id": "SCH_124", "name": "St Jamestate School 2", "school_type": null, "source_class": "Authoritative project school dataset" }, "geometry": { "type": "Point", "coordinates": [ 6.41524025033732, 5.28580583497137 ] } },
{ "type": "Feature", "properties": { "school_id": "SCH_125", "name": "St Jamestate School", "school_type": null, "source_class": "Authoritative project school dataset" }, "geometry": { "type": "Point", "coordinates": [ 6.41524025033732, 5.28580583497137 ] } },
{ "type": "Feature", "properties": { "school_id": "SCH_126", "name": "Community Secondary School Bulou Wa", "school_type": null, "source_class": "Authoritative project school dataset" }, "geometry": { "type": "Point", "coordinates": [ 6.117238997781556, 5.115905762041336 ] } },
{ "type": "Feature", "properties": { "school_id": "SCH_127", "name": "Gods Favour Academy Ogobiri", "school_type": null, "source_class": "Authoritative project school dataset" }, "geometry": { "type": "Point", "coordinates": [ 6.121489999563893, 4.99967999963235 ] } },
{ "type": "Feature", "properties": { "school_id": "SCH_128", "name": "Basic Junior Secondary School Ofoni", "school_type": null, "source_class": "Authoritative project school dataset" }, "geometry": { "type": "Point", "coordinates": [ 5.983280000371793, 5.117798000377491 ] } },
{ "type": "Feature", "properties": { "school_id": "SCH_129", "name": "Basic Junior Secondary School Ebedebiri", "school_type": null, "source_class": "Authoritative project school dataset" }, "geometry": { "type": "Point", "coordinates": [ 6.085808999885501, 5.143423000371229 ] } },
{ "type": "Feature", "properties": { "school_id": "SCH_130", "name": "Basic Junior Secondary School", "school_type": null, "source_class": "Authoritative project school dataset" }, "geometry": { "type": "Point", "coordinates": [ 6.156640999982187, 5.028033000422681 ] } },
{ "type": "Feature", "properties": { "school_id": "SCH_131", "name": "Basic Junior Secondary School Agoro", "school_type": null, "source_class": "Authoritative project school dataset" }, "geometry": { "type": "Point", "coordinates": [ 6.126663999843743, 5.06587700002359 ] } },
{ "type": "Feature", "properties": { "school_id": "SCH_132", "name": "Basic Junior Secondary School Ogobiri", "school_type": null, "source_class": "Authoritative project school dataset" }, "geometry": { "type": "Point", "coordinates": [ 6.114797000281385, 4.996609000105308 ] } },
{ "type": "Feature", "properties": { "school_id": "SCH_133", "name": "Basic Junior Secondary School Agbere or Odoni", "school_type": null, "source_class": "Authoritative project school dataset" }, "geometry": { "type": "Point", "coordinates": [ 6.375637999693994, 5.244522999636786 ] } },
{ "type": "Feature", "properties": { "school_id": "SCH_134", "name": "Basic Junior Secondary School", "school_type": null, "source_class": "Authoritative project school dataset" }, "geometry": { "type": "Point", "coordinates": [ 6.515834999685524, 5.35502499990389 ] } },
{ "type": "Feature", "properties": { "school_id": "SCH_135", "name": "Basic Junior Secondary School Asamabiri", "school_type": null, "source_class": "Authoritative project school dataset" }, "geometry": { "type": "Point", "coordinates": [ 6.470384000021625, 5.315064999849938 ] } },
{ "type": "Feature", "properties": { "school_id": "SCH_136", "name": "Basic Junior Secondary School Bulou Orua", "school_type": null, "source_class": "Authoritative project school dataset" }, "geometry": { "type": "Point", "coordinates": [ 6.119519000401624, 5.107302000187189 ] } },
{ "type": "Feature", "properties": { "school_id": "SCH_137", "name": "Basic Junior Secondary School Kabeama", "school_type": null, "source_class": "Authoritative project school dataset" }, "geometry": { "type": "Point", "coordinates": [ 6.086276999883693, 5.043314000041107 ] } },
{ "type": "Feature", "properties": { "school_id": "SCH_138", "name": "Community Secondary School Ofoni", "school_type": null, "source_class": "Authoritative project school dataset" }, "geometry": { "type": "Point", "coordinates": [ 5.982247000398788, 5.116682000174193 ] } },
{ "type": "Feature", "properties": { "school_id": "SCH_139", "name": "Community Secondary School Ebedebiri", "school_type": null, "source_class": "Authoritative project school dataset" }, "geometry": { "type": "Point", "coordinates": [ 6.087436000271226, 5.1428219996356 ] } },
{ "type": "Feature", "properties": { "school_id": "SCH_140", "name": "Community Secondary School Agoro", "school_type": null, "source_class": "Authoritative project school dataset" }, "geometry": { "type": "Point", "coordinates": [ 6.124545000151671, 5.062074000015116 ] } },
{ "type": "Feature", "properties": { "school_id": "SCH_141", "name": "Community Secondary School Agorogbene", "school_type": null, "source_class": "Authoritative project school dataset" }, "geometry": { "type": "Point", "coordinates": [ 6.156937000142478, 5.02953100025553 ] } },
{ "type": "Feature", "properties": { "school_id": "SCH_142", "name": "Community Secondary School Adagbabiri", "school_type": null, "source_class": "Authoritative project school dataset" }, "geometry": { "type": "Point", "coordinates": [ 6.208207000152981, 5.194584999897869 ] } },
{ "type": "Feature", "properties": { "school_id": "SCH_143", "name": "River Non Grammar School Agbere and Odoni", "school_type": null, "source_class": "Authoritative project school dataset" }, "geometry": { "type": "Point", "coordinates": [ 6.375809000385119, 5.244727000051058 ] } },
{ "type": "Feature", "properties": { "school_id": "SCH_144", "name": "Community Secondary School", "school_type": null, "source_class": "Authoritative project school dataset" }, "geometry": { "type": "Point", "coordinates": [ 6.517606000416606, 5.355024999903891 ] } },
{ "type": "Feature", "properties": { "school_id": "SCH_145", "name": "Community Secondary School Angalabiri", "school_type": null, "source_class": "Authoritative project school dataset" }, "geometry": { "type": "Point", "coordinates": [ 6.047645999962981, 5.092119999738258 ] } },
{ "type": "Feature", "properties": { "school_id": "SCH_146", "name": "Community Secondary School Kabeama", "school_type": null, "source_class": "Authoritative project school dataset" }, "geometry": { "type": "Point", "coordinates": [ 6.087301000340914, 5.048170000045502 ] } },
{ "type": "Feature", "properties": { "school_id": "SCH_147", "name": "Community Senior Secondary School Bulou Orua", "school_type": null, "source_class": "Authoritative project school dataset" }, "geometry": { "type": "Point", "coordinates": [ 6.118678000289549, 5.102251000183569 ] } },
{ "type": "Feature", "properties": { "school_id": "SCH_148", "name": "Agoloma Secondary School Agoloma", "school_type": null, "source_class": "Authoritative project school dataset" }, "geometry": { "type": "Point", "coordinates": [ 6.177829999554888, 5.170381999829488 ] } },
{ "type": "Feature", "properties": { "school_id": "SCH_149", "name": "Favour International School", "school_type": null, "source_class": "Authoritative project school dataset" }, "geometry": { "type": "Point", "coordinates": [ 6.18664999979768, 5.15041399990622 ] } }
]
}
