{
"type": "FeatureCollection",
"name": "waterways",
"crs": { "type": "name", "properties": { "name": "urn:ogc:def:crs:OGC:1.3:CRS84" } },
"features": [
{ "type": "Feature", "properties": { "waterway_id": "w79961219", "name": "Le Niger", "waterway_type": "river", "intermittent": null, "length_km": 17.033, "source_class": "OSM contextual waterway" }, "geometry": { "type": "LineString", "coordinates": [ [ 6.417057535078047, 5.303740058661727 ], [ 6.4164521, 5.3018331 ], [ 6.4152098, 5.2997434 ], [ 6.4140336, 5.2980645 ], [ 6.4127308, 5.2953267 ], [ 6.4122252, 5.2930038 ], [ 6.4117777, 5.2890519 ], [ 6.411488, 5.2838171 ], [ 6.4109301, 5.2801634 ], [ 6.4089453, 5.2709223 ], [ 6.407572, 5.2653241 ], [ 6.4058446, 5.261275 ], [ 6.4047825, 5.2598541 ], [ 6.4030122, 5.2581554 ], [ 6.3985705, 5.2544269 ], [ 6.3943004, 5.2514568 ], [ 6.3906311, 5.2495551 ], [ 6.3881421, 5.248914 ], [ 6.3839578, 5.2484439 ], [ 6.3730359, 5.2484653 ], [ 6.3566636, 5.2489354 ], [ 6.3536596, 5.2488927 ], [ 6.3506126, 5.2484012 ], [ 6.3477158, 5.2473969 ], [ 6.3424714, 5.243854 ], [ 6.3407004, 5.2421282 ], [ 6.3393473, 5.2404096 ], [ 6.3326369, 5.2292647 ], [ 6.3246488, 5.2108142 ], [ 6.323316518329441, 5.208562993588367 ] ] } },
{ "type": "Feature", "properties": { "waterway_id": "w377958030", "name": null, "waterway_type": "river", "intermittent": null, "length_km": 2.647, "source_class": "OSM contextual waterway" }, "geometry": { "type": "LineString", "coordinates": [ [ 5.9926427, 5.0098934 ], [ 5.9884048, 5.0097331 ], [ 5.9844459, 5.0098613 ], [ 5.9838343, 5.0097331 ], [ 5.9827908, 5.0091473 ], [ 5.9817215, 5.0081804 ], [ 5.9810984, 5.0072481 ], [ 5.9807015, 5.0063717 ], [ 5.9804011, 5.0043143 ], [ 5.9798217, 5.0027646 ], [ 5.9788454, 5.0014606 ], [ 5.9774936, 5.0001246 ], [ 5.975033437178337, 4.998306660474331 ] ] } },
{ "type": "Feature", "properties": { "waterway_id": "w486156900", "name": null, "waterway_type": "river", "intermittent": null, "length_km": 2.266, "source_class": "OSM contextual waterway" }, "geometry": { "type": "MultiLineString", "coordinates": [ [ [ 6.0055024, 4.8885438 ], [ 6.0050245, 4.8884239 ], [ 6.0044936, 4.8880501 ], [ 6.0022356, 4.8850668 ], [ 6.0013366, 4.8847001 ], [ 5.9996308, 4.8849469 ], [ 5.9983637, 4.8847706 ], [ 5.9974152, 4.8845026 ], [ 5.9967145, 4.8841993 ], [ 5.995046831575418, 4.882914294102791 ] ], [ [ 5.995250812411547, 4.880739572016078 ], [ 5.9961623, 4.8811385 ], [ 5.9966649, 4.8811878 ], [ 5.997033, 4.8810115 ], [ 5.9971533, 4.8803838 ], [ 5.9964822, 4.8789783 ], [ 5.9958004, 4.8780105 ], [ 5.9949598, 4.8771915 ], [ 5.993925069934532, 4.876510035220122 ] ] ] } },
{ "type": "Feature", "properties": { "waterway_id": "w486156909", "name": "Apoi Creek", "waterway_type": "river", "intermittent": null, "length_km": 0.663, "source_class": "OSM contextual waterway" }, "geometry": { "type": "LineString", "coordinates": [ [ 5.9891962, 4.8336462 ], [ 5.9879761, 4.8338427 ], [ 5.9868422, 4.8346041 ], [ 5.983549962012318, 4.835318332740188 ] ] } },
{ "type": "Feature", "properties": { "waterway_id": "w655276474", "name": "Le Niger", "waterway_type": "river", "intermittent": null, "length_km": 6.877, "source_class": "OSM contextual waterway" }, "geometry": { "type": "LineString", "coordinates": [ [ 6.505872447914554, 5.345948532042982 ], [ 6.5066231, 5.3432632 ], [ 6.5071546, 5.3393047 ], [ 6.5069703, 5.3357939 ], [ 6.5063583, 5.3315016 ], [ 6.5040937, 5.3282676 ], [ 6.4980312, 5.3208386 ], [ 6.4972219, 5.3199271 ], [ 6.4944217, 5.3172316 ], [ 6.4916503, 5.3161187 ], [ 6.4890435, 5.3156813 ], [ 6.4841793, 5.3156843 ], [ 6.4795589, 5.3163671 ], [ 6.4765277, 5.3175621 ], [ 6.46701827121182, 5.321707864831719 ] ] } },
{ "type": "Feature", "properties": { "waterway_id": "w669705669", "name": "Forcados River", "waterway_type": "river", "intermittent": null, "length_km": 43.453, "source_class": "OSM contextual waterway" }, "geometry": { "type": "MultiLineString", "coordinates": [ [ [ 6.320757186838645, 5.300573689777913 ], [ 6.3166236, 5.294041 ], [ 6.3140058, 5.2916692 ], [ 6.3113349, 5.2900038 ], [ 6.3079755, 5.2887738 ], [ 6.304452261386603, 5.288296270640238 ] ], [ [ 6.288806676197098, 5.254977740905145 ], [ 6.2899732, 5.2533157 ], [ 6.2938571, 5.2458371 ], [ 6.294651, 5.2419481 ], [ 6.2944786, 5.2390952 ], [ 6.293806, 5.2371873 ], [ 6.2927835, 5.2355907 ], [ 6.2912301, 5.2339465 ], [ 6.2896686, 5.2329017 ], [ 6.2862174, 5.2311462 ], [ 6.2816905, 5.22977 ], [ 6.2762634, 5.2285349 ], [ 6.2730705, 5.2281041 ], [ 6.2707692, 5.2279362 ], [ 6.264395, 5.2276845 ], [ 6.261251273240964, 5.227765414684392 ] ], [ [ 6.207374410978517, 5.235976157996638 ], [ 6.207203797972291, 5.235859233955934 ] ], [ [ 6.205729584930473, 5.189767682328805 ], [ 6.206624, 5.1884118 ], [ 6.2079535, 5.1857171 ], [ 6.208847, 5.1823634 ], [ 6.2087732, 5.1789375 ], [ 6.2080849, 5.1770304 ], [ 6.2069473, 5.1750732 ], [ 6.2040649, 5.1707539 ], [ 6.2024252, 5.1691537 ], [ 6.1978277, 5.1635266 ], [ 6.1961775, 5.1619853 ], [ 6.1932538, 5.1602839 ], [ 6.1905203, 5.1591623 ], [ 6.1876333, 5.1586213 ], [ 6.1855553, 5.1585142 ], [ 6.1783513, 5.1602177 ], [ 6.1749276, 5.160592 ], [ 6.1707758, 5.1605746 ], [ 6.1680458, 5.1601491 ], [ 6.165838, 5.1595136 ], [ 6.162514, 5.1576349 ], [ 6.1583083, 5.154237 ], [ 6.1549823, 5.150262 ], [ 6.1482446, 5.1412433 ], [ 6.1455712, 5.1394644 ], [ 6.1432949, 5.1382771 ], [ 6.14175, 5.1372333 ], [ 6.1399406, 5.135511 ], [ 6.1373461, 5.1324509 ], [ 6.1353965, 5.1308549 ], [ 6.1326571, 5.1294502 ], [ 6.1310954, 5.1291142 ], [ 6.1286538, 5.128976 ], [ 6.1257976, 5.1296768 ], [ 6.1221521, 5.1323955 ], [ 6.1048763, 5.1441836 ], [ 6.0983735, 5.1491579 ], [ 6.0968204, 5.1501129 ], [ 6.0953774, 5.1507308 ], [ 6.0920537, 5.1512592 ], [ 6.0900298, 5.1513095 ], [ 6.0861086, 5.1511518 ], [ 6.0833207, 5.150789 ], [ 6.082190698420928, 5.150441591782022 ] ], [ [ 6.065424789136658, 5.120615565452761 ], [ 6.0650682, 5.1168695 ], [ 6.0635715, 5.1070461 ], [ 6.062769, 5.1030001 ], [ 6.0614996, 5.1010316 ], [ 6.0580999, 5.0976377 ], [ 6.0550792, 5.0959698 ], [ 6.0533541, 5.0954205 ], [ 6.0413136, 5.0940135 ], [ 6.0387461, 5.0938399 ], [ 6.0346208, 5.0939368 ], [ 6.0308528, 5.094296 ], [ 6.0262709, 5.0951667 ], [ 6.0221236, 5.0965045 ], [ 6.0210313, 5.0971059 ], [ 6.0173496, 5.1000941 ], [ 6.012718, 5.1044835 ], [ 6.003298, 5.111451 ], [ 5.9952729, 5.1163238 ], [ 5.9918179, 5.1186267 ], [ 5.987409, 5.1220011 ], [ 5.9758709, 5.1329482 ], [ 5.9728254, 5.1369085 ], [ 5.9647917, 5.1487973 ], [ 5.96014, 5.1551312 ], [ 5.959754953669834, 5.155484964421333 ] ] ] } },
{ "type": "Feature", "properties": { "waterway_id": "w669712719", "name": "Sagbama Creek", "waterway_type": "river", "intermittent": null, "length_km": 34.717, "source_class": "OSM contextual waterway" }, "geometry": { "type": "MultiLineString", "coordinates": [ [ [ 6.1855553, 5.1585142 ], [ 6.1832604, 5.1551466 ], [ 6.1822033, 5.1533252 ], [ 6.1817712, 5.1516078 ], [ 6.1816538, 5.1490423 ], [ 6.1814096, 5.1474644 ], [ 6.1808404, 5.1462407 ], [ 6.1802105, 5.1455325 ], [ 6.1791862, 5.1447751 ], [ 6.1781521, 5.1444244 ], [ 6.1773467, 5.1445799 ], [ 6.1766458, 5.1450914 ], [ 6.1749431, 5.1474176 ], [ 6.1739374, 5.1484988 ], [ 6.1727321, 5.1492208 ], [ 6.1714476, 5.1496001 ], [ 6.1703538, 5.1495568 ], [ 6.169065, 5.149184 ], [ 6.166742, 5.1478799 ], [ 6.1645347, 5.146228 ], [ 6.1625826, 5.1440042 ], [ 6.1615874, 5.1416152 ], [ 6.1610515, 5.1390228 ], [ 6.1611281, 5.1361382 ], [ 6.1617915, 5.1331774 ], [ 6.1635012, 5.1293142 ], [ 6.1653385, 5.1261119 ], [ 6.166053, 5.1234051 ], [ 6.165888, 5.1220218 ], [ 6.1655809, 5.1214481 ], [ 6.1646101, 5.1205889 ], [ 6.1635778, 5.1201265 ], [ 6.1593163, 5.1192878 ], [ 6.1537662, 5.1189065 ], [ 6.1484586, 5.1194402 ], [ 6.1429595, 5.120406 ], [ 6.1354574, 5.1206602 ], [ 6.1326612, 5.1206039 ], [ 6.1303156, 5.1203552 ], [ 6.1281381, 5.119747 ], [ 6.12632, 5.1190244 ], [ 6.1242661, 5.1176774 ], [ 6.1228761, 5.1162994 ], [ 6.1218758, 5.1144039 ], [ 6.1214492, 5.1124631 ], [ 6.1216315, 5.1109456 ], [ 6.1248609, 5.0953864 ], [ 6.1275002, 5.0875639 ], [ 6.128895, 5.0830541 ], [ 6.1287233, 5.0785016 ], [ 6.1271784, 5.0730941 ], [ 6.1224791, 5.0650148 ], [ 6.1201617, 5.0606973 ], [ 6.1190953, 5.0592738 ], [ 6.1178981, 5.0581506 ], [ 6.116471, 5.0570743 ], [ 6.1148743, 5.0562303 ], [ 6.1120888, 5.0554048 ], [ 6.1102161, 5.0551934 ], [ 6.1076874, 5.055557 ], [ 6.1021058, 5.05696 ], [ 6.1000129, 5.0571492 ], [ 6.0980794, 5.0570425 ], [ 6.0963155, 5.0566513 ], [ 6.0946485, 5.0559095 ], [ 6.0936083, 5.0550202 ], [ 6.0917517, 5.0530667 ], [ 6.0909678, 5.0517212 ], [ 6.0894343, 5.0475735 ], [ 6.0887355, 5.0444306 ], [ 6.0885409, 5.0420675 ], [ 6.0887047, 5.0388527 ], [ 6.0899064, 5.0351334 ], [ 6.0915157, 5.0325684 ], [ 6.0936321, 5.0300847 ], [ 6.0966012, 5.0281652 ], [ 6.1003133, 5.0270109 ], [ 6.1040041, 5.0269041 ], [ 6.1084243, 5.0270537 ], [ 6.1126944, 5.0258994 ], [ 6.1139842, 5.0250656 ], [ 6.1149312, 5.0240492 ], [ 6.1154617, 5.0230998 ], [ 6.1159282, 5.0216865 ], [ 6.1160047, 5.0202494 ], [ 6.1158945, 5.0189704 ], [ 6.115441, 5.0175631 ], [ 6.1145721, 5.016156 ], [ 6.1137971, 5.0152849 ], [ 6.1124905, 5.0142202 ], [ 6.111128, 5.0134803 ], [ 6.109492, 5.0128962 ], [ 6.1080822, 5.0126856 ], [ 6.1066356, 5.0127108 ], [ 6.1049649, 5.0129809 ], [ 6.1032316, 5.0137368 ], [ 6.100764, 5.0155965 ], [ 6.0965797, 5.0182043 ], [ 6.0926315, 5.0195937 ], [ 6.0827395, 5.0211541 ], [ 6.0765812, 5.0214961 ], [ 6.072284748544839, 5.023363127786251 ] ], [ [ 6.05253391362046, 5.005000564883318 ], [ 6.0526747, 5.0043992 ], [ 6.0533489, 5.0027497 ], [ 6.0545042, 5.0007904 ], [ 6.0563258, 4.9989644 ], [ 6.057913, 4.9980256 ], [ 6.0604879, 4.9974271 ], [ 6.064331636661793, 4.997456781116706 ] ] ] } },
{ "type": "Feature", "properties": { "waterway_id": "w669712720", "name": "Egbedi Creek", "waterway_type": "river", "intermittent": null, "length_km": 15.001, "source_class": "OSM contextual waterway" }, "geometry": { "type": "LineString", "coordinates": [ [ 6.149842748876428, 5.012469550410232 ], [ 6.1486322, 5.0151471 ], [ 6.1488038, 5.0174557 ], [ 6.1498338, 5.020491 ], [ 6.1512286, 5.0220514 ], [ 6.1538464, 5.0241034 ], [ 6.1574084, 5.0265829 ], [ 6.1589962, 5.0280364 ], [ 6.1607129, 5.0311144 ], [ 6.1609918, 5.0325893 ], [ 6.1611205, 5.0352612 ], [ 6.1604554, 5.0373773 ], [ 6.1594468, 5.0390017 ], [ 6.1583525, 5.039643 ], [ 6.1568934, 5.0397712 ], [ 6.1513144, 5.038446 ], [ 6.1455208, 5.0383819 ], [ 6.1403281, 5.0388094 ], [ 6.1353499, 5.0386384 ], [ 6.1333329, 5.0381254 ], [ 6.1301142, 5.0369284 ], [ 6.1280114, 5.0357742 ], [ 6.1251789, 5.0333161 ], [ 6.1245138, 5.0324824 ], [ 6.1240631, 5.0311786 ], [ 6.1237413, 5.0286991 ], [ 6.1242134, 5.0270318 ], [ 6.1243206, 5.0252577 ], [ 6.1248356, 5.0209826 ], [ 6.1254794, 5.0177977 ], [ 6.1264879, 5.0140142 ], [ 6.1268956, 5.011043 ], [ 6.1262518, 5.0076443 ], [ 6.1255652, 5.0059983 ], [ 6.1242777, 5.0042028 ], [ 6.1222392, 5.0022362 ], [ 6.1198145, 5.0007826 ], [ 6.1144716, 4.9988588 ], [ 6.1108667, 4.9982602 ], [ 6.1074549, 4.9981106 ], [ 6.1002022, 4.9981961 ], [ 6.0963398, 4.9984312 ], [ 6.0914475, 4.997619 ], [ 6.089375317318853, 4.997109625590802 ] ] } },
{ "type": "Feature", "properties": { "waterway_id": "w826629792", "name": "Osiama Creek", "waterway_type": "river", "intermittent": null, "length_km": 23.661, "source_class": "OSM contextual waterway" }, "geometry": { "type": "MultiLineString", "coordinates": [ [ [ 6.069596816488505, 4.93696718559525 ], [ 6.0685881, 4.9377544 ], [ 6.067466, 4.9381919 ], [ 6.0662626, 4.9382081 ], [ 6.0647828, 4.9380137 ], [ 6.063677, 4.9375114 ], [ 6.0620996, 4.9362639 ], [ 6.0611889, 4.9345627 ], [ 6.0607498, 4.9329912 ], [ 6.0600668, 4.9282279 ], [ 6.0601644, 4.9254736 ], [ 6.0606523, 4.9239668 ], [ 6.0613027, 4.9226868 ], [ 6.0622947, 4.9212287 ], [ 6.0636119, 4.9202404 ], [ 6.0657516, 4.9197038 ], [ 6.068425546868316, 4.919503387968844 ] ], [ [ 6.058204257189343, 4.866154394359499 ], [ 6.0570096, 4.866075 ], [ 6.0553184, 4.8661399 ], [ 6.0515456, 4.8669014 ], [ 6.049708, 4.8674361 ], [ 6.0477891, 4.8685217 ], [ 6.0442928, 4.8710656 ], [ 6.0423089, 4.8722971 ], [ 6.0396907, 4.8736095 ], [ 6.0368611, 4.8746627 ], [ 6.0337063, 4.8753918 ], [ 6.0303239, 4.8757159 ], [ 6.0279171, 4.8757807 ], [ 6.0262909, 4.8755701 ], [ 6.025055, 4.8751974 ], [ 6.0237703, 4.8742576 ], [ 6.0222417, 4.8725887 ], [ 6.0213148, 4.8705147 ], [ 6.0203879, 4.8660102 ], [ 6.0204692, 4.8645519 ], [ 6.0209896, 4.8632395 ], [ 6.0229247, 4.8604849 ], [ 6.0244208, 4.8594317 ], [ 6.0317061, 4.8556076 ], [ 6.0331047, 4.854603 ], [ 6.0336576, 4.8535174 ], [ 6.0337877, 4.851816 ], [ 6.033186, 4.848948 ], [ 6.0322265, 4.8470845 ], [ 6.0309906, 4.8459989 ], [ 6.0301775, 4.8456424 ], [ 6.0285513, 4.8454804 ], [ 6.0267463, 4.8456424 ], [ 6.0248436, 4.8464202 ], [ 6.0234288, 4.8476031 ], [ 6.0193471, 4.8523021 ], [ 6.0179871, 4.8535522 ], [ 6.0167236, 4.8541026 ], [ 6.0155309, 4.8543399 ], [ 6.0140457, 4.8541007 ], [ 6.0111186, 4.8531123 ], [ 6.007915, 4.8515568 ], [ 6.0021583, 4.8480892 ], [ 5.9978814, 4.8447836 ], [ 5.9936208, 4.8418021 ], [ 5.9914905, 4.8398901 ], [ 5.990466, 4.8382697 ], [ 5.9893439, 4.8351099 ], [ 5.9891976, 4.8329223 ], [ 5.9893927, 4.8313181 ], [ 5.9911815, 4.8245772 ], [ 5.9918808, 4.8230864 ], [ 5.9924794, 4.8222127 ], [ 5.994338, 4.8207645 ], [ 5.9959477, 4.8200796 ], [ 5.9981133, 4.81965 ], [ 6.0001606, 4.8194897 ], [ 6.0060051, 4.8201056 ], [ 6.0135065, 4.8214863 ], [ 6.015616, 4.8217518 ], [ 6.0175349, 4.821657 ], [ 6.0188617, 4.8213129 ], [ 6.0207289, 4.8204993 ], [ 6.0223693, 4.8194584 ], [ 6.0236916, 4.8181142 ], [ 6.0241534, 4.8173352 ], [ 6.0248924, 4.8149032 ], [ 6.0250225, 4.8130397 ], [ 6.0246644, 4.8113496 ], [ 6.023790306844528, 4.808987392340958 ] ] ] } },
{ "type": "Feature", "properties": { "waterway_id": "w828236790", "name": null, "waterway_type": "stream", "intermittent": null, "length_km": 4.328, "source_class": "OSM contextual waterway" }, "geometry": { "type": "LineString", "coordinates": [ [ 6.0454352, 4.8940061 ], [ 6.0453047, 4.8946137 ], [ 6.0447158, 4.8948379 ], [ 6.0442044, 4.8954074 ], [ 6.0437698, 4.8952563 ], [ 6.0430217, 4.8955066 ], [ 6.04271, 4.8958523 ], [ 6.0425276, 4.8958425 ], [ 6.0421503, 4.8955163 ], [ 6.0418392, 4.8954121 ], [ 6.0415495, 4.8950967 ], [ 6.0400287, 4.8946959 ], [ 6.0397873, 4.8945462 ], [ 6.0391114, 4.8937231 ], [ 6.0388384, 4.8935661 ], [ 6.0376499, 4.8943422 ], [ 6.0370954, 4.8945049 ], [ 6.0369536, 4.894419 ], [ 6.0368735, 4.8941488 ], [ 6.0368889, 4.8939124 ], [ 6.0371077, 4.8935901 ], [ 6.0370685, 4.8928567 ], [ 6.0369966, 4.8927578 ], [ 6.0364662, 4.8927019 ], [ 6.0362543, 4.8924783 ], [ 6.0358392, 4.8923612 ], [ 6.0354994, 4.8918864 ], [ 6.0347075, 4.8919478 ], [ 6.0342053, 4.8922087 ], [ 6.0338911, 4.892221 ], [ 6.0329852, 4.8916684 ], [ 6.0314724, 4.8916408 ], [ 6.0308069, 4.8914013 ], [ 6.0305943, 4.8912171 ], [ 6.0303294, 4.8911649 ], [ 6.0298302, 4.8912877 ], [ 6.0284592, 4.8907874 ], [ 6.0283959, 4.8905187 ], [ 6.028552, 4.890215 ], [ 6.0280505, 4.889734 ], [ 6.0280505, 4.8893064 ], [ 6.0279003, 4.8891434 ], [ 6.0275918, 4.888991 ], [ 6.0268974, 4.8889306 ], [ 6.0259913, 4.8882747 ], [ 6.0243362, 4.8879499 ], [ 6.0242561, 4.8874034 ], [ 6.0239665, 4.8872193 ], [ 6.0235536, 4.8873236 ], [ 6.0228203, 4.8877288 ], [ 6.0221117, 4.8878823 ], [ 6.0218405, 4.8877288 ], [ 6.0214942, 4.8862954 ], [ 6.0209712, 4.8861511 ], [ 6.0209432, 4.8856207 ], [ 6.020775, 4.8855462 ], [ 6.0199625, 4.8856858 ], [ 6.019785, 4.8856207 ], [ 6.0195749, 4.885267 ], [ 6.0192293, 4.8854578 ], [ 6.0189818, 4.885388 ], [ 6.0190378, 4.8844714 ], [ 6.0194441, 4.8836106 ], [ 6.0197663, 4.8832151 ], [ 6.0196087, 4.8825242 ] ] } },
{ "type": "Feature", "properties": { "waterway_id": "w828236793", "name": null, "waterway_type": "stream", "intermittent": null, "length_km": 17.776, "source_class": "OSM contextual waterway" }, "geometry": { "type": "MultiLineString", "coordinates": [ [ [ 6.070501033100852, 4.982035764678533 ], [ 6.0700781, 4.9824773 ], [ 6.0696065, 4.9823315 ], [ 6.0695496, 4.9821613 ], [ 6.068891, 4.9818616 ], [ 6.0670738, 4.9816875 ], [ 6.0658663, 4.980598 ], [ 6.0643336, 4.9802051 ], [ 6.0634677, 4.9796827 ], [ 6.0632278, 4.9792979 ], [ 6.0626465, 4.9788929 ], [ 6.0615894, 4.978577 ], [ 6.0591012, 4.9774243 ], [ 6.0574667, 4.9770381 ], [ 6.0559163, 4.9771591 ], [ 6.0537541, 4.9769171 ], [ 6.0485385, 4.976963 ], [ 6.0428376, 4.9767589 ], [ 6.0420589, 4.976907 ], [ 6.03927, 4.9778871 ], [ 6.0379747, 4.9780282 ], [ 6.0367572, 4.9779577 ], [ 6.0354831, 4.9774993 ], [ 6.0329703, 4.9770974 ], [ 6.0323726, 4.9766922 ], [ 6.0316331, 4.9758819 ], [ 6.0310354, 4.9754153 ], [ 6.0296551, 4.9747032 ], [ 6.0268698, 4.9724011 ], [ 6.0253416, 4.9707989 ], [ 6.0250354, 4.9703423 ], [ 6.0250354, 4.97016 ], [ 6.0238727, 4.9679486 ], [ 6.0235637, 4.9663285 ], [ 6.0237751, 4.9642184 ], [ 6.0243158, 4.9623026 ], [ 6.0256371, 4.9602086 ], [ 6.0274491, 4.9583153 ], [ 6.0290166, 4.9576009 ], [ 6.030777, 4.9572481 ], [ 6.0319385, 4.957414 ], [ 6.0348982, 4.958301 ], [ 6.0374188, 4.9585278 ], [ 6.0388376, 4.958463 ], [ 6.0395206, 4.9582119 ], [ 6.0415452, 4.9566363 ], [ 6.0430003, 4.9552718 ], [ 6.0437151, 4.954443 ], [ 6.0443005, 4.953166 ], [ 6.0445717, 4.9522759 ], [ 6.0447011, 4.949587 ], [ 6.0435549, 4.9456702 ], [ 6.0426183, 4.9439574 ], [ 6.0402027, 4.9411211 ], [ 6.039605, 4.9401695 ], [ 6.038958, 4.9385364 ], [ 6.0388532, 4.9375296 ], [ 6.0390566, 4.9353747 ], [ 6.0399501, 4.9331278 ], [ 6.0399501, 4.9314763 ], [ 6.0381446, 4.9274059 ], [ 6.0376393, 4.9266938 ], [ 6.0365178, 4.9258097 ], [ 6.0330917, 4.9242749 ], [ 6.0322413, 4.9237469 ], [ 6.0294129, 4.9224085 ], [ 6.0255493, 4.9213341 ], [ 6.0236575, 4.9206404 ], [ 6.0210263, 4.9192529 ], [ 6.018734, 4.9172698 ], [ 6.017138, 4.9155078 ], [ 6.0157084, 4.9143475 ], [ 6.0142048, 4.9133836 ], [ 6.0130957, 4.9128801 ], [ 6.0121775, 4.91261 ], [ 6.0097373, 4.9122662 ], [ 6.0033964, 4.9121429 ], [ 6.000106, 4.9122048 ], [ 5.9980711, 4.9120944 ], [ 5.994734338774109, 4.911335924412571 ] ], [ [ 5.994906953724361, 4.88420168806803 ], [ 5.9952132, 4.8838092 ], [ 5.9954057, 4.883225 ] ] ] } },
{ "type": "Feature", "properties": { "waterway_id": "w828236794", "name": null, "waterway_type": "stream", "intermittent": null, "length_km": 0.572, "source_class": "OSM contextual waterway" }, "geometry": { "type": "LineString", "coordinates": [ [ 6.0061478, 4.8933961 ], [ 6.0063252, 4.8930657 ], [ 6.0063206, 4.891721 ], [ 6.0058863, 4.8901855 ], [ 6.0055173, 4.8898458 ], [ 6.005564, 4.8894457 ], [ 6.0054286, 4.8889664 ], [ 6.0055024, 4.8885438 ] ] } },
{ "type": "Feature", "properties": { "waterway_id": "w828236795", "name": null, "waterway_type": "river", "intermittent": null, "length_km": 3.485, "source_class": "OSM contextual waterway" }, "geometry": { "type": "LineString", "coordinates": [ [ 6.0055024, 4.8885438 ], [ 6.00661, 4.8875846 ], [ 6.0071834, 4.8863927 ], [ 6.0073533, 4.8861952 ], [ 6.0076293, 4.8861459 ], [ 6.0081177, 4.8865126 ], [ 6.0088893, 4.8878949 ], [ 6.0093282, 4.8883393 ], [ 6.0098944, 4.8886566 ], [ 6.0104749, 4.8887906 ], [ 6.0114304, 4.888579 ], [ 6.0120463, 4.888304 ], [ 6.0128886, 4.8877257 ], [ 6.0152103, 4.8854759 ], [ 6.0157907, 4.8850668 ], [ 6.0162437, 4.884827 ], [ 6.0181337, 4.8843333 ], [ 6.0185725, 4.8840371 ], [ 6.0202784, 4.8814911 ], [ 6.0206182, 4.8811737 ], [ 6.0214251, 4.8809269 ], [ 6.0224019, 4.8809551 ], [ 6.0229965, 4.8808352 ], [ 6.0233929, 4.8806659 ], [ 6.0242211, 4.8798196 ], [ 6.0246316, 4.8796997 ], [ 6.0260544, 4.8796644 ], [ 6.0262809, 4.8794881 ], [ 6.0264295, 4.8791496 ], [ 6.0265216, 4.8785713 ], [ 6.0264579, 4.8780423 ], [ 6.0261393, 4.8771748 ], [ 6.025055, 4.8751974 ] ] } },
{ "type": "Feature", "properties": { "waterway_id": "w832569466", "name": null, "waterway_type": "stream", "intermittent": null, "length_km": 5.533, "source_class": "OSM contextual waterway" }, "geometry": { "type": "LineString", "coordinates": [ [ 6.5344475, 5.3574007 ], [ 6.5342329, 5.3572192 ], [ 6.5337931, 5.3572298 ], [ 6.5337287, 5.3570215 ], [ 6.5343419, 5.3557518 ], [ 6.5350087, 5.3556102 ], [ 6.5353786, 5.3552256 ], [ 6.5353705, 5.3549828 ], [ 6.5351022, 5.3546954 ], [ 6.5351347, 5.3544687 ], [ 6.5354762, 5.3544323 ], [ 6.5366267, 5.3548451 ], [ 6.5371755, 5.3546266 ], [ 6.5373951, 5.3541125 ], [ 6.5371715, 5.3538453 ], [ 6.5362452, 5.3535382 ], [ 6.536231, 5.3529462 ], [ 6.5358417, 5.3526008 ], [ 6.5355798, 5.3524881 ], [ 6.5347693, 5.3525867 ], [ 6.5345959, 5.3524211 ], [ 6.5343234, 5.3507544 ], [ 6.5348331, 5.3503104 ], [ 6.5350566, 5.3497576 ], [ 6.5350405, 5.3494425 ], [ 6.5346597, 5.3485185 ], [ 6.5345363, 5.3476799 ], [ 6.5342999, 5.3469988 ], [ 6.5341698, 5.3449992 ], [ 6.5339991, 5.3442139 ], [ 6.5337126, 5.3436668 ], [ 6.5326075, 5.3423315 ], [ 6.5323178, 5.3421232 ], [ 6.5309124, 5.3418348 ], [ 6.5299307, 5.3421873 ], [ 6.5293191, 5.342011 ], [ 6.5290026, 5.3417814 ], [ 6.5286969, 5.3410122 ], [ 6.5277688, 5.3396449 ], [ 6.5273665, 5.3386034 ], [ 6.5266584, 5.3375832 ], [ 6.5266155, 5.3367233 ], [ 6.5264063, 5.336515 ], [ 6.5255694, 5.3359916 ], [ 6.5250544, 5.3359008 ], [ 6.5249686, 5.3356123 ], [ 6.5247284, 5.3355289 ], [ 6.5244987, 5.3360872 ], [ 6.5233239, 5.3376522 ], [ 6.5230289, 5.3379193 ], [ 6.5219989, 5.3382023 ], [ 6.5216663, 5.3393827 ], [ 6.5213498, 5.3395964 ], [ 6.5211513, 5.3395537 ], [ 6.5205183, 5.338854 ], [ 6.5198907, 5.3384801 ], [ 6.5186783, 5.338416 ], [ 6.5180453, 5.3382664 ], [ 6.5175411, 5.3385442 ], [ 6.5163394, 5.3384854 ], [ 6.5148106, 5.3393934 ], [ 6.514022, 5.3392866 ], [ 6.5134158, 5.3395002 ], [ 6.5120949, 5.3393632 ] ] } },
{ "type": "Feature", "properties": { "waterway_id": "w832569467", "name": null, "waterway_type": "stream", "intermittent": null, "length_km": 5.202, "source_class": "OSM contextual waterway" }, "geometry": { "type": "LineString", "coordinates": [ [ 6.479322, 5.2830956 ], [ 6.4814346, 5.2867089 ], [ 6.4846787, 5.2910528 ], [ 6.4855453, 5.2923508 ], [ 6.4859443, 5.2933219 ], [ 6.4864711, 5.294106 ], [ 6.4866488, 5.2942314 ], [ 6.4868933, 5.294224 ], [ 6.4874932, 5.2947108 ], [ 6.4880635, 5.2947993 ], [ 6.4884632, 5.2950398 ], [ 6.4884857, 5.2956032 ], [ 6.4888157, 5.2956423 ], [ 6.4887301, 5.2961415 ], [ 6.4889375, 5.2966283 ], [ 6.4892782, 5.2966504 ], [ 6.4899299, 5.2970855 ], [ 6.4905743, 5.2970782 ], [ 6.490979, 5.2972786 ], [ 6.4913433, 5.2971856 ], [ 6.4916795, 5.2967113 ], [ 6.4924641, 5.2961719 ], [ 6.4932393, 5.2954372 ], [ 6.4935965, 5.2945612 ], [ 6.4939178, 5.2944991 ], [ 6.494659, 5.2951024 ], [ 6.4949859, 5.2950838 ], [ 6.4953221, 5.2949722 ], [ 6.4954529, 5.2948048 ], [ 6.4954716, 5.2942747 ], [ 6.4956677, 5.2940793 ], [ 6.4959759, 5.294098 ], [ 6.4968026, 5.2950876 ], [ 6.4971762, 5.2952736 ], [ 6.4981569, 5.2962501 ], [ 6.498708, 5.2970778 ], [ 6.4993244, 5.2988913 ], [ 6.5000623, 5.3001096 ], [ 6.5006787, 5.3014581 ], [ 6.5012578, 5.3019417 ], [ 6.501538, 5.3023323 ], [ 6.5014913, 5.3027322 ], [ 6.5003425, 5.3031414 ], [ 6.5001183, 5.3033181 ], [ 6.5000529, 5.3040249 ], [ 6.5002864, 5.3042574 ], [ 6.501125, 5.304468 ], [ 6.5024533, 5.3038947 ], [ 6.5036955, 5.3043411 ], [ 6.5040131, 5.3043969 ], [ 6.5043213, 5.3042946 ], [ 6.5044707, 5.3041086 ], [ 6.5045081, 5.3037831 ], [ 6.5043026, 5.3023695 ], [ 6.5046658, 5.3019613 ] ] } },
{ "type": "Feature", "properties": { "waterway_id": "w832569468", "name": null, "waterway_type": "stream", "intermittent": null, "length_km": 5.576, "source_class": "OSM contextual waterway" }, "geometry": { "type": "LineString", "coordinates": [ [ 6.5247284, 5.3355289 ], [ 6.5237657, 5.3343919 ], [ 6.5236583, 5.3338897 ], [ 6.5240739, 5.3328296 ], [ 6.5246623, 5.3322111 ], [ 6.525106, 5.3315044 ], [ 6.5250546, 5.3308906 ], [ 6.524667, 5.3304628 ], [ 6.5236162, 5.3299978 ], [ 6.5225281, 5.3292167 ], [ 6.5216688, 5.3280449 ], [ 6.5213326, 5.3269569 ], [ 6.521454, 5.3259664 ], [ 6.5216782, 5.3252922 ], [ 6.5216221, 5.3249063 ], [ 6.5213746, 5.3244785 ], [ 6.5214073, 5.3240507 ], [ 6.5205107, 5.3234137 ], [ 6.5200313, 5.3224055 ], [ 6.5199338, 5.3218388 ], [ 6.5201005, 5.3213288 ], [ 6.5197752, 5.3206163 ], [ 6.5198443, 5.3200739 ], [ 6.5192335, 5.3199377 ], [ 6.518987, 5.3195757 ], [ 6.5185587, 5.319361 ], [ 6.5184878, 5.3191953 ], [ 6.5186296, 5.318818 ], [ 6.5186299, 5.3183493 ], [ 6.5179481, 5.3179355 ], [ 6.5175091, 5.3174798 ], [ 6.5172267, 5.3169336 ], [ 6.5173446, 5.3165692 ], [ 6.5178081, 5.3161847 ], [ 6.517678, 5.3155168 ], [ 6.5177389, 5.3151605 ], [ 6.5181292, 5.3148408 ], [ 6.518796, 5.3148084 ], [ 6.5190927, 5.3142255 ], [ 6.5193082, 5.3140554 ], [ 6.5198403, 5.3139675 ], [ 6.5201862, 5.3132161 ], [ 6.5206675, 5.313061 ], [ 6.520802, 5.3128919 ], [ 6.5207242, 5.3118135 ], [ 6.5206038, 5.3115386 ], [ 6.5201437, 5.311158 ], [ 6.5182963, 5.3089873 ], [ 6.5173832, 5.3077468 ], [ 6.5165196, 5.3071336 ], [ 6.5157764, 5.305865 ], [ 6.5157197, 5.3055055 ], [ 6.5158755, 5.3044836 ], [ 6.5156702, 5.3042651 ], [ 6.5151959, 5.3039831 ], [ 6.5149482, 5.3039972 ], [ 6.5147712, 5.3041664 ], [ 6.5145872, 5.3045611 ], [ 6.5144739, 5.3056888 ], [ 6.51412, 5.3059636 ], [ 6.513575, 5.3059143 ], [ 6.5130936, 5.3053716 ], [ 6.5125274, 5.3053434 ], [ 6.5119894, 5.305569 ], [ 6.5117771, 5.3059495 ], [ 6.5115859, 5.3060623 ], [ 6.5112462, 5.3060764 ], [ 6.5109489, 5.3059002 ], [ 6.5108073, 5.3056465 ], [ 6.5108993, 5.3046457 ], [ 6.5107408, 5.3039726 ], [ 6.5101702, 5.3036767 ], [ 6.5098906, 5.3037624 ] ] } },
{ "type": "Feature", "properties": { "waterway_id": "w832569469", "name": null, "waterway_type": "stream", "intermittent": null, "length_km": 4.347, "source_class": "OSM contextual waterway" }, "geometry": { "type": "LineString", "coordinates": [ [ 6.491099, 5.2707074 ], [ 6.4912798, 5.27061 ], [ 6.4914851, 5.2707025 ], [ 6.4916365, 5.2707998 ], [ 6.491788, 5.2712134 ], [ 6.4923695, 5.2714372 ], [ 6.4925125, 5.2717085 ], [ 6.4925462, 5.2721836 ], [ 6.492361, 5.2734859 ], [ 6.4920354, 5.274179 ], [ 6.4919681, 5.2749671 ], [ 6.4921028, 5.2753025 ], [ 6.4917604, 5.27599 ], [ 6.491491, 5.2770631 ], [ 6.4918951, 5.2775606 ], [ 6.4919063, 5.277745 ], [ 6.4918107, 5.2779706 ], [ 6.4907631, 5.2790858 ], [ 6.4905366, 5.2795791 ], [ 6.490664, 5.2799457 ], [ 6.4913719, 5.2805095 ], [ 6.4923588, 5.2808891 ], [ 6.4986909, 5.2847808 ], [ 6.4992855, 5.2853729 ], [ 6.5012816, 5.2899824 ], [ 6.5016214, 5.291082 ], [ 6.5015648, 5.2917868 ], [ 6.5019244, 5.2966164 ], [ 6.5022443, 5.2975099 ], [ 6.503844, 5.3002587 ], [ 6.5045959, 5.3012233 ], [ 6.5046658, 5.3019613 ] ] } },
{ "type": "Feature", "properties": { "waterway_id": "w840644871", "name": null, "waterway_type": "stream", "intermittent": null, "length_km": 2.487, "source_class": "OSM contextual waterway" }, "geometry": { "type": "LineString", "coordinates": [ [ 5.964404293095701, 5.035628942500485 ], [ 5.9656903, 5.0339754 ], [ 5.9689439, 5.0312009 ], [ 5.9699052, 5.0310781 ], [ 5.9708665, 5.0312377 ], [ 5.9713102, 5.0315078 ], [ 5.971532, 5.0320357 ], [ 5.9715566, 5.0327723 ], [ 5.9714334, 5.0335212 ], [ 5.9706446, 5.0353381 ], [ 5.9700408, 5.0363817 ], [ 5.9689809, 5.0375357 ], [ 5.9688453, 5.0381495 ], [ 5.9685002, 5.038616 ], [ 5.9685002, 5.038972 ], [ 5.9690302, 5.0406785 ], [ 5.9691781, 5.0408258 ], [ 5.9695848, 5.0408872 ], [ 5.9708911, 5.0414519 ], [ 5.9713471, 5.0419307 ], [ 5.9715705, 5.0425994 ] ] } },
{ "type": "Feature", "properties": { "waterway_id": "w840644872", "name": null, "waterway_type": "stream", "intermittent": null, "length_km": 17.891, "source_class": "OSM contextual waterway" }, "geometry": { "type": "LineString", "coordinates": [ [ 6.0674691, 5.0595171 ], [ 6.06689, 5.0607544 ], [ 6.0662673, 5.061063 ], [ 6.0646584, 5.0614659 ], [ 6.0634729, 5.0613751 ], [ 6.0624804, 5.0611079 ], [ 6.0618528, 5.0603972 ], [ 6.0615524, 5.0603331 ], [ 6.0611554, 5.0603598 ], [ 6.0605653, 5.0608835 ], [ 6.0599377, 5.0611934 ], [ 6.0594066, 5.0611293 ], [ 6.0581835, 5.0603919 ], [ 6.0575345, 5.0601568 ], [ 6.0571589, 5.0600766 ], [ 6.0563114, 5.0601461 ], [ 6.0556623, 5.0599163 ], [ 6.0548361, 5.0589438 ], [ 6.0546752, 5.0588903 ], [ 6.0533717, 5.0601022 ], [ 6.0523131, 5.0604661 ], [ 6.0513146, 5.060461 ], [ 6.049541, 5.0601056 ], [ 6.0488757, 5.0598659 ], [ 6.0476299, 5.0599435 ], [ 6.047007, 5.0601832 ], [ 6.0464619, 5.060014 ], [ 6.0461859, 5.0596191 ], [ 6.0463558, 5.0586955 ], [ 6.0466247, 5.0580045 ], [ 6.0467168, 5.0574475 ], [ 6.0466106, 5.0570879 ], [ 6.0459381, 5.0566648 ], [ 6.0446145, 5.0565027 ], [ 6.0433404, 5.05682 ], [ 6.0422857, 5.0565661 ], [ 6.0417052, 5.0568764 ], [ 6.040778, 5.0569257 ], [ 6.0403816, 5.0572078 ], [ 6.0399215, 5.0570808 ], [ 6.0395393, 5.0572994 ], [ 6.0386686, 5.0571584 ], [ 6.0362337, 5.0580327 ], [ 6.0359647, 5.0583288 ], [ 6.0353913, 5.0585333 ], [ 6.035087, 5.0588647 ], [ 6.0343437, 5.0589211 ], [ 6.0340747, 5.0581138 ], [ 6.0340818, 5.0578353 ], [ 6.0342588, 5.0575956 ], [ 6.0341597, 5.0563546 ], [ 6.0344924, 5.0548528 ], [ 6.0344287, 5.0544227 ], [ 6.0334943, 5.0532734 ], [ 6.0323972, 5.0523568 ], [ 6.0322273, 5.0519901 ], [ 6.032206, 5.0512216 ], [ 6.0320278, 5.0503751 ], [ 6.0321174, 5.0495223 ], [ 6.0327403, 5.0490358 ], [ 6.0329385, 5.0487185 ], [ 6.0329172, 5.0480345 ], [ 6.0332924, 5.0472871 ], [ 6.0332853, 5.0470756 ], [ 6.0327757, 5.0468852 ], [ 6.0317847, 5.046159 ], [ 6.0305176, 5.0455949 ], [ 6.0303053, 5.0454186 ], [ 6.0297886, 5.0445302 ], [ 6.0295975, 5.0444245 ], [ 6.0272404, 5.0444315 ], [ 6.0267095, 5.0445584 ], [ 6.0264011, 5.0454888 ], [ 6.0246497, 5.0460321 ], [ 6.0244373, 5.0459334 ], [ 6.0240834, 5.0454962 ], [ 6.0236728, 5.0454821 ], [ 6.0231207, 5.0451014 ], [ 6.022781, 5.0450449 ], [ 6.0211175, 5.0453622 ], [ 6.0207815, 5.0457107 ], [ 6.0203099, 5.0457026 ], [ 6.0193017, 5.0449817 ], [ 6.0187894, 5.0442447 ], [ 6.0189521, 5.0421226 ], [ 6.0188057, 5.0416528 ], [ 6.0167811, 5.0401058 ], [ 6.016529, 5.0394174 ], [ 6.015968, 5.0391906 ], [ 6.0156997, 5.0388666 ], [ 6.0152688, 5.0380162 ], [ 6.0153013, 5.0375869 ], [ 6.015472, 5.0372548 ], [ 6.0153826, 5.0370847 ], [ 6.0146996, 5.0368903 ], [ 6.0139515, 5.0362991 ], [ 6.0127807, 5.0356916 ], [ 6.0124636, 5.0352137 ], [ 6.0121627, 5.0351489 ], [ 6.0119269, 5.0352461 ], [ 6.011618, 5.0362586 ], [ 6.0113171, 5.0367202 ], [ 6.0094145, 5.0376517 ], [ 6.0083656, 5.0376517 ], [ 6.0079428, 5.0374978 ], [ 6.0075118, 5.0371495 ], [ 6.0060049, 5.034403 ], [ 6.005536, 5.0328243 ], [ 6.0054954, 5.0324761 ], [ 6.0057962, 5.0314474 ], [ 6.0058125, 5.0308156 ], [ 6.005723, 5.0304431 ], [ 6.0052189, 5.0297384 ], [ 6.0051213, 5.0288312 ], [ 6.0047229, 5.0288636 ], [ 6.0042025, 5.0292119 ], [ 6.003861, 5.0291876 ], [ 6.0034545, 5.0288555 ], [ 6.0035602, 5.0281266 ], [ 6.003422, 5.0279484 ], [ 6.0031618, 5.0278917 ], [ 6.0028203, 5.0279646 ], [ 6.0026577, 5.0281752 ], [ 6.0024625, 5.0289203 ], [ 6.0022999, 5.028977 ], [ 6.0018039, 5.0287502 ], [ 6.0014299, 5.0287583 ], [ 6.0011778, 5.0293658 ], [ 6.0008526, 5.0293415 ], [ 6.0005192, 5.0290337 ], [ 5.9996411, 5.0288636 ], [ 5.9986003, 5.0289041 ], [ 5.9983239, 5.0286935 ], [ 5.9982426, 5.0283048 ], [ 5.9980312, 5.0280699 ], [ 5.9971286, 5.0274219 ], [ 5.9965839, 5.027187 ], [ 5.9963481, 5.0267496 ], [ 5.9959334, 5.0265228 ], [ 5.9953317, 5.0263932 ], [ 5.995163, 5.025809 ], [ 5.9949754, 5.0257735 ], [ 5.9944336, 5.0261949 ], [ 5.9937899, 5.0263659 ], [ 5.9933178, 5.026943 ], [ 5.9927921, 5.0271889 ], [ 5.9921913, 5.0272102 ], [ 5.9913759, 5.0274667 ], [ 5.9911167, 5.0282097 ], [ 5.9901324, 5.02857 ], [ 5.989949, 5.0287386 ], [ 5.9897559, 5.0290806 ], [ 5.9893374, 5.0310684 ], [ 5.9877603, 5.0325112 ], [ 5.9872346, 5.0332273 ], [ 5.9870844, 5.0337082 ], [ 5.9872024, 5.0345632 ], [ 5.9869342, 5.0350976 ], [ 5.9871166, 5.0362839 ], [ 5.9867733, 5.0369252 ], [ 5.985518, 5.0375343 ], [ 5.9851317, 5.0380153 ], [ 5.9847777, 5.0382611 ], [ 5.9844022, 5.0388596 ], [ 5.9838121, 5.0392764 ], [ 5.9836834, 5.0396611 ], [ 5.9834902, 5.0398428 ], [ 5.98172, 5.0407406 ], [ 5.9807115, 5.0408688 ], [ 5.9800285, 5.0414427 ], [ 5.9799147, 5.0416209 ], [ 5.9799635, 5.0421068 ], [ 5.9791504, 5.0429492 ], [ 5.9790365, 5.0440345 ], [ 5.9787601, 5.0442613 ], [ 5.9782885, 5.0444395 ], [ 5.9771339, 5.0444881 ], [ 5.9761393, 5.0442523 ], [ 5.9751523, 5.0435897 ], [ 5.9737575, 5.0433866 ], [ 5.972631, 5.0428843 ], [ 5.9715705, 5.0425994 ], [ 5.9710753, 5.0428095 ], [ 5.9709144, 5.0435897 ], [ 5.9707427, 5.0437393 ], [ 5.9684897, 5.0445408 ], [ 5.967964, 5.0445302 ], [ 5.9674275, 5.0442416 ], [ 5.9673095, 5.0438889 ], [ 5.9675241, 5.0431622 ], [ 5.9674597, 5.0427454 ], [ 5.9672129, 5.042382 ], [ 5.9667409, 5.0419973 ], [ 5.9660328, 5.041666 ], [ 5.9651101, 5.040469 ], [ 5.9633506, 5.0396781 ], [ 5.962835844315349, 5.039612850536582 ] ] } },
{ "type": "Feature", "properties": { "waterway_id": "w899658402", "name": null, "waterway_type": "stream", "intermittent": null, "length_km": 6.792, "source_class": "OSM contextual waterway" }, "geometry": { "type": "MultiLineString", "coordinates": [ [ [ 5.9789853, 5.0691191 ], [ 5.9793268, 5.0681715 ], [ 5.9796683, 5.0678719 ], [ 5.9805302, 5.0674264 ], [ 5.9808798, 5.0665922 ], [ 5.9815466, 5.0664059 ], [ 5.9821645, 5.066082 ], [ 5.9830345, 5.0660901 ], [ 5.9833923, 5.0657013 ], [ 5.9831778, 5.0640573 ], [ 5.9833639, 5.0619955 ], [ 5.9836243, 5.0610479 ], [ 5.9844557, 5.0590764 ], [ 5.9845666, 5.0583521 ], [ 5.9842832, 5.0567808 ], [ 5.9839305, 5.05562 ], [ 5.9835979, 5.0550418 ], [ 5.9831307, 5.0545694 ], [ 5.9819557, 5.0539983 ], [ 5.9813965, 5.0540335 ], [ 5.9807594, 5.0544989 ], [ 5.9767627, 5.0537484 ], [ 5.9752982, 5.0537858 ], [ 5.9725673, 5.054096 ], [ 5.9720676, 5.0543565 ], [ 5.9703864, 5.0558032 ], [ 5.9695599, 5.0563754 ], [ 5.9691956, 5.0565149 ], [ 5.9681262, 5.0565894 ], [ 5.96786, 5.0569848 ], [ 5.9677666, 5.057864 ], [ 5.9673089, 5.0581803 ], [ 5.9669073, 5.0583012 ], [ 5.9666271, 5.0587059 ], [ 5.9658547, 5.0593093 ], [ 5.96547, 5.0594713 ], [ 5.9636953, 5.0597844 ], [ 5.9628696, 5.0597291 ], [ 5.9620438, 5.059502 ], [ 5.9610641, 5.0589005 ], [ 5.9594619, 5.0572616 ], [ 5.958518340854071, 5.055865752503154 ] ], [ [ 5.959304919069232, 5.050772197906255 ], [ 5.9597207, 5.0504544 ], [ 5.960719, 5.0500309 ], [ 5.9622864, 5.0491382 ], [ 5.9626403, 5.0491382 ], [ 5.9637729, 5.0487503 ], [ 5.9645444, 5.048701 ], [ 5.9652947, 5.0480664 ], [ 5.9662503, 5.0478196 ], [ 5.9663919, 5.0474318 ], [ 5.966314, 5.0463601 ], [ 5.9658681, 5.0449076 ], [ 5.9659813, 5.0441249 ], [ 5.965684, 5.0429404 ], [ 5.9657407, 5.0419885 ], [ 5.9658933, 5.0415377 ] ] ] } },
{ "type": "Feature", "properties": { "waterway_id": "w899658403", "name": null, "waterway_type": "stream", "intermittent": null, "length_km": 5.028, "source_class": "OSM contextual waterway" }, "geometry": { "type": "LineString", "coordinates": [ [ 6.0518583, 5.0605114 ], [ 6.0525597, 5.0618444 ], [ 6.0526531, 5.0626631 ], [ 6.0528772, 5.0628212 ], [ 6.0529053, 5.0632585 ], [ 6.0531481, 5.0637702 ], [ 6.0528586, 5.0641423 ], [ 6.0528305, 5.0648494 ], [ 6.0540257, 5.0663217 ], [ 6.0545556, 5.0674818 ], [ 6.0541181, 5.0677028 ], [ 6.0534003, 5.0687246 ], [ 6.0523188, 5.0693539 ], [ 6.0525283, 5.0699616 ], [ 6.0523989, 5.0701887 ], [ 6.0520661, 5.0703912 ], [ 6.0513639, 5.0704681 ], [ 6.0510371, 5.0707411 ], [ 6.0509001, 5.0712975 ], [ 6.0510987, 5.0718889 ], [ 6.0504763, 5.0724167 ], [ 6.0502298, 5.0728464 ], [ 6.0498842, 5.0729229 ], [ 6.0495723, 5.0727173 ], [ 6.0489252, 5.0728359 ], [ 6.0483196, 5.0727298 ], [ 6.0482271, 5.0728526 ], [ 6.0479745, 5.0746265 ], [ 6.0482086, 5.0752003 ], [ 6.0478235, 5.0758448 ], [ 6.0481347, 5.0762929 ], [ 6.0485445, 5.0764801 ], [ 6.0486339, 5.0766274 ], [ 6.0483781, 5.0773394 ], [ 6.0484736, 5.0775144 ], [ 6.0490128, 5.0778058 ], [ 6.0490529, 5.0781128 ], [ 6.0487786, 5.0787266 ], [ 6.0491576, 5.079058 ], [ 6.0491823, 5.0793956 ], [ 6.049022, 5.0801567 ], [ 6.0487016, 5.0804575 ], [ 6.048449, 5.0816482 ], [ 6.0478266, 5.0818569 ], [ 6.0477403, 5.082041 ], [ 6.0476664, 5.0830231 ], [ 6.0480854, 5.0837965 ], [ 6.0474137, 5.0840543 ], [ 6.046853, 5.0846865 ], [ 6.0463169, 5.0844962 ], [ 6.0461135, 5.0846251 ], [ 6.0460026, 5.0851529 ], [ 6.0465671, 5.0854561 ], [ 6.046524, 5.0862632 ], [ 6.0454795, 5.086834 ], [ 6.0454487, 5.0871532 ], [ 6.04588, 5.0879143 ], [ 6.0458554, 5.0883439 ], [ 6.0463853, 5.0888871 ], [ 6.0467735, 5.0899459 ], [ 6.0468321, 5.0904062 ], [ 6.0467705, 5.0910108 ], [ 6.0464069, 5.0918179 ], [ 6.0463853, 5.0922629 ], [ 6.0459232, 5.0930209 ], [ 6.0454708, 5.0944977 ] ] } },
{ "type": "Feature", "properties": { "waterway_id": "w900751560", "name": null, "waterway_type": "stream", "intermittent": null, "length_km": 0.488, "source_class": "OSM contextual waterway" }, "geometry": { "type": "LineString", "coordinates": [ [ 6.0613853, 5.0635156 ], [ 6.060743, 5.0634427 ], [ 6.06006, 5.063629 ], [ 6.0598404, 5.0635885 ], [ 6.059751, 5.0634427 ], [ 6.0597754, 5.0628595 ], [ 6.0591737, 5.0616771 ], [ 6.059155, 5.0609751 ] ] } },
{ "type": "Feature", "properties": { "waterway_id": "w900825137", "name": null, "waterway_type": "stream", "intermittent": null, "length_km": 1.217, "source_class": "OSM contextual waterway" }, "geometry": { "type": "LineString", "coordinates": [ [ 6.218295376482397, 5.10811629565042 ], [ 6.2129328, 5.1060072 ], [ 6.2119571, 5.1052621 ], [ 6.2102171, 5.1028001 ], [ 6.209565954490415, 5.102089331172411 ] ] } },
{ "type": "Feature", "properties": { "waterway_id": "w900825138", "name": null, "waterway_type": "stream", "intermittent": null, "length_km": 14.806, "source_class": "OSM contextual waterway" }, "geometry": { "type": "LineString", "coordinates": [ [ 6.1813012, 5.0986832 ], [ 6.1818759, 5.0984287 ], [ 6.1826591, 5.0986211 ], [ 6.1830044, 5.0983835 ], [ 6.1834247, 5.0985324 ], [ 6.1835088, 5.0988301 ], [ 6.1837329, 5.0989789 ], [ 6.1841626, 5.0989696 ], [ 6.1847603, 5.0985138 ], [ 6.184807, 5.0978533 ], [ 6.1849938, 5.097723 ], [ 6.1854888, 5.0977137 ], [ 6.1858811, 5.0974998 ], [ 6.1859652, 5.0972021 ], [ 6.1856476, 5.0964392 ], [ 6.1854421, 5.0951554 ], [ 6.1859558, 5.0945879 ], [ 6.1861707, 5.0941413 ], [ 6.186124, 5.0938157 ], [ 6.1858251, 5.093425 ], [ 6.1860866, 5.0931459 ], [ 6.1867778, 5.0929226 ], [ 6.1870299, 5.0926994 ], [ 6.1870206, 5.0923645 ], [ 6.1859555, 5.0914439 ], [ 6.1858804, 5.0911767 ], [ 6.1851383, 5.0901994 ], [ 6.1850767, 5.0897391 ], [ 6.1853047, 5.0893095 ], [ 6.185354, 5.0888368 ], [ 6.1856128, 5.0884195 ], [ 6.1857175, 5.0876584 ], [ 6.1863461, 5.0870998 ], [ 6.1864385, 5.0863449 ], [ 6.1865741, 5.0861976 ], [ 6.1870181, 5.0860648 ], [ 6.1880832, 5.0862186 ], [ 6.1883434, 5.0859838 ], [ 6.1884898, 5.0855788 ], [ 6.1882557, 5.0849923 ], [ 6.1876673, 5.0846481 ], [ 6.1871256, 5.0845178 ], [ 6.1869294, 5.0843132 ], [ 6.1869388, 5.0838573 ], [ 6.1873497, 5.083141 ], [ 6.1873404, 5.0828805 ], [ 6.1871629, 5.0824432 ], [ 6.1864438, 5.081885 ], [ 6.1863597, 5.0812059 ], [ 6.1869668, 5.080536 ], [ 6.1870135, 5.0802011 ], [ 6.1867426, 5.0799592 ], [ 6.1862308, 5.0798299 ], [ 6.1844085, 5.0799687 ], [ 6.1834161, 5.079803 ], [ 6.1830031, 5.0799633 ], [ 6.182767, 5.0798244 ], [ 6.1826543, 5.0793824 ], [ 6.1820145, 5.0791498 ], [ 6.1820448, 5.0785024 ], [ 6.1817051, 5.0783543 ], [ 6.1813441, 5.0786505 ], [ 6.1807282, 5.0786998 ], [ 6.1785481, 5.0796093 ], [ 6.1777412, 5.0798067 ], [ 6.1770192, 5.0797926 ], [ 6.176283, 5.0794119 ], [ 6.1759716, 5.078735 ], [ 6.1760282, 5.0780018 ], [ 6.1764105, 5.0777621 ], [ 6.1769626, 5.0776775 ], [ 6.1771325, 5.0775082 ], [ 6.1772032, 5.0771839 ], [ 6.177005, 5.0762955 ], [ 6.1771325, 5.0757879 ], [ 6.1770192, 5.0753789 ], [ 6.1767502, 5.0750264 ], [ 6.1764388, 5.0748854 ], [ 6.1761698, 5.0749136 ], [ 6.1755764, 5.0752415 ], [ 6.175113, 5.0751605 ], [ 6.1749422, 5.0750066 ], [ 6.174682, 5.0743344 ], [ 6.1736982, 5.0738566 ], [ 6.1726574, 5.0729333 ], [ 6.1717305, 5.0726822 ], [ 6.1708361, 5.0726579 ], [ 6.1696896, 5.0719614 ], [ 6.1681448, 5.0716941 ], [ 6.1676894, 5.0717994 ], [ 6.1670633, 5.0722124 ], [ 6.1665674, 5.0723825 ], [ 6.1663153, 5.0723096 ], [ 6.1646241, 5.0711515 ], [ 6.1634451, 5.0706817 ], [ 6.1631117, 5.0706169 ], [ 6.1624043, 5.0707141 ], [ 6.1619327, 5.0704387 ], [ 6.1618677, 5.0702363 ], [ 6.1619652, 5.0699609 ], [ 6.1622173, 5.069645 ], [ 6.1625263, 5.0694992 ], [ 6.163071, 5.0695316 ], [ 6.1634125, 5.0693697 ], [ 6.1635345, 5.069151 ], [ 6.1635182, 5.0687784 ], [ 6.1630223, 5.0681872 ], [ 6.162697, 5.0674745 ], [ 6.161827, 5.0661381 ], [ 6.1613879, 5.0656764 ], [ 6.160087, 5.0648989 ], [ 6.1598756, 5.0641781 ], [ 6.1594934, 5.0637002 ], [ 6.1593877, 5.0633439 ], [ 6.1601439, 5.0632629 ], [ 6.1607944, 5.0637569 ], [ 6.1612009, 5.0637002 ], [ 6.1615018, 5.0633601 ], [ 6.1621197, 5.063271 ], [ 6.1628271, 5.0626797 ], [ 6.1633312, 5.0609627 ], [ 6.1633963, 5.0594805 ], [ 6.1636646, 5.0593509 ], [ 6.1641687, 5.0595453 ], [ 6.1643639, 5.0594886 ], [ 6.1654372, 5.0581442 ], [ 6.1655672, 5.0576096 ], [ 6.1655103, 5.0571236 ], [ 6.1661445, 5.0557711 ], [ 6.1676976, 5.055439 ], [ 6.1684049, 5.0554147 ], [ 6.1692099, 5.0556577 ], [ 6.171015, 5.0570913 ], [ 6.1715028, 5.0570994 ], [ 6.1719419, 5.0562489 ], [ 6.1726493, 5.0558751 ], [ 6.172821, 5.0556614 ], [ 6.1727459, 5.0543041 ], [ 6.1726064, 5.0540904 ], [ 6.1718232, 5.0536736 ], [ 6.1709971, 5.0528293 ], [ 6.1708576, 5.0525621 ], [ 6.1711043, 5.0517178 ], [ 6.1709112, 5.0512476 ], [ 6.1706001, 5.0510445 ], [ 6.1702246, 5.0510125 ], [ 6.1678535, 5.0513758 ], [ 6.1676389, 5.0510766 ], [ 6.1675638, 5.0504354 ], [ 6.1672956, 5.0501041 ], [ 6.1665768, 5.0496231 ], [ 6.165579, 5.0498796 ], [ 6.1650211, 5.0496659 ], [ 6.1644632, 5.0496124 ], [ 6.1632186, 5.0497728 ], [ 6.1623067, 5.0494735 ], [ 6.1612445, 5.0496231 ], [ 6.1605794, 5.0495804 ], [ 6.1602253, 5.0492918 ], [ 6.1598712, 5.0485865 ], [ 6.1595065, 5.0482765 ], [ 6.1592919, 5.0483193 ], [ 6.1591417, 5.0485437 ], [ 6.1591202, 5.0490674 ], [ 6.1588306, 5.0494415 ], [ 6.1584336, 5.0494308 ], [ 6.1581546, 5.0490995 ], [ 6.1577148, 5.0489071 ], [ 6.1568886, 5.0491743 ], [ 6.1550862, 5.0500613 ], [ 6.1546034, 5.0500186 ], [ 6.1544532, 5.0496231 ], [ 6.1538738, 5.0491743 ], [ 6.1536378, 5.0487682 ], [ 6.153552, 5.048501 ], [ 6.1536163, 5.0482765 ], [ 6.1537665, 5.0481483 ], [ 6.1552686, 5.0481162 ], [ 6.1563307, 5.0475819 ], [ 6.1568028, 5.0470796 ], [ 6.1580259, 5.04522 ], [ 6.1580259, 5.0446215 ], [ 6.1576611, 5.0437452 ], [ 6.1577362, 5.0427512 ], [ 6.1580366, 5.0417466 ], [ 6.1586188, 5.0409901 ], [ 6.1588627, 5.0403466 ], [ 6.1588091, 5.0401328 ], [ 6.1583525, 5.039643 ] ] } },
{ "type": "Feature", "properties": { "waterway_id": "w902727763", "name": null, "waterway_type": "stream", "intermittent": null, "length_km": 8.205, "source_class": "OSM contextual waterway" }, "geometry": { "type": "LineString", "coordinates": [ [ 6.016714, 5.0699661 ], [ 6.0158235, 5.0692287 ], [ 6.0130555, 5.068299 ], [ 6.0096223, 5.0683631 ], [ 6.0065216, 5.0686837 ], [ 6.0054917, 5.0685875 ], [ 6.0038609, 5.0677646 ], [ 6.0032601, 5.0668883 ], [ 6.0026271, 5.0664074 ], [ 6.0015864, 5.066044 ], [ 6.0012752, 5.0657875 ], [ 6.0002622, 5.0641636 ], [ 5.9996399, 5.0626033 ], [ 5.9994039, 5.0614491 ], [ 5.9997043, 5.0570461 ], [ 6.000276, 5.055079 ], [ 6.0010056, 5.0536576 ], [ 6.001027, 5.0532729 ], [ 6.0007373, 5.052311 ], [ 6.0009841, 5.051595 ], [ 6.0008204, 5.0505152 ], [ 5.9995408, 5.0490545 ], [ 5.9985975, 5.0483102 ], [ 5.9972899, 5.0477706 ], [ 5.9962438, 5.0478078 ], [ 5.9944225, 5.0487754 ], [ 5.9935726, 5.0494918 ], [ 5.9926946, 5.0505617 ], [ 5.9920315, 5.0515758 ], [ 5.9919007, 5.0519852 ], [ 5.9918354, 5.052683 ], [ 5.9919848, 5.0544135 ], [ 5.9933765, 5.0590002 ], [ 5.9938927, 5.0600075 ], [ 5.9947494, 5.0606655 ], [ 5.9949923, 5.0609911 ], [ 5.9950577, 5.0614935 ], [ 5.9946654, 5.0634194 ], [ 5.9944685, 5.065427 ], [ 5.9941925, 5.0660545 ], [ 5.9934846, 5.067098 ], [ 5.9927768, 5.0678877 ], [ 5.990809, 5.0694953 ], [ 5.9901917, 5.0697001 ], [ 5.9883184, 5.0698536 ], [ 5.9871538, 5.0694792 ], [ 5.9865992, 5.0691477 ], [ 5.9858588, 5.0683214 ], [ 5.9849468, 5.0680435 ], [ 5.9844265, 5.067413 ], [ 5.9838096, 5.0661627 ], [ 5.9833923, 5.0657013 ] ] } },
{ "type": "Feature", "properties": { "waterway_id": "w903066713", "name": null, "waterway_type": "stream", "intermittent": null, "length_km": 9.541, "source_class": "OSM contextual waterway" }, "geometry": { "type": "LineString", "coordinates": [ [ 6.028479085083079, 5.03218353249804 ], [ 6.0272179, 5.0319846 ], [ 6.0262738, 5.0314502 ], [ 6.0252331, 5.0303387 ], [ 6.0241602, 5.0283722 ], [ 6.0234306, 5.0259995 ], [ 6.0248772, 5.019664 ], [ 6.0251763, 5.0177946 ], [ 6.0250762, 5.0156562 ], [ 6.0252144, 5.0142506 ], [ 6.0254579, 5.0136093 ], [ 6.0259152, 5.0129116 ], [ 6.0284502, 5.0103719 ], [ 6.0293452, 5.0093894 ], [ 6.0300274, 5.0084287 ], [ 6.0304031, 5.0074938 ], [ 6.0303529, 5.0070371 ], [ 6.030095, 5.0065997 ], [ 6.0295997, 5.0061738 ], [ 6.0280977, 5.0053187 ], [ 6.0268102, 5.0050622 ], [ 6.0255657, 5.005105 ], [ 6.0248147, 5.0053722 ], [ 6.0233985, 5.006612 ], [ 6.0224374, 5.0079873 ], [ 6.0217112, 5.010395 ], [ 6.0212029, 5.0116602 ], [ 6.0199652, 5.0134736 ], [ 6.0194181, 5.0137514 ], [ 6.0183121, 5.0134052 ], [ 6.0177613, 5.0130885 ], [ 6.0160568, 5.0124598 ], [ 6.012532, 5.0115513 ], [ 6.011602, 5.0109568 ], [ 6.0110943, 5.0099417 ], [ 6.0109256, 5.0056649 ], [ 6.0107637, 5.0052762 ], [ 6.010356, 5.0050732 ], [ 6.0098196, 5.0050304 ], [ 6.0093797, 5.0052121 ], [ 6.0076955, 5.0078381 ], [ 6.0073086, 5.0080312 ], [ 6.0060338, 5.008124 ], [ 6.0048789, 5.0077932 ], [ 6.0036182, 5.0070398 ], [ 5.9973312, 5.0045815 ], [ 5.9962476, 5.0040364 ], [ 5.995171, 5.0038911 ], [ 5.9939705, 5.0042429 ], [ 5.9934136, 5.0047617 ], [ 5.9938031, 5.0073545 ], [ 5.9937263, 5.0083223 ], [ 5.9934795, 5.0092735 ], [ 5.9932229, 5.0096155 ], [ 5.9926427, 5.0098934 ] ] } },
{ "type": "Feature", "properties": { "waterway_id": "w903185876", "name": null, "waterway_type": "stream", "intermittent": null, "length_km": 3.259, "source_class": "OSM contextual waterway" }, "geometry": { "type": "LineString", "coordinates": [ [ 5.96849118609512, 5.022377214038608 ], [ 5.9685175, 5.0227858 ], [ 5.9690767, 5.0234592 ], [ 5.9693563, 5.0240551 ], [ 5.9698766, 5.0242031 ], [ 5.9705561, 5.0252185 ], [ 5.9716497, 5.0261775 ], [ 5.9721877, 5.0263925 ], [ 5.972899, 5.026389 ], [ 5.9734972, 5.0262162 ], [ 5.9742546, 5.0263573 ], [ 5.9749097, 5.026829 ], [ 5.9761052, 5.0284372 ], [ 5.9763887, 5.0292536 ], [ 5.9769802, 5.0294992 ], [ 5.977658, 5.0292598 ], [ 5.9784763, 5.0293854 ], [ 5.9792018, 5.0292655 ], [ 5.9795062, 5.0290223 ], [ 5.9804087, 5.028846 ], [ 5.9808546, 5.0285216 ], [ 5.981297, 5.0284617 ], [ 5.9818385, 5.0281797 ], [ 5.9824402, 5.0284229 ], [ 5.9827162, 5.0284194 ], [ 5.9827516, 5.0279258 ], [ 5.9833108, 5.0278236 ], [ 5.9835019, 5.0273335 ], [ 5.9843053, 5.0267447 ], [ 5.9846628, 5.0271431 ], [ 5.9855547, 5.0274816 ], [ 5.9856431, 5.0278659 ], [ 5.9862306, 5.0280563 ], [ 5.9863581, 5.0286591 ], [ 5.9865916, 5.0287896 ], [ 5.9872216, 5.0286063 ], [ 5.9875118, 5.0286697 ], [ 5.987802, 5.0285322 ], [ 5.9878941, 5.0277425 ], [ 5.9880179, 5.0276332 ], [ 5.9888461, 5.0282572 ], [ 5.9896743, 5.0284265 ], [ 5.9900954, 5.0283665 ], [ 5.9901324, 5.02857 ] ] } },
{ "type": "Feature", "properties": { "waterway_id": "w903824413", "name": null, "waterway_type": "stream", "intermittent": null, "length_km": 0.571, "source_class": "OSM contextual waterway" }, "geometry": { "type": "LineString", "coordinates": [ [ 6.232501620454901, 5.144382197340827 ], [ 6.2317395, 5.1439357 ], [ 6.2309184, 5.1429205 ], [ 6.2307769, 5.1415106 ], [ 6.2310175, 5.1409748 ], [ 6.2314705, 5.1405659 ], [ 6.23179597104764, 5.140454924648315 ] ] } },
{ "type": "Feature", "properties": { "waterway_id": "w903936230", "name": null, "waterway_type": "stream", "intermittent": "yes", "length_km": 2.176, "source_class": "OSM contextual waterway" }, "geometry": { "type": "LineString", "coordinates": [ [ 6.3076999, 5.2288682 ], [ 6.3070221, 5.2285245 ], [ 6.3065168, 5.2279968 ], [ 6.3064059, 5.2277145 ], [ 6.3064429, 5.2271131 ], [ 6.306258, 5.2269168 ], [ 6.3057897, 5.2267449 ], [ 6.3044833, 5.2257876 ], [ 6.3040643, 5.2256404 ], [ 6.3035343, 5.2256281 ], [ 6.300367, 5.2257999 ], [ 6.2989744, 5.2257017 ], [ 6.298198, 5.2254686 ], [ 6.296337, 5.2237258 ], [ 6.2952648, 5.2232226 ], [ 6.2949197, 5.2234558 ], [ 6.294624, 5.2243149 ], [ 6.2944144, 5.2245726 ], [ 6.2934778, 5.2250267 ], [ 6.2933176, 5.2252354 ], [ 6.2932806, 5.2254317 ], [ 6.293666, 5.225926 ], [ 6.2936695, 5.2261106 ], [ 6.2931817, 5.226645 ] ] } },
{ "type": "Feature", "properties": { "waterway_id": "w903936231", "name": null, "waterway_type": "stream", "intermittent": "yes", "length_km": 0.966, "source_class": "OSM contextual waterway" }, "geometry": { "type": "LineString", "coordinates": [ [ 6.3062, 5.2192401 ], [ 6.3062467, 5.220505 ], [ 6.3062, 5.2209515 ], [ 6.3060412, 5.2211933 ], [ 6.305294, 5.2214165 ], [ 6.3037249, 5.2244115 ], [ 6.3023519, 5.2253789 ], [ 6.3015954, 5.2257608 ] ] } },
{ "type": "Feature", "properties": { "waterway_id": "w903936232", "name": null, "waterway_type": "stream", "intermittent": null, "length_km": 4.02, "source_class": "OSM contextual waterway" }, "geometry": { "type": "LineString", "coordinates": [ [ 6.3020798, 5.2407772 ], [ 6.3017388, 5.2402863 ], [ 6.3019347, 5.2389374 ], [ 6.3015565, 5.2375298 ], [ 6.3015082, 5.2367418 ], [ 6.3012561, 5.2360607 ], [ 6.3007231, 5.2352473 ], [ 6.3000279, 5.2337291 ], [ 6.2994303, 5.2330611 ], [ 6.2984058, 5.2308506 ], [ 6.2974829, 5.2295268 ], [ 6.2967471, 5.228713 ], [ 6.2943891, 5.2270936 ], [ 6.2931817, 5.226645 ], [ 6.2915189, 5.2262393 ], [ 6.2887991, 5.2258385 ], [ 6.2854532, 5.225798 ], [ 6.2813634, 5.2261665 ], [ 6.2783915, 5.2268304 ], [ 6.2778577, 5.2268424 ], [ 6.2770412, 5.2266369 ], [ 6.2768625, 5.226821 ], [ 6.2765914, 5.2278549 ], [ 6.2762634, 5.2285349 ] ] } },
{ "type": "Feature", "properties": { "waterway_id": "w903936233", "name": null, "waterway_type": "stream", "intermittent": "yes", "length_km": 1.788, "source_class": "OSM contextual waterway" }, "geometry": { "type": "LineString", "coordinates": [ [ 6.3082979, 5.2546157 ], [ 6.3063329, 5.2512174 ], [ 6.3054934, 5.2500966 ], [ 6.3041824, 5.2486997 ], [ 6.3034852, 5.2483614 ], [ 6.3029437, 5.2472935 ], [ 6.3023739, 5.2468389 ], [ 6.302158, 5.2463983 ], [ 6.3020536, 5.2438341 ], [ 6.3022077, 5.2426204 ], [ 6.3021937, 5.2421879 ], [ 6.3020022, 5.2416438 ], [ 6.3020798, 5.2407772 ] ] } },
{ "type": "Feature", "properties": { "waterway_id": "w903943123", "name": null, "waterway_type": "stream", "intermittent": "yes", "length_km": 7.317, "source_class": "OSM contextual waterway" }, "geometry": { "type": "LineString", "coordinates": [ [ 6.3437642, 5.2836906 ], [ 6.3431972, 5.2823529 ], [ 6.3429261, 5.2820462 ], [ 6.3425071, 5.2817516 ], [ 6.3407694, 5.2810399 ], [ 6.3403011, 5.2805858 ], [ 6.3399067, 5.2797513 ], [ 6.3398327, 5.2789291 ], [ 6.3403873, 5.2772233 ], [ 6.3406691, 5.2756954 ], [ 6.3404966, 5.2752659 ], [ 6.339295, 5.2736153 ], [ 6.3389745, 5.2725906 ], [ 6.3390793, 5.2723145 ], [ 6.3389635, 5.2711634 ], [ 6.3386382, 5.2707343 ], [ 6.3381179, 5.2703213 ], [ 6.3365811, 5.2696817 ], [ 6.3347435, 5.2692283 ], [ 6.331914, 5.269115 ], [ 6.3286372, 5.2681758 ], [ 6.32558, 5.267609 ], [ 6.3242058, 5.2677709 ], [ 6.3233846, 5.2681515 ], [ 6.322001, 5.2697061 ], [ 6.3215081, 5.2697552 ], [ 6.3212072, 5.2696466 ], [ 6.3210624, 5.2693902 ], [ 6.3211731, 5.2686992 ], [ 6.3206594, 5.2665601 ], [ 6.3202624, 5.2658811 ], [ 6.3197857, 5.2654358 ], [ 6.3192496, 5.2650185 ], [ 6.3164954, 5.2634702 ], [ 6.3153408, 5.2631058 ], [ 6.3142106, 5.2630005 ], [ 6.313182, 5.2629884 ], [ 6.3112509, 5.2632232 ], [ 6.308401, 5.2639721 ], [ 6.3058723, 5.2649316 ], [ 6.3050308, 5.2651097 ], [ 6.3033854, 5.2653288 ], [ 6.3001789, 5.2651173 ], [ 6.2992799, 5.265216 ], [ 6.2978218, 5.2659631 ], [ 6.2968591, 5.2666186 ], [ 6.294832054900565, 5.268357675519751 ] ] } },
{ "type": "Feature", "properties": { "waterway_id": "w903959195", "name": null, "waterway_type": "stream", "intermittent": "yes", "length_km": 3.188, "source_class": "OSM contextual waterway" }, "geometry": { "type": "LineString", "coordinates": [ [ 6.299984604122893, 5.206779913429178 ], [ 6.2989438, 5.2073345 ], [ 6.2940442, 5.2113415 ], [ 6.2932261, 5.2117978 ], [ 6.2928132, 5.2118837 ], [ 6.2923942, 5.2116934 ], [ 6.2928748, 5.2103372 ], [ 6.2928687, 5.2099199 ], [ 6.2926407, 5.2097727 ], [ 6.2902498, 5.2095763 ], [ 6.2891221, 5.2099997 ], [ 6.287865, 5.210239 ], [ 6.2829691, 5.2097423 ], [ 6.281323, 5.2100463 ], [ 6.2787323, 5.211359 ], [ 6.2766401, 5.2133029 ] ] } },
{ "type": "Feature", "properties": { "waterway_id": "w903959196", "name": null, "waterway_type": "stream", "intermittent": null, "length_km": 7.41, "source_class": "OSM contextual waterway" }, "geometry": { "type": "LineString", "coordinates": [ [ 6.2300392, 5.1972298 ], [ 6.2300991, 5.1980605 ], [ 6.230019, 5.1985821 ], [ 6.2298403, 5.1990792 ], [ 6.229298, 5.1996192 ], [ 6.229261, 5.1998709 ], [ 6.2294027, 5.2000059 ], [ 6.230666, 5.2003925 ], [ 6.2310241, 5.2007169 ], [ 6.2316126, 5.2019168 ], [ 6.2320329, 5.2033493 ], [ 6.2323504, 5.2039446 ], [ 6.2324905, 5.2057584 ], [ 6.2328828, 5.2071629 ], [ 6.2327053, 5.2079628 ], [ 6.232752, 5.2081767 ], [ 6.2347975, 5.2091627 ], [ 6.2352552, 5.2099533 ], [ 6.2351151, 5.2104928 ], [ 6.2354887, 5.2116555 ], [ 6.2353766, 5.2119159 ], [ 6.2347415, 5.2121298 ], [ 6.2344052, 5.212567 ], [ 6.2348162, 5.2130414 ], [ 6.235554, 5.2135902 ], [ 6.2359463, 5.2142506 ], [ 6.2358903, 5.2148923 ], [ 6.2353766, 5.2157016 ], [ 6.2354046, 5.2161201 ], [ 6.2366188, 5.2169386 ], [ 6.2370578, 5.2175711 ], [ 6.2380291, 5.2200453 ], [ 6.2394768, 5.2222125 ], [ 6.2402836, 5.2229791 ], [ 6.2407862, 5.2239941 ], [ 6.2410481, 5.2240717 ], [ 6.2413652, 5.2239797 ], [ 6.2432136, 5.2232257 ], [ 6.2475332, 5.2224463 ], [ 6.2485623, 5.2227777 ], [ 6.2489135, 5.2227716 ], [ 6.2519823, 5.2223543 ], [ 6.2552359, 5.2225323 ], [ 6.256456, 5.2227409 ], [ 6.2572201, 5.223152 ], [ 6.2580766, 5.2234343 ], [ 6.2611946, 5.223508 ], [ 6.2619033, 5.2236368 ], [ 6.263534, 5.2244095 ], [ 6.2648399, 5.2239323 ], [ 6.2656185, 5.2238125 ], [ 6.2675297, 5.2242601 ], [ 6.2684753, 5.224364 ], [ 6.2692808, 5.2247026 ], [ 6.2701558, 5.2256346 ], [ 6.2708844, 5.2261846 ], [ 6.2707692, 5.2279362 ] ] } },
{ "type": "Feature", "properties": { "waterway_id": "w903959197", "name": null, "waterway_type": "stream", "intermittent": "yes", "length_km": 1.1, "source_class": "OSM contextual waterway" }, "geometry": { "type": "LineString", "coordinates": [ [ 6.2255102, 5.1890082 ], [ 6.2258183, 5.1903399 ], [ 6.2262312, 5.1906467 ], [ 6.227174, 5.1927762 ], [ 6.2277535, 5.1927899 ], [ 6.2287048, 5.1937454 ], [ 6.2289243, 5.1941341 ], [ 6.2298948, 5.196588 ], [ 6.2300392, 5.1972298 ] ] } },
{ "type": "Feature", "properties": { "waterway_id": "w903959198", "name": null, "waterway_type": "stream", "intermittent": "yes", "length_km": 0.905, "source_class": "OSM contextual waterway" }, "geometry": { "type": "LineString", "coordinates": [ [ 6.2339818, 5.1924255 ], [ 6.2348518, 5.1946199 ], [ 6.2348924, 5.1950005 ], [ 6.2321686, 5.196275 ], [ 6.2308746, 5.1965757 ], [ 6.2304741, 5.1967598 ], [ 6.2300392, 5.1972298 ] ] } },
{ "type": "Feature", "properties": { "waterway_id": "w903959199", "name": null, "waterway_type": "stream", "intermittent": "yes", "length_km": 0.289, "source_class": "OSM contextual waterway" }, "geometry": { "type": "LineString", "coordinates": [ [ 6.2413652, 5.2239797 ], [ 6.2421221, 5.2243724 ], [ 6.243778708869082, 5.224945683942589 ] ] } },
{ "type": "Feature", "properties": { "waterway_id": "w903959200", "name": null, "waterway_type": "stream", "intermittent": "yes", "length_km": 1.219, "source_class": "OSM contextual waterway" }, "geometry": { "type": "LineString", "coordinates": [ [ 6.2703735, 5.2051229 ], [ 6.2711394, 5.2061275 ], [ 6.2716625, 5.2065274 ], [ 6.2722882, 5.208611 ], [ 6.2732381, 5.2095097 ], [ 6.2736405, 5.2104566 ], [ 6.2739321, 5.2106573 ], [ 6.2754452, 5.2110386 ], [ 6.2759682, 5.2118479 ], [ 6.2766401, 5.2133029 ] ] } },
{ "type": "Feature", "properties": { "waterway_id": "w903959201", "name": null, "waterway_type": "stream", "intermittent": null, "length_km": 1.668, "source_class": "OSM contextual waterway" }, "geometry": { "type": "LineString", "coordinates": [ [ 6.2766401, 5.2133029 ], [ 6.2751007, 5.2154266 ], [ 6.2729432, 5.2178728 ], [ 6.272252, 5.2189518 ], [ 6.2715422, 5.2204214 ], [ 6.2708728, 5.2214485 ], [ 6.2701982, 5.2222291 ], [ 6.2687712, 5.2233896 ], [ 6.2669037, 5.2238525 ], [ 6.266776, 5.2240404 ] ] } },
{ "type": "Feature", "properties": { "waterway_id": "w903959202", "name": null, "waterway_type": "stream", "intermittent": "yes", "length_km": 1.467, "source_class": "OSM contextual waterway" }, "geometry": { "type": "MultiLineString", "coordinates": [ [ [ 6.226544504580631, 5.119307319320724 ], [ 6.2262788, 5.1191182 ], [ 6.2250755, 5.1191182 ], [ 6.224488, 5.118949 ], [ 6.2241057, 5.1181382 ], [ 6.2219114, 5.1170807 ], [ 6.2217769, 5.116566 ], [ 6.2220671, 5.1162981 ], [ 6.2229661, 5.1161994 ], [ 6.2235324, 5.1163192 ], [ 6.2241623, 5.1166999 ], [ 6.226239392088977, 5.117347856725096 ] ], [ [ 6.225593407866592, 5.115679077750886 ], [ 6.2250613, 5.1155719 ], [ 6.2243676, 5.1152194 ], [ 6.2242048, 5.1149233 ], [ 6.2242473, 5.1146765 ], [ 6.224629103038702, 5.114422865913287 ] ] ] } },
{ "type": "Feature", "properties": { "waterway_id": "w903959203", "name": null, "waterway_type": "stream", "intermittent": null, "length_km": 12.758, "source_class": "OSM contextual waterway" }, "geometry": { "type": "LineString", "coordinates": [ [ 6.2145801, 5.1310332 ], [ 6.214272, 5.1305791 ], [ 6.2133477, 5.1298671 ], [ 6.2125712, 5.1296584 ], [ 6.2123247, 5.129462 ], [ 6.2121399, 5.1290447 ], [ 6.2122631, 5.1286396 ], [ 6.2129903, 5.1277804 ], [ 6.21336, 5.1270684 ], [ 6.2133723, 5.1262338 ], [ 6.2131258, 5.1258778 ], [ 6.2115976, 5.1248221 ], [ 6.2108335, 5.1236192 ], [ 6.2105131, 5.1227722 ], [ 6.2105008, 5.1223549 ], [ 6.210661, 5.1220357 ], [ 6.2111293, 5.1217902 ], [ 6.2125589, 5.1216675 ], [ 6.2130396, 5.1212378 ], [ 6.2129286, 5.1207837 ], [ 6.2127931, 5.1206609 ], [ 6.2117209, 5.1204645 ], [ 6.2115237, 5.1201699 ], [ 6.2113142, 5.1194457 ], [ 6.2110061, 5.1190406 ], [ 6.210698, 5.1188565 ], [ 6.2097736, 5.1186724 ], [ 6.2090835, 5.1182918 ], [ 6.208837, 5.1178377 ], [ 6.2088247, 5.1175553 ], [ 6.2084426, 5.1172116 ], [ 6.2072102, 5.1166102 ], [ 6.2058852, 5.1153755 ], [ 6.2055524, 5.114909 ], [ 6.2055278, 5.1141111 ], [ 6.2057989, 5.1138533 ], [ 6.2063411, 5.1136447 ], [ 6.2064521, 5.1129941 ], [ 6.206144, 5.1125767 ], [ 6.2057003, 5.1123435 ], [ 6.2040735, 5.1121962 ], [ 6.2037777, 5.1119507 ], [ 6.2032847, 5.1100358 ], [ 6.2024097, 5.1084768 ], [ 6.2017442, 5.1065864 ], [ 6.2015963, 5.1065741 ], [ 6.2012389, 5.106881 ], [ 6.2010417, 5.1068196 ], [ 6.2009185, 5.106525 ], [ 6.2010417, 5.1055798 ], [ 6.200746, 5.1050152 ], [ 6.2007336, 5.1045119 ], [ 6.2005611, 5.1042296 ], [ 6.2001051, 5.1042664 ], [ 6.1998586, 5.104426 ], [ 6.1990699, 5.1043769 ], [ 6.1973084, 5.1045719 ], [ 6.1951184, 5.103735 ], [ 6.194639, 5.1036026 ], [ 6.1939797, 5.1036024 ], [ 6.1934594, 5.1037948 ], [ 6.193159, 5.1040565 ], [ 6.1926923, 5.1047725 ], [ 6.1925017, 5.1057172 ], [ 6.1922202, 5.106119 ], [ 6.1916623, 5.1061938 ], [ 6.1913941, 5.1059801 ], [ 6.1912653, 5.1055954 ], [ 6.1913158, 5.1047034 ], [ 6.1907289, 5.1019193 ], [ 6.1902997, 5.1007118 ], [ 6.1899028, 5.1001133 ], [ 6.1891518, 5.0996004 ], [ 6.1881647, 5.0997393 ], [ 6.1877677, 5.1000065 ], [ 6.1871133, 5.1001026 ], [ 6.1863301, 5.1000172 ], [ 6.1846564, 5.1003912 ], [ 6.1836157, 5.1003057 ], [ 6.1824033, 5.0998569 ], [ 6.1811588, 5.0985211 ], [ 6.1797503, 5.097644 ], [ 6.1798437, 5.0971695 ], [ 6.1801146, 5.0969835 ], [ 6.1810953, 5.0969556 ], [ 6.1813381, 5.0967695 ], [ 6.1811339, 5.096225 ], [ 6.1800503, 5.0957121 ], [ 6.1799001, 5.0954556 ], [ 6.1804473, 5.0948785 ], [ 6.1804258, 5.0946327 ], [ 6.180061, 5.0942801 ], [ 6.1793529, 5.094248 ], [ 6.178677, 5.0937778 ], [ 6.1786341, 5.0935213 ], [ 6.1791381, 5.092348 ], [ 6.1791941, 5.0917992 ], [ 6.1790073, 5.0913061 ], [ 6.1783348, 5.0909712 ], [ 6.1775596, 5.0909712 ], [ 6.1766723, 5.0906456 ], [ 6.1762427, 5.0903014 ], [ 6.1761213, 5.0900409 ], [ 6.1763267, 5.0896967 ], [ 6.1767097, 5.0895199 ], [ 6.1770459, 5.0891478 ], [ 6.177186, 5.0886826 ], [ 6.1769152, 5.0884314 ], [ 6.1765322, 5.088357 ], [ 6.1756916, 5.0884314 ], [ 6.1752526, 5.0887198 ], [ 6.1746455, 5.0888966 ], [ 6.1737769, 5.0887291 ], [ 6.1729472, 5.0884995 ], [ 6.1721544, 5.0879637 ], [ 6.1717722, 5.0875547 ], [ 6.1709086, 5.086201 ], [ 6.1703338, 5.0848324 ], [ 6.1703461, 5.0843536 ], [ 6.1706727, 5.083789 ], [ 6.1709808, 5.0836785 ], [ 6.1718127, 5.0837705 ], [ 6.1721948, 5.0835864 ], [ 6.1724166, 5.0833654 ], [ 6.1725337, 5.0830217 ], [ 6.1724844, 5.0827823 ], [ 6.1715477, 5.0821317 ], [ 6.1695013, 5.0798544 ], [ 6.1679534, 5.078626 ], [ 6.1676702, 5.0781607 ], [ 6.1678967, 5.0778293 ], [ 6.1683002, 5.077653 ], [ 6.1697796, 5.077794 ], [ 6.1700621, 5.0775347 ], [ 6.1700981, 5.0772018 ], [ 6.1698433, 5.0768916 ], [ 6.1688594, 5.0765672 ], [ 6.1684559, 5.0762993 ], [ 6.1682153, 5.0759186 ], [ 6.1683002, 5.0757423 ], [ 6.1698858, 5.075425 ], [ 6.1701052, 5.0752135 ], [ 6.1702326, 5.0745225 ], [ 6.1703812, 5.074452 ], [ 6.1714784, 5.0744238 ], [ 6.1716412, 5.0740431 ], [ 6.1718111, 5.0739655 ], [ 6.1727242, 5.0742617 ], [ 6.1730427, 5.0741912 ], [ 6.1733612, 5.0740008 ], [ 6.1734904, 5.0736859 ] ] } },
{ "type": "Feature", "properties": { "waterway_id": "w903959204", "name": null, "waterway_type": "stream", "intermittent": "yes", "length_km": 3.031, "source_class": "OSM contextual waterway" }, "geometry": { "type": "LineString", "coordinates": [ [ 6.2027022, 5.1350458 ], [ 6.2035176, 5.1345543 ], [ 6.2033459, 5.1339238 ], [ 6.2035497, 5.1334323 ], [ 6.2032601, 5.1330796 ], [ 6.2033137, 5.13293 ], [ 6.2038609, 5.1325453 ], [ 6.2041076, 5.1321927 ], [ 6.204451, 5.1321286 ], [ 6.204687, 5.1319469 ], [ 6.2046977, 5.131808 ], [ 6.2041827, 5.1315195 ], [ 6.2042793, 5.1313699 ], [ 6.2048908, 5.1312417 ], [ 6.204805, 5.1307287 ], [ 6.2043329, 5.1300235 ], [ 6.2043866, 5.1297991 ], [ 6.2046548, 5.1297029 ], [ 6.2047299, 5.1295212 ], [ 6.2045583, 5.1290511 ], [ 6.2053307, 5.128816 ], [ 6.2056311, 5.1285916 ], [ 6.2058457, 5.1282603 ], [ 6.205835, 5.1278756 ], [ 6.2057277, 5.1277367 ], [ 6.2059637, 5.1274589 ], [ 6.206189, 5.1274589 ], [ 6.2076589, 5.1281855 ], [ 6.2082919, 5.1278756 ], [ 6.2085065, 5.1273841 ], [ 6.2085172, 5.1269032 ], [ 6.2083992, 5.1265719 ], [ 6.2080237, 5.1264116 ], [ 6.2071224, 5.1264651 ], [ 6.2067577, 5.1263155 ], [ 6.2066396, 5.1252041 ], [ 6.2067577, 5.1246164 ], [ 6.2073263, 5.1234303 ], [ 6.2076267, 5.1230349 ], [ 6.2081095, 5.122725 ], [ 6.2081524, 5.1223617 ], [ 6.2080129, 5.1222014 ], [ 6.2070688, 5.1218594 ], [ 6.2070366, 5.1216671 ], [ 6.207219, 5.1213251 ], [ 6.2077018, 5.1210259 ], [ 6.2091717, 5.1204916 ], [ 6.2092789, 5.1203206 ], [ 6.2093648, 5.1192734 ], [ 6.2097736, 5.1186724 ] ] } },
{ "type": "Feature", "properties": { "waterway_id": "w903959205", "name": null, "waterway_type": "stream", "intermittent": "yes", "length_km": 1.182, "source_class": "OSM contextual waterway" }, "geometry": { "type": "LineString", "coordinates": [ [ 6.2092789, 5.1200855 ], [ 6.2079057, 5.1190704 ], [ 6.2066933, 5.1183651 ], [ 6.2053093, 5.1179911 ], [ 6.204172, 5.1178415 ], [ 6.2034961, 5.1175636 ], [ 6.2034103, 5.1173392 ], [ 6.203657, 5.1163989 ], [ 6.203936, 5.1162706 ], [ 6.2051483, 5.1165271 ], [ 6.2057384, 5.1160142 ], [ 6.2058852, 5.1153755 ] ] } },
{ "type": "Feature", "properties": { "waterway_id": "w903959206", "name": null, "waterway_type": "stream", "intermittent": "yes", "length_km": 0.776, "source_class": "OSM contextual waterway" }, "geometry": { "type": "LineString", "coordinates": [ [ 6.1984177, 5.1290489 ], [ 6.1992116, 5.1284504 ], [ 6.19963, 5.1285039 ], [ 6.2002737, 5.1289206 ], [ 6.2005634, 5.1288886 ], [ 6.2010999, 5.1283329 ], [ 6.2017758, 5.1282154 ], [ 6.2030632, 5.1287176 ], [ 6.2041147, 5.1287176 ], [ 6.2043722, 5.1290168 ], [ 6.2045583, 5.1290511 ] ] } },
{ "type": "Feature", "properties": { "waterway_id": "w903959208", "name": null, "waterway_type": "stream", "intermittent": "yes", "length_km": 1.041, "source_class": "OSM contextual waterway" }, "geometry": { "type": "LineString", "coordinates": [ [ 6.2000675, 5.1083187 ], [ 6.1990307, 5.1077791 ], [ 6.1986291, 5.1066441 ], [ 6.1983676, 5.1062255 ], [ 6.1971814, 5.1056022 ], [ 6.1957897, 5.1052394 ], [ 6.1950145, 5.1055278 ], [ 6.1944354, 5.1055929 ], [ 6.1940805, 5.1054999 ], [ 6.1935108, 5.1051371 ], [ 6.1932119, 5.1051092 ], [ 6.1928943, 5.1052022 ], [ 6.1925017, 5.1057172 ] ] } },
{ "type": "Feature", "properties": { "waterway_id": "w903959209", "name": null, "waterway_type": "stream", "intermittent": null, "length_km": 1.812, "source_class": "OSM contextual waterway" }, "geometry": { "type": "LineString", "coordinates": [ [ 6.1958181, 5.1039662 ], [ 6.196361, 5.1011821 ], [ 6.1966781, 5.1009716 ], [ 6.1969464, 5.1009959 ], [ 6.1974912, 5.1003642 ], [ 6.197914, 5.1002022 ], [ 6.1989792, 5.1002994 ], [ 6.2005403, 5.1023484 ], [ 6.2012558, 5.1024779 ], [ 6.202012, 5.1020892 ], [ 6.2023698, 5.1013522 ], [ 6.2024023, 5.1008906 ], [ 6.2019144, 5.0993032 ], [ 6.2016868, 5.0979507 ], [ 6.2019144, 5.0971733 ], [ 6.2022072, 5.0967197 ], [ 6.202765082454123, 5.096468700051196 ] ] } },
{ "type": "Feature", "properties": { "waterway_id": "w906130194", "name": null, "waterway_type": "stream", "intermittent": "yes", "length_km": 4.022, "source_class": "OSM contextual waterway" }, "geometry": { "type": "LineString", "coordinates": [ [ 6.2166815, 5.161416 ], [ 6.2167384, 5.1616347 ], [ 6.2173157, 5.1621934 ], [ 6.2173388, 5.1627776 ], [ 6.2166875, 5.1631583 ], [ 6.2163265, 5.1637152 ], [ 6.2158907, 5.1648996 ], [ 6.2156223, 5.1652235 ], [ 6.2152402, 5.1654179 ], [ 6.2146792, 5.1654422 ], [ 6.2144759, 5.1656932 ], [ 6.214484, 5.166009 ], [ 6.2146222, 5.1662439 ], [ 6.2156467, 5.1671022 ], [ 6.216533, 5.1675719 ], [ 6.2181917, 5.1681793 ], [ 6.2207774, 5.1700742 ], [ 6.2232636, 5.1716738 ], [ 6.22343, 5.1718518 ], [ 6.2236218, 5.172502 ], [ 6.2236754, 5.1731325 ], [ 6.2235145, 5.1733889 ], [ 6.223021, 5.1736133 ], [ 6.2223129, 5.173859 ], [ 6.2216369, 5.173859 ], [ 6.2207244, 5.1733561 ], [ 6.2200333, 5.1725302 ], [ 6.2189844, 5.1725787 ], [ 6.2176346, 5.171858 ], [ 6.2172687, 5.1718499 ], [ 6.2169923, 5.1719228 ], [ 6.2164069, 5.1723844 ], [ 6.2157157, 5.1731942 ], [ 6.2151625, 5.1735565 ], [ 6.2141631, 5.1737518 ], [ 6.2137802, 5.1744309 ], [ 6.2138175, 5.1748309 ], [ 6.2151046, 5.1773104 ], [ 6.2156282, 5.1777392 ], [ 6.2163984, 5.1789359 ], [ 6.2166018, 5.1794453 ] ] } },
{ "type": "Feature", "properties": { "waterway_id": "w906130195", "name": null, "waterway_type": "stream", "intermittent": "yes", "length_km": 1.433, "source_class": "OSM contextual waterway" }, "geometry": { "type": "LineString", "coordinates": [ [ 6.207081, 5.1714264 ], [ 6.2079869, 5.1729891 ], [ 6.2105461, 5.1724868 ], [ 6.2118957, 5.1724263 ], [ 6.2122413, 5.1722868 ], [ 6.2124001, 5.1717101 ], [ 6.2127597, 5.171231 ], [ 6.2135396, 5.1710264 ], [ 6.2143241, 5.1702822 ], [ 6.2148145, 5.1700543 ], [ 6.215146, 5.1701474 ], [ 6.2157905, 5.1709659 ], [ 6.2166638, 5.171259 ], [ 6.2169923, 5.1719228 ] ] } },
{ "type": "Feature", "properties": { "waterway_id": "w906130196", "name": null, "waterway_type": "stream", "intermittent": "yes", "length_km": 1.379, "source_class": "OSM contextual waterway" }, "geometry": { "type": "LineString", "coordinates": [ [ 6.2438508, 5.1748966 ], [ 6.2437375, 5.1745582 ], [ 6.2438083, 5.174107 ], [ 6.2433553, 5.173966 ], [ 6.2428103, 5.1735219 ], [ 6.2418547, 5.1722318 ], [ 6.2412247, 5.1709136 ], [ 6.2403682, 5.170554 ], [ 6.2397949, 5.1700676 ], [ 6.2392428, 5.1686013 ], [ 6.2392576, 5.1667309 ], [ 6.2396827, 5.1665857 ], [ 6.2405816, 5.1669804 ], [ 6.241259314468042, 5.166668114834285 ] ] } },
{ "type": "Feature", "properties": { "waterway_id": "w909381336", "name": null, "waterway_type": "stream", "intermittent": null, "length_km": 1.507, "source_class": "OSM contextual waterway" }, "geometry": { "type": "LineString", "coordinates": [ [ 6.4712067, 5.2575341 ], [ 6.4713868, 5.2560905 ], [ 6.4709434, 5.2555819 ], [ 6.470848, 5.2541733 ], [ 6.4703977, 5.2532079 ], [ 6.4705162, 5.2523155 ], [ 6.4712658, 5.2516184 ], [ 6.4713266, 5.2508342 ], [ 6.4715753, 5.2503214 ], [ 6.4724119, 5.2495745 ], [ 6.4729267, 5.249334 ], [ 6.4733871, 5.2486905 ], [ 6.4738578, 5.2484915 ], [ 6.4740448, 5.2473807 ], [ 6.474393, 5.2470853 ], [ 6.4750571, 5.2472073 ], [ 6.475307634818252, 5.246977915523125 ] ] } },
{ "type": "Feature", "properties": { "waterway_id": "w945422067", "name": null, "waterway_type": "stream", "intermittent": null, "length_km": 10.015, "source_class": "OSM contextual waterway" }, "geometry": { "type": "MultiLineString", "coordinates": [ [ [ 6.447639380679667, 5.226652521618964 ], [ 6.447380874614272, 5.226361152480406 ] ], [ [ 6.445251197939582, 5.223960727247844 ], [ 6.4449843, 5.2246327 ], [ 6.4431947, 5.2258471 ], [ 6.4420834, 5.2263969 ], [ 6.441595, 5.226552 ], [ 6.4397651, 5.2266569 ], [ 6.4390502, 5.2265865 ], [ 6.4386821, 5.2264032 ], [ 6.4376274, 5.2256137 ], [ 6.4371107, 5.2240559 ], [ 6.4372582, 5.2232889 ], [ 6.4373869, 5.2230912 ], [ 6.4378376, 5.2228348 ], [ 6.4379234, 5.2225997 ], [ 6.4378483, 5.2224715 ], [ 6.4371402, 5.2221777 ], [ 6.4361246, 5.2215445 ], [ 6.4353587, 5.2212562 ], [ 6.4340978, 5.2214236 ], [ 6.4338083, 5.2213492 ], [ 6.4326968, 5.2205214 ], [ 6.4322952, 5.2200842 ], [ 6.4321178, 5.2197122 ], [ 6.4318095, 5.2194704 ], [ 6.43152, 5.2187821 ], [ 6.43152, 5.2182147 ], [ 6.432185530445585, 5.217050261419265 ] ], [ [ 6.422769276331855, 5.213135191877711 ], [ 6.4223243, 5.2136751 ], [ 6.4219909, 5.2143229 ], [ 6.4217632, 5.2154808 ], [ 6.4217632, 5.216501 ], [ 6.4209664, 5.2177723 ], [ 6.4206005, 5.2180557 ], [ 6.4201371, 5.2181934 ], [ 6.4196817, 5.2182258 ], [ 6.4189337, 5.2180719 ], [ 6.4183157, 5.2182743 ], [ 6.4174945, 5.2182581 ], [ 6.417088, 5.2178128 ], [ 6.4170961, 5.2175861 ], [ 6.4175026, 5.2169545 ], [ 6.4176896, 5.2164282 ], [ 6.4174864, 5.2153431 ], [ 6.4171449, 5.2147682 ], [ 6.4164626, 5.2145926 ], [ 6.4154159, 5.214712 ], [ 6.4137299, 5.2147034 ], [ 6.413242, 5.2145982 ], [ 6.4128273, 5.2143634 ], [ 6.412372, 5.2140314 ], [ 6.4113917, 5.2129595 ], [ 6.4088788, 5.211876 ], [ 6.4061549, 5.2099142 ], [ 6.4051954, 5.2097279 ], [ 6.4043688, 5.2091065 ], [ 6.4038728, 5.2084021 ], [ 6.4038159, 5.2071955 ], [ 6.4034418, 5.2068716 ], [ 6.4029784, 5.2069688 ], [ 6.4027182, 5.2075275 ], [ 6.4031816, 5.2092037 ], [ 6.4030109, 5.2097057 ], [ 6.4026775, 5.2101754 ], [ 6.4020433, 5.2104669 ], [ 6.4013766, 5.2103778 ], [ 6.4010839, 5.2098272 ], [ 6.4011489, 5.2090417 ], [ 6.4010595, 5.208483 ], [ 6.4008643, 5.2081429 ], [ 6.4006367, 5.2079972 ], [ 6.4003358, 5.2080134 ], [ 6.4001244, 5.2082239 ], [ 6.4000919, 5.2084344 ], [ 6.4004578, 5.2107503 ], [ 6.4003521, 5.2113333 ], [ 6.400035, 5.2117463 ], [ 6.399025, 5.2122775 ], [ 6.398113, 5.2132225 ], [ 6.3974844, 5.2134066 ], [ 6.3966217, 5.2134496 ], [ 6.3958022, 5.2129464 ], [ 6.3943911, 5.2129587 ], [ 6.3941569, 5.2128482 ], [ 6.3939289, 5.2125352 ], [ 6.393855, 5.2120443 ], [ 6.3941569, 5.2115656 ], [ 6.3947978, 5.2111299 ], [ 6.3949641, 5.2108108 ], [ 6.3947115, 5.2091724 ], [ 6.394767, 5.2087121 ], [ 6.3952353, 5.2074234 ], [ 6.3952476, 5.2060488 ], [ 6.3962643, 5.205024 ], [ 6.3963383, 5.204754 ], [ 6.3963136, 5.2044778 ], [ 6.3959624, 5.2040114 ], [ 6.3954694, 5.2039746 ], [ 6.3951737, 5.2041648 ], [ 6.3948779, 5.2053369 ], [ 6.394311, 5.2056867 ], [ 6.3937872, 5.205607 ], [ 6.3934852, 5.2048337 ], [ 6.3933189, 5.2036555 ], [ 6.3935407, 5.2032689 ], [ 6.3940953, 5.2029436 ], [ 6.3942247, 5.2022993 ], [ 6.3935061, 5.2012119 ], [ 6.393422800577863, 5.200865806436294 ] ] ] } },
{ "type": "Feature", "properties": { "waterway_id": "w947881350", "name": null, "waterway_type": "stream", "intermittent": null, "length_km": 3.251, "source_class": "OSM contextual waterway" }, "geometry": { "type": "MultiLineString", "coordinates": [ [ [ 6.5302082, 5.3365929 ], [ 6.5298641, 5.3351007 ], [ 6.5293511, 5.3343916 ], [ 6.5292972, 5.3330576 ], [ 6.5281017, 5.3307384 ], [ 6.5276447, 5.3295926 ], [ 6.5275276, 5.3291447 ], [ 6.5275687, 5.3286846 ], [ 6.5276941, 5.3285095 ], [ 6.5284013, 5.3282281 ], [ 6.5294787, 5.3284428 ], [ 6.5301605, 5.3281498 ], [ 6.5307863, 5.328187 ], [ 6.5319118, 5.3273036 ], [ 6.5321873, 5.3268572 ], [ 6.5321126, 5.3266712 ], [ 6.5310427, 5.3261129 ], [ 6.5308486, 5.3256895 ], [ 6.5309256, 5.3254318 ], [ 6.5304367, 5.3250896 ], [ 6.5301098, 5.3245595 ], [ 6.5296644, 5.323192 ], [ 6.5296483, 5.322332 ], [ 6.529262, 5.3217178 ], [ 6.5291408, 5.3212716 ], [ 6.52931, 5.3196549 ], [ 6.5289745, 5.3188726 ], [ 6.5289744, 5.3178111 ], [ 6.528503110622371, 5.316304458196278 ] ], [ [ 6.518603608890825, 5.29985581154546 ], [ 6.5173404, 5.299355 ], [ 6.5166337, 5.2986513 ], [ 6.5166513, 5.2983693 ], [ 6.5169953, 5.2982506 ], [ 6.517170161761619, 5.297993572313868 ] ] ] } },
{ "type": "Feature", "properties": { "waterway_id": "w947881351", "name": null, "waterway_type": "stream", "intermittent": null, "length_km": 0.661, "source_class": "OSM contextual waterway" }, "geometry": { "type": "LineString", "coordinates": [ [ 6.5293511, 5.3343916 ], [ 6.5285066, 5.3344764 ], [ 6.5284253, 5.3347233 ], [ 6.528157, 5.3347355 ], [ 6.5277585, 5.3350229 ], [ 6.5273154, 5.3344845 ], [ 6.5269942, 5.3342902 ], [ 6.5257841, 5.3348238 ], [ 6.5253034, 5.3346612 ], [ 6.5250231, 5.3348238 ], [ 6.5249769, 5.3353146 ], [ 6.5248238, 5.3355322 ] ] } },
{ "type": "Feature", "properties": { "waterway_id": "w947881352", "name": null, "waterway_type": "stream", "intermittent": null, "length_km": 1.489, "source_class": "OSM contextual waterway" }, "geometry": { "type": "LineString", "coordinates": [ [ 6.5341019, 5.3446868 ], [ 6.5349053, 5.3443891 ], [ 6.5354657, 5.3445286 ], [ 6.5357926, 5.3443612 ], [ 6.5360355, 5.3439986 ], [ 6.5369942, 5.3438373 ], [ 6.5372915, 5.3432805 ], [ 6.5371004, 5.3424418 ], [ 6.5371854, 5.3422304 ], [ 6.5381693, 5.3415256 ], [ 6.5383391, 5.341575 ], [ 6.5382967, 5.3419696 ], [ 6.5385161, 5.3421035 ], [ 6.5396486, 5.3417018 ], [ 6.5405547, 5.3419485 ], [ 6.5408449, 5.3418851 ], [ 6.5414324, 5.3413353 ], [ 6.5416447, 5.3412719 ], [ 6.54248, 5.3416384 ], [ 6.54424432543213, 5.341043994386302 ] ] } },
{ "type": "Feature", "properties": { "waterway_id": "w947923983", "name": null, "waterway_type": "stream", "intermittent": null, "length_km": 6.839, "source_class": "OSM contextual waterway" }, "geometry": { "type": "LineString", "coordinates": [ [ 6.4726822, 5.2607892 ], [ 6.4724971, 5.2605605 ], [ 6.4724489, 5.260236 ], [ 6.4721378, 5.2599041 ], [ 6.4719396, 5.2591352 ], [ 6.4716236, 5.2586408 ], [ 6.4712067, 5.2575341 ], [ 6.4704769, 5.2567147 ], [ 6.469945, 5.2565196 ], [ 6.4695196, 5.2565365 ], [ 6.4690006, 5.256867 ], [ 6.4690206, 5.2564141 ], [ 6.4689042, 5.2562787 ], [ 6.468291, 5.2563112 ], [ 6.4679286, 5.2565874 ], [ 6.4676648, 5.2566467 ], [ 6.4672151, 5.2557758 ], [ 6.4667478, 5.255485 ], [ 6.4655993, 5.2557632 ], [ 6.4645388, 5.25553 ], [ 6.4639948, 5.2557119 ], [ 6.4638055, 5.2559987 ], [ 6.4639469, 5.2565535 ], [ 6.4639044, 5.2568077 ], [ 6.4636151, 5.2571296 ], [ 6.4623123, 5.2577241 ], [ 6.4623832, 5.2584753 ], [ 6.4627959, 5.2591366 ], [ 6.4627766, 5.2593357 ], [ 6.4626798, 5.2595989 ], [ 6.461714, 5.2606303 ], [ 6.4615772, 5.2616034 ], [ 6.4617238, 5.2620316 ], [ 6.4631018, 5.2627713 ], [ 6.4633657, 5.2630632 ], [ 6.4634145, 5.2640461 ], [ 6.4635416, 5.2644062 ], [ 6.4638543, 5.2646495 ], [ 6.4651541, 5.2651458 ], [ 6.4655451, 5.2654962 ], [ 6.465848, 5.2662163 ], [ 6.4658773, 5.2668878 ], [ 6.465721, 5.2677831 ], [ 6.4653985, 5.268406 ], [ 6.4649978, 5.268659 ], [ 6.464255, 5.2686979 ], [ 6.4624617, 5.2684903 ], [ 6.4619432, 5.268623 ], [ 6.4618321, 5.2688738 ], [ 6.4619654, 5.2692868 ], [ 6.4621654, 5.2694712 ], [ 6.4629505, 5.2695597 ], [ 6.4636097, 5.2699653 ], [ 6.4648298, 5.271696 ], [ 6.4660963, 5.2724852 ], [ 6.4668444, 5.2733038 ], [ 6.4672592, 5.2735177 ], [ 6.4686368, 5.2735841 ], [ 6.4691849, 5.2740339 ], [ 6.4696297, 5.2746995 ], [ 6.4698767, 5.2753143 ], [ 6.4696578, 5.2764545 ], [ 6.4696915, 5.2771197 ], [ 6.4702977, 5.2779301 ], [ 6.4708216, 5.2781835 ], [ 6.4715763, 5.2796534 ], [ 6.4719956, 5.2799535 ], [ 6.4719611, 5.2805638 ], [ 6.4729857, 5.2807274 ], [ 6.4732128, 5.2809535 ], [ 6.4733727, 5.2812263 ], [ 6.4732888, 5.2823011 ], [ 6.4735041, 5.2827592 ], [ 6.4747844, 5.2830841 ], [ 6.4754148, 5.2836874 ], [ 6.4760403, 5.2835317 ], [ 6.4766413, 5.2830792 ], [ 6.4770518, 5.2830972 ], [ 6.4774036, 5.2832398 ], [ 6.4777115, 5.2835415 ], [ 6.4776724, 5.2841789 ], [ 6.4779216, 5.2843638 ], [ 6.4781903, 5.2842713 ], [ 6.4789722, 5.2836096 ], [ 6.4795408, 5.2834878 ] ] } },
{ "type": "Feature", "properties": { "waterway_id": "w947923986", "name": null, "waterway_type": "river", "intermittent": null, "length_km": 3.401, "source_class": "OSM contextual waterway" }, "geometry": { "type": "LineString", "coordinates": [ [ 6.5046658, 5.3019613 ], [ 6.5050592, 5.302044 ], [ 6.5066096, 5.3030205 ], [ 6.5071899, 5.3031318 ], [ 6.5090139, 5.3028495 ], [ 6.5094822, 5.3028986 ], [ 6.509778, 5.3032177 ], [ 6.5103942, 5.308433 ], [ 6.5103482, 5.3097736 ], [ 6.5097506, 5.3107597 ], [ 6.5087422, 5.3116892 ], [ 6.5079257, 5.3122263 ], [ 6.5072547, 5.3125193 ], [ 6.5062407, 5.312153 ], [ 6.5059424, 5.3121896 ], [ 6.5052826, 5.3126693 ], [ 6.5048701, 5.3135309 ], [ 6.5042886, 5.3142242 ], [ 6.5035538, 5.314654 ], [ 6.5027516, 5.3147301 ], [ 6.5019879, 5.3151307 ], [ 6.5017637, 5.3153725 ], [ 6.5016703, 5.3157352 ], [ 6.5015676, 5.3164699 ], [ 6.5016797, 5.3170558 ], [ 6.5016236, 5.3173534 ], [ 6.5012407, 5.3175487 ], [ 6.5005402, 5.3174278 ], [ 6.4972219, 5.3199271 ] ] } },
{ "type": "Feature", "properties": { "waterway_id": "w947923987", "name": null, "waterway_type": "stream", "intermittent": null, "length_km": 2.519, "source_class": "OSM contextual waterway" }, "geometry": { "type": "LineString", "coordinates": [ [ 6.516113313755491, 5.296620579741428 ], [ 6.515794, 5.2970671 ], [ 6.5153394, 5.2971313 ], [ 6.5139474, 5.296305 ], [ 6.5134316, 5.2961798 ], [ 6.5117457, 5.2952233 ], [ 6.5107622, 5.2943404 ], [ 6.5105333, 5.2937915 ], [ 6.509392, 5.2929087 ], [ 6.5076318, 5.2908606 ], [ 6.5062423, 5.2897659 ], [ 6.5058425, 5.2891977 ], [ 6.5057974, 5.2888735 ], [ 6.5059973, 5.2884401 ], [ 6.5066711, 5.2881962 ], [ 6.5073706, 5.2876633 ], [ 6.5076705, 5.2872171 ], [ 6.5077317, 5.2868062 ], [ 6.5071989, 5.2853632 ], [ 6.5074031, 5.2847702 ], [ 6.5070458, 5.2841983 ], [ 6.5076355, 5.2831806 ], [ 6.5082725, 5.2829704 ], [ 6.508974260952721, 5.282333460704543 ] ] } },
{ "type": "Feature", "properties": { "waterway_id": "w949198469", "name": null, "waterway_type": "stream", "intermittent": null, "length_km": 0.966, "source_class": "OSM contextual waterway" }, "geometry": { "type": "LineString", "coordinates": [ [ 6.4356898, 5.2462295 ], [ 6.43597, 5.2466713 ], [ 6.4360493, 5.2470479 ], [ 6.4357371, 5.2479279 ], [ 6.4358819, 5.2482698 ], [ 6.4362735, 5.2484408 ], [ 6.4365203, 5.2488521 ], [ 6.4370245, 5.2491459 ], [ 6.4373732, 5.249648 ], [ 6.4383496, 5.2502463 ], [ 6.4387519, 5.2510904 ], [ 6.439578, 5.2516299 ], [ 6.4398301, 5.2520412 ], [ 6.4404055, 5.252542 ] ] } },
{ "type": "Feature", "properties": { "waterway_id": "w949198470", "name": null, "waterway_type": "stream", "intermittent": null, "length_km": 10.428, "source_class": "OSM contextual waterway" }, "geometry": { "type": "LineString", "coordinates": [ [ 6.4256773, 5.2675627 ], [ 6.4260635, 5.2674132 ], [ 6.4271531, 5.2680443 ], [ 6.4273442, 5.268298 ], [ 6.4279388, 5.2706733 ], [ 6.4285617, 5.2714839 ], [ 6.4293545, 5.2720407 ], [ 6.4313365, 5.2727597 ], [ 6.4323416, 5.2727949 ], [ 6.4327946, 5.2725976 ], [ 6.4332618, 5.2719139 ], [ 6.4330636, 5.2709764 ], [ 6.4327451, 5.2705606 ], [ 6.4304941, 5.2689606 ], [ 6.4296077, 5.2672482 ], [ 6.4292644, 5.2658487 ], [ 6.4296399, 5.2645186 ], [ 6.4301119, 5.2639897 ], [ 6.4306806, 5.2637226 ], [ 6.4332609, 5.2634181 ], [ 6.4335076, 5.2632953 ], [ 6.4337705, 5.2628199 ], [ 6.4338992, 5.2602611 ], [ 6.4344571, 5.2591554 ], [ 6.434897, 5.2588776 ], [ 6.4358626, 5.2585785 ], [ 6.4372305, 5.2577932 ], [ 6.4381693, 5.2574139 ], [ 6.4385609, 5.2574246 ], [ 6.4392958, 5.2580336 ], [ 6.4397793, 5.2590673 ], [ 6.4400455, 5.2601044 ], [ 6.4406993, 5.2618203 ], [ 6.4409375, 5.2619319 ], [ 6.4413484, 5.2618157 ], [ 6.4415306, 5.2616111 ], [ 6.4414605, 5.2610763 ], [ 6.4415427, 5.2596368 ], [ 6.4418138, 5.2587102 ], [ 6.4441862, 5.2553292 ], [ 6.444063, 5.2547585 ], [ 6.4438781, 5.2546174 ], [ 6.4434406, 5.2545622 ], [ 6.4414195, 5.2552924 ], [ 6.4408341, 5.2551819 ], [ 6.4402979, 5.2545315 ], [ 6.4401377, 5.2537522 ], [ 6.4404055, 5.252542 ], [ 6.4412839, 5.2521138 ], [ 6.4418077, 5.2522979 ], [ 6.4420973, 5.2533104 ], [ 6.442658, 5.2535068 ], [ 6.4439652, 5.252975 ], [ 6.4444042, 5.2522787 ], [ 6.4445525, 5.2507921 ], [ 6.4443594, 5.2501084 ], [ 6.4435547, 5.2488049 ], [ 6.4429754, 5.2472665 ], [ 6.4431148, 5.246572 ], [ 6.4437693, 5.2456212 ], [ 6.4438842, 5.2451742 ], [ 6.4438103, 5.2446404 ], [ 6.443393, 5.244207 ], [ 6.4427765, 5.2439652 ], [ 6.4421691, 5.2440049 ], [ 6.4419638, 5.2438639 ], [ 6.4417161, 5.2432084 ], [ 6.4414966, 5.2430251 ], [ 6.4411781, 5.2429758 ], [ 6.4406048, 5.2432295 ], [ 6.4399252, 5.2432295 ], [ 6.4391395, 5.2422638 ], [ 6.4386794, 5.2413404 ], [ 6.4388648, 5.2406367 ], [ 6.4386126, 5.2394555 ], [ 6.4387464, 5.2391981 ], [ 6.4389717, 5.2391126 ], [ 6.4405274, 5.2394545 ], [ 6.4409029, 5.239337 ], [ 6.4415145, 5.2387601 ], [ 6.4418149, 5.2381084 ], [ 6.4419827, 5.2373311 ], [ 6.4418584, 5.2363987 ], [ 6.4410752, 5.2350632 ], [ 6.4406353, 5.2334392 ], [ 6.4405388, 5.2319541 ], [ 6.4407426, 5.2310246 ], [ 6.4411825, 5.2302981 ], [ 6.4418477, 5.2302767 ], [ 6.4425236, 5.2298814 ], [ 6.4432317, 5.2285138 ], [ 6.4433176, 5.227798 ], [ 6.4432103, 5.2270608 ], [ 6.4428991, 5.226783 ], [ 6.4417344, 5.2265077 ] ] } },
{ "type": "Feature", "properties": { "waterway_id": "w949198471", "name": null, "waterway_type": "stream", "intermittent": null, "length_km": 0.015, "source_class": "OSM contextual waterway" }, "geometry": { "type": "LineString", "coordinates": [ [ 6.4255566, 5.2676135 ], [ 6.4256773, 5.2675627 ] ] } },
{ "type": "Feature", "properties": { "waterway_id": "w949198472", "name": null, "waterway_type": "stream", "intermittent": null, "length_km": 1.707, "source_class": "OSM contextual waterway" }, "geometry": { "type": "LineString", "coordinates": [ [ 6.4268293, 5.2815602 ], [ 6.4270651, 5.2810542 ], [ 6.4269241, 5.280545 ], [ 6.4270652, 5.279245 ], [ 6.4274041, 5.2782387 ], [ 6.4274102, 5.2774164 ], [ 6.4269727, 5.2768274 ], [ 6.4258143, 5.276134 ], [ 6.4255061, 5.2757843 ], [ 6.4254137, 5.2755266 ], [ 6.4254319, 5.2731298 ], [ 6.4249182, 5.272223 ], [ 6.4249929, 5.2693106 ], [ 6.4255297, 5.2684521 ], [ 6.4254627, 5.2677791 ], [ 6.4255566, 5.2676135 ] ] } },
{ "type": "Feature", "properties": { "waterway_id": "w949198473", "name": null, "waterway_type": "stream", "intermittent": "yes", "length_km": 2.714, "source_class": "OSM contextual waterway" }, "geometry": { "type": "LineString", "coordinates": [ [ 6.423905, 5.262634 ], [ 6.4241812, 5.2622895 ], [ 6.4245272, 5.2622681 ], [ 6.4250932, 5.2619636 ], [ 6.4252326, 5.261547 ], [ 6.4257142, 5.2610669 ], [ 6.4262257, 5.2599194 ], [ 6.4266909, 5.2596586 ], [ 6.4275752, 5.2594377 ], [ 6.4277416, 5.2590757 ], [ 6.4281657, 5.2588687 ], [ 6.4286506, 5.2583225 ], [ 6.4288948, 5.2576423 ], [ 6.4289089, 5.2572194 ], [ 6.428647, 5.2562608 ], [ 6.4288594, 5.2557392 ], [ 6.4291624, 5.2555305 ], [ 6.4293657, 5.2550366 ], [ 6.4297967, 5.2548301 ], [ 6.43077, 5.2538519 ], [ 6.42995, 5.2521729 ], [ 6.4300761, 5.2518288 ], [ 6.4306692, 5.2517684 ], [ 6.4320421, 5.2526798 ], [ 6.4321449, 5.2534611 ], [ 6.4327016, 5.2539318 ], [ 6.4327626, 5.2542233 ], [ 6.4331406, 5.2547334 ], [ 6.4332911, 5.2552637 ], [ 6.4339253, 5.2559762 ], [ 6.4344822, 5.2563325 ], [ 6.4348522, 5.2569843 ], [ 6.435584, 5.2577089 ], [ 6.4359524, 5.258258 ], [ 6.4362764, 5.2583503 ] ] } },
{ "type": "Feature", "properties": { "waterway_id": "w949198474", "name": null, "waterway_type": "stream", "intermittent": "yes", "length_km": 0.409, "source_class": "OSM contextual waterway" }, "geometry": { "type": "LineString", "coordinates": [ [ 6.4216378, 5.2656056 ], [ 6.4219634, 5.2650065 ], [ 6.4220129, 5.2646294 ], [ 6.422788, 5.2641501 ], [ 6.4236743, 5.2627222 ] ] } },
{ "type": "Feature", "properties": { "waterway_id": "w949198475", "name": null, "waterway_type": "stream", "intermittent": "yes", "length_km": 0.027, "source_class": "OSM contextual waterway" }, "geometry": { "type": "LineString", "coordinates": [ [ 6.4236743, 5.2627222 ], [ 6.423905, 5.262634 ] ] } },
{ "type": "Feature", "properties": { "waterway_id": "w956121759", "name": null, "waterway_type": "river", "intermittent": null, "length_km": 4.189, "source_class": "OSM contextual waterway" }, "geometry": { "type": "LineString", "coordinates": [ [ 6.51007153372003, 5.366743942927734 ], [ 6.5111417, 5.3642215 ], [ 6.5122963, 5.3593319 ], [ 6.5126378, 5.3533251 ], [ 6.5128004, 5.3473021 ], [ 6.5125565, 5.3431086 ], [ 6.5120949, 5.3393632 ], [ 6.5114995, 5.336713 ], [ 6.5104912, 5.3353043 ], [ 6.5063583, 5.3315016 ] ] } },
{ "type": "Feature", "properties": { "waterway_id": "w960078652", "name": null, "waterway_type": "stream", "intermittent": null, "length_km": 0.397, "source_class": "OSM contextual waterway" }, "geometry": { "type": "LineString", "coordinates": [ [ 6.545233953615041, 5.346330931231817 ], [ 6.5451378, 5.3448203 ], [ 6.5446281, 5.3437561 ], [ 6.544868462499821, 5.342931351161251 ] ] } },
{ "type": "Feature", "properties": { "waterway_id": "w960078655", "name": null, "waterway_type": "stream", "intermittent": null, "length_km": 5.945, "source_class": "OSM contextual waterway" }, "geometry": { "type": "MultiLineString", "coordinates": [ [ [ 6.523803573409837, 5.388279638663385 ], [ 6.523721, 5.38782 ], [ 6.5242802, 5.3868813 ], [ 6.5242282, 5.3862857 ], [ 6.5230252, 5.384609 ], [ 6.5228172, 5.3838904 ], [ 6.5221994, 5.3835085 ], [ 6.5219133, 5.3829517 ], [ 6.5215653, 5.3826659 ], [ 6.5203818, 5.382271 ], [ 6.5202648, 5.3821156 ], [ 6.5203493, 5.3810992 ], [ 6.5199462, 5.3807626 ], [ 6.5197901, 5.3807755 ], [ 6.5195425, 5.381198 ], [ 6.5197347, 5.382346 ], [ 6.5196755, 5.3825177 ], [ 6.5188821, 5.3832978 ], [ 6.5189117, 5.383759 ], [ 6.5187442, 5.3843429 ], [ 6.5180937, 5.3849463 ], [ 6.5178473, 5.3854664 ], [ 6.517613155254363, 5.385621799698329 ] ], [ [ 6.515635078635419, 5.385465165526599 ], [ 6.5154868, 5.3842644 ], [ 6.515822, 5.3834996 ], [ 6.5160323, 5.3822011 ], [ 6.516354, 5.3814879 ], [ 6.5170747, 5.3805995 ], [ 6.5172306, 5.3793061 ], [ 6.5174094, 5.3787671 ], [ 6.5179456, 5.3779001 ], [ 6.5183231, 5.3778702 ], [ 6.5184132, 5.3777677 ], [ 6.5186209, 5.3770484 ], [ 6.5187736, 5.3757987 ], [ 6.5185634, 5.3749017 ], [ 6.5178947, 5.3737136 ], [ 6.5176346, 5.3729173 ], [ 6.517472, 5.3704701 ], [ 6.5170948, 5.369758 ], [ 6.5170363, 5.3693631 ], [ 6.5171924, 5.3656859 ], [ 6.5169388, 5.3619568 ], [ 6.5165789, 5.3591612 ], [ 6.516, 5.3589121 ], [ 6.5159029, 5.3587485 ], [ 6.5161419, 5.3578672 ], [ 6.515906, 5.3560409 ], [ 6.515307, 5.3542959 ], [ 6.5151088, 5.3541585 ], [ 6.5149177, 5.353792 ], [ 6.5148858, 5.3533551 ], [ 6.5150168, 5.3531331 ], [ 6.5145036, 5.3519526 ], [ 6.5126974, 5.3511174 ] ] ] } }
]
}
